{"type":"FeatureCollection","features":[{"type":"Feature","properties":{"name":"Israel","ISO3166-1-Alpha-3":"ISR","ISO3166-1-Alpha-2":"IL"},"geometry":{"type":"Polygon","coordinates":[[[34.248351,31.211449],[34.556032,31.539825],[34.481204,31.583141],[34.711925,31.951606],[35.09962,33.087592],[35.480139,33.087387],[35.549489,33.281019],[35.8211,33.406722],[35.768597,33.272699],[35.888073,32.944941],[35.560547,32.640903],[35.560961,32.384717],[35.190751,32.54171],[34.961411,32.201576],[34.977433,31.833366],[35.222023,31.879178],[35.262811,31.748625],[34.973606,31.63037],[34.878832,31.362841],[35.458538,31.491619],[35.438488,31.103736],[35.140005,30.430185],[35.145276,30.123382],[34.910818,29.489936],[34.248351,31.211449]]]}},{"type":"Feature","properties":{"name":"Palestine","ISO3166-1-Alpha-3":"PSE","ISO3166-1-Alpha-2":"PS"},"geometry":{"type":"MultiPolygon","coordinates":[[[[34.481204,31.583141],[34.556032,31.539825],[34.248351,31.211449],[34.200269,31.314267],[34.481204,31.583141]]],[[[34.986695,31.967228],[35.06435,32.463136],[35.208631,32.54264],[35.560961,32.384717],[35.55941,31.765349],[35.458745,31.491567],[34.878832,31.362841],[34.973606,31.63037],[35.262811,31.748625],[35.222023,31.879178],[34.977433,31.833366],[34.986695,31.967228]]]]}},{"type":"Feature","properties":{"name":"Lebanon","ISO3166-1-Alpha-3":"LBN","ISO3166-1-Alpha-2":"LB"},"geometry":{"type":"Polygon","coordinates":[[[35.105235,33.089016],[35.47047,33.902086],[35.64088,33.999416],[35.665212,34.311347],[35.983165,34.538642],[35.9699,34.649849],[36.440184,34.62936],[36.319881,34.514122],[36.52514,34.422939],[36.604101,34.199102],[36.288565,33.946508],[36.369594,33.837006],[36.05044,33.816438],[35.921559,33.640299],[36.035247,33.567797],[35.549489,33.281019],[35.480139,33.087387],[35.105235,33.089016]]]}},{"type":"Feature","properties":{"name":"Oman","ISO3166-1-Alpha-3":"OMN","ISO3166-1-Alpha-2":"OM"},"geometry":{"type":"MultiPolygon","coordinates":[[[[56.260625,25.331075],[56.344375,25.266528],[56.219958,25.215258],[56.260625,25.331075]],[[56.263026,25.249223],[56.288328,25.271926],[56.265075,25.281175],[56.263026,25.249223]]],[[[56.077397,26.061048],[56.208263,26.263088],[56.404145,26.214748],[56.308442,26.221503],[56.36378,26.385972],[56.500987,26.35871],[56.398611,26.268704],[56.479828,26.145819],[56.328787,26.172838],[56.472992,26.098619],[56.279055,25.627446],[56.145131,25.670837],[56.183475,26.014537],[56.077397,26.061048]]],[[[56.383311,24.978217],[56.611176,24.496324],[57.151541,23.953559],[58.762055,23.54206],[59.515798,22.56151],[59.82488,22.508857],[59.811778,22.237372],[59.344249,21.444729],[59.054373,21.277086],[58.680349,20.828355],[58.728038,20.766913],[58.518565,20.416815],[58.202891,20.404731],[58.20574,20.613349],[57.85613,20.260647],[57.68922,19.728176],[57.815684,18.991767],[56.807791,18.745592],[56.641124,18.559272],[56.56129,18.149237],[56.356293,17.940009],[55.44516,17.84101],[55.228201,17.538764],[55.260265,17.23428],[55.026866,17.011135],[54.084972,17.011135],[53.615408,16.75788],[53.090343,16.642401],[51.978615,18.995638],[54.97838,19.995421],[55.637565,21.97897],[55.186843,22.703577],[55.22591,23.121251],[55.538346,23.770049],[55.456801,23.963164],[55.997853,24.08127],[55.933154,24.220719],[55.755697,24.230331],[55.829388,24.921167],[56.005604,24.956178],[56.029272,24.861171],[55.957649,24.868664],[56.099139,24.730507],[56.383311,24.978217]]],[[[55.836192,17.490912],[55.837087,17.510077],[55.89088,17.504584],[55.836192,17.490912]]],[[[56.055349,17.559801],[56.081065,17.523627],[55.986827,17.492906],[56.055349,17.559801]]],[[[58.906261,20.626003],[58.950043,20.508938],[58.652192,20.170478],[58.648204,20.368842],[58.906261,20.697984],[58.906261,20.626003]]]]}},{"type":"Feature","properties":{"name":"United Arab Emirates","ISO3166-1-Alpha-3":"ARE","ISO3166-1-Alpha-2":"AE"},"geometry":{"type":"MultiPolygon","coordinates":[[[[56.279055,25.627446],[56.369965,25.525702],[56.383311,24.978217],[56.099139,24.730507],[55.978422,24.971759],[55.799105,24.886105],[55.755697,24.230331],[55.933154,24.220719],[55.997853,24.08127],[55.456801,23.963164],[55.538346,23.770049],[55.22591,23.121251],[55.120387,22.623426],[52.558476,22.938575],[51.578536,24.101837],[51.593761,24.384914],[51.634451,24.226874],[51.77947,24.26203],[51.809418,24.000678],[51.928722,23.964748],[52.341075,24.007514],[52.600271,24.20954],[53.878917,24.064846],[54.427257,24.292141],[54.574392,24.446967],[54.417328,24.535102],[54.581798,24.50845],[54.643321,24.748684],[55.082286,25.016832],[55.2824,25.260688],[55.328868,25.201483],[55.551036,25.578599],[55.626313,25.536322],[55.952322,25.772121],[56.077397,26.061048],[56.183475,26.014537],[56.145131,25.670837],[56.279055,25.627446]],[[56.260625,25.331075],[56.219958,25.215258],[56.344375,25.266528],[56.260625,25.331075]]],[[[56.263026,25.249223],[56.265075,25.281175],[56.288328,25.271926],[56.263026,25.249223]]],[[[53.656993,24.158393],[53.848155,24.275051],[53.964854,24.172593],[53.656993,24.158393]]],[[[54.190766,24.22724],[54.101573,24.297675],[54.150401,24.315985],[54.190766,24.22724]]],[[[52.574474,24.34394],[52.650855,24.324899],[52.592154,24.253368],[52.574474,24.34394]]],[[[53.322759,24.262691],[53.184581,24.287014],[53.416759,24.412828],[53.322759,24.262691]]],[[[54.382579,24.439521],[54.396251,24.522691],[54.470551,24.425035],[54.382579,24.439521]]],[[[54.266368,24.294501],[54.205089,24.302924],[54.203787,24.353746],[54.266368,24.294501]]],[[[54.325857,24.373033],[54.281586,24.357489],[54.311371,24.355292],[54.325857,24.373033]]],[[[52.309744,24.539496],[52.314228,24.475651],[52.283214,24.497016],[52.309744,24.539496]]]]}},{"type":"Feature","properties":{"name":"Azerbaijan","ISO3166-1-Alpha-3":"AZE","ISO3166-1-Alpha-2":"AZ"},"geometry":{"type":"MultiPolygon","coordinates":[[[[44.979456,41.082041],[45.029995,41.046281],[44.96695,41.044834],[44.979456,41.082041]]],[[[45.0024,41.290452],[45.24962,41.4445],[45.464801,41.430185],[45.74406,41.335359],[45.685872,41.29624],[45.820748,41.208804],[46.210595,41.200174],[46.496779,41.044834],[46.688499,41.284355],[46.180002,41.655159],[46.430892,41.890442],[46.567576,41.786675],[46.740795,41.851245],[47.141391,41.5524],[47.268411,41.302803],[47.828739,41.198417],[48.053532,41.461295],[48.393046,41.598883],[48.578949,41.845282],[49.042491,41.414374],[49.195486,41.057278],[49.538829,40.788072],[49.53891,40.653998],[50.237559,40.496161],[50.391124,40.235012],[49.893403,40.369045],[49.492524,40.153998],[49.423595,39.70954],[49.284923,39.522203],[49.407074,39.289496],[49.273123,39.336575],[49.203298,39.034125],[49.079275,38.963324],[49.147716,39.083441],[48.967621,39.183824],[48.831798,38.871161],[48.874278,38.434068],[48.607865,38.395978],[47.993122,38.850085],[48.293672,39.004597],[48.10619,39.26918],[48.33894,39.378941],[47.971418,39.704554],[47.10222,39.308403],[46.514039,38.882176],[46.395286,39.19518],[46.602612,39.215489],[46.36087,39.410257],[46.524271,39.554641],[46.18424,39.593243],[45.579419,39.970171],[45.873768,40.009755],[45.97924,40.223592],[45.526192,40.441047],[45.373643,40.675296],[45.599159,40.862675],[45.419119,41.017342],[45.070044,41.062094],[45.199752,41.142658],[45.0024,41.290452]],[[45.513687,40.601967],[45.520198,40.660413],[45.473379,40.640311],[45.513687,40.601967]]],[[[46.135871,38.863701],[45.438601,39.004235],[44.774559,39.702797],[45.033509,39.77039],[45.148334,39.57526],[45.434828,39.488857],[45.788088,39.548957],[45.758633,39.369484],[45.985802,39.24944],[46.135871,38.863701]]],[[[45.209932,40.967991],[45.17717,40.99383],[45.187712,40.998377],[45.209932,40.967991]]],[[[50.618907,40.299994],[50.562999,40.324856],[50.59669,40.33747],[50.618907,40.299994]]],[[[50.388438,40.401679],[50.32602,40.458075],[50.362804,40.453559],[50.388438,40.401679]]]]}},{"type":"Feature","properties":{"name":"Armenia","ISO3166-1-Alpha-3":"ARM","ISO3166-1-Alpha-2":"AM"},"geometry":{"type":"MultiPolygon","coordinates":[[[[45.0024,41.290452],[45.199752,41.142658],[45.070044,41.062094],[45.419119,41.017342],[45.599159,40.862675],[45.373643,40.675296],[45.526192,40.441047],[45.97924,40.223592],[45.873768,40.009755],[45.579419,39.970171],[46.18424,39.593243],[46.524271,39.554641],[46.36087,39.410257],[46.602612,39.215489],[46.395286,39.19518],[46.514039,38.882176],[46.135871,38.863701],[45.985802,39.24944],[45.758633,39.369484],[45.765454,39.561566],[45.434828,39.488857],[45.148334,39.57526],[45.033509,39.77039],[44.774559,39.702797],[44.325645,40.034663],[43.665427,40.110163],[43.721393,40.169384],[43.559491,40.477892],[43.720618,40.762888],[43.440428,41.106588],[45.0024,41.290452]],[[44.979456,41.082041],[44.960697,41.059924],[45.015732,41.023234],[44.979456,41.082041]],[[45.209932,40.967991],[45.191846,40.997809],[45.18027,40.996413],[45.209932,40.967991]]],[[[45.513687,40.601967],[45.473379,40.640311],[45.520198,40.660413],[45.513687,40.601967]]]]}},{"type":"Feature","properties":{"name":"Sudan","ISO3166-1-Alpha-3":"SDN","ISO3166-1-Alpha-2":"SD"},"geometry":{"type":"MultiPolygon","coordinates":[[[[22.861064,10.919154],[22.953668,11.250942],[22.914808,11.396101],[22.771871,11.403181],[22.541704,11.632986],[22.612397,12.072804],[22.458091,12.03043],[22.372825,12.463116],[22.445689,12.611066],[22.204877,12.743358],[21.935953,12.63954],[21.809449,12.793665],[21.964065,13.098349],[22.267612,13.334562],[22.074962,13.780323],[22.546355,14.139707],[22.363523,14.543532],[22.676579,14.688975],[22.658906,14.857415],[22.958009,15.201631],[22.906746,15.541404],[23.094642,15.704262],[23.984406,15.72116],[23.981306,19.995421],[24.980521,20.002062],[24.981245,21.995351],[31.248407,21.994369],[31.42328,22.226965],[31.491803,22.173221],[31.435476,21.995351],[33.181136,21.995409],[33.560882,21.709118],[33.999118,21.767353],[34.084179,21.995454],[36.883637,21.995714],[36.887869,21.650133],[37.312999,21.057685],[37.251964,21.006049],[37.104991,21.207506],[37.228038,20.565009],[37.243826,19.576158],[37.434337,18.861721],[37.539806,18.715888],[37.674725,18.740953],[37.925505,18.585044],[38.121858,18.413301],[38.151674,18.249331],[38.306163,18.306545],[38.217296,18.217719],[38.391449,18.224189],[38.603852,18.013861],[38.233356,17.525701],[38.038846,17.548181],[37.496036,17.312174],[37.403432,17.029918],[36.973484,17.062526],[36.876539,16.513567],[36.954261,16.278284],[36.425094,15.133444],[36.52638,14.263523],[36.391298,13.599352],[36.136946,13.032436],[36.123614,12.721447],[35.687671,12.659228],[35.317358,12.023712],[35.072722,11.818866],[34.95831,10.903418],[34.838524,10.72914],[34.754395,10.684129],[34.574768,10.884143],[34.279489,10.565506],[34.325894,10.223563],[34.070698,9.454592],[33.881425,9.499215],[33.973254,9.854852],[33.916978,10.174522],[33.3813,10.645785],[33.140023,10.739036],[33.083231,11.599164],[33.209218,12.210367],[32.731779,12.216155],[32.746662,12.002731],[32.082207,11.999811],[32.34834,11.703163],[32.430713,11.082193],[31.164382,9.764005],[30.765284,9.724291],[30.012979,10.270485],[29.615432,10.058147],[29.483089,9.761679],[28.913833,9.529031],[28.843841,9.324545],[28.04511,9.331407],[27.895072,9.59541],[27.080393,9.606831],[26.625744,9.480663],[25.905426,10.181266],[25.82848,10.419546],[25.07695,10.286867],[24.976284,9.967351],[24.796398,9.818859],[24.792522,9.520402],[24.558377,8.886746],[24.114011,8.681642],[23.49007,8.732595],[23.567481,8.974828],[23.435706,9.018934],[23.63218,9.277574],[23.644789,9.863068],[22.861064,10.919154]]],[[[37.26531,20.855048],[37.283539,20.83275],[37.254405,20.749823],[37.26531,20.855048]]]]}},{"type":"Feature","properties":{"name":"Eritrea","ISO3166-1-Alpha-3":"ERI","ISO3166-1-Alpha-2":"ER"},"geometry":{"type":"MultiPolygon","coordinates":[[[[43.117686,12.707913],[42.868835,12.626155],[42.678252,12.360022],[42.475681,12.516343],[42.379459,12.465907],[41.7118,13.247926],[41.192038,13.615863],[40.833197,14.105962],[40.104559,14.465966],[39.892273,14.426562],[39.515035,14.56782],[39.20818,14.440179],[39.009742,14.651226],[38.866082,14.493664],[38.426832,14.417183],[38.229325,14.679725],[38.006703,14.7244],[37.891464,14.879532],[37.553707,14.105497],[37.293775,14.457439],[37.121072,14.420826],[37.060197,14.27683],[36.52638,14.263523],[36.425094,15.133444],[36.954261,16.278284],[36.876539,16.513567],[36.973484,17.062526],[37.403432,17.029918],[37.496036,17.312174],[38.038846,17.548181],[38.233356,17.525701],[38.601573,18.004828],[39.012462,17.165351],[39.294119,15.928778],[39.437022,15.811957],[39.45753,15.524604],[39.611339,15.499986],[39.715587,15.094062],[39.854666,15.173489],[39.773448,15.39053],[39.875255,15.504096],[40.079926,15.340725],[40.026622,15.237209],[40.159434,14.982245],[40.286794,14.913479],[40.512706,15.017483],[40.694509,14.896226],[40.766449,14.695299],[41.167491,14.636949],[41.676524,13.940253],[41.969737,13.845649],[42.106619,13.643541],[42.288422,13.574612],[42.379405,13.222642],[42.533946,13.232571],[42.781261,12.851874],[42.927989,12.78974],[43.000987,12.900295],[43.117686,12.707913]]],[[[40.386404,15.641262],[40.393891,15.572333],[39.978852,15.606513],[39.937348,15.702094],[40.081309,15.661119],[39.930431,15.739569],[40.037446,15.838406],[39.950938,15.893948],[40.136485,15.80622],[40.163829,15.644355],[40.386404,15.641262]]],[[[40.095388,16.047349],[39.990001,16.017727],[40.050466,16.107245],[40.095388,16.047349]]]]}},{"type":"Feature","properties":{"name":"Iraq","ISO3166-1-Alpha-3":"IRQ","ISO3166-1-Alpha-2":"IQ"},"geometry":{"type":"Polygon","coordinates":[[[44.766135,37.14192],[44.887368,37.015933],[44.831248,36.791916],[45.045911,36.668047],[44.991393,36.53374],[45.238871,36.402999],[45.320313,35.994031],[45.53999,35.99398],[45.749021,35.810994],[46.327074,35.8035],[46.003786,35.674258],[45.963995,35.494165],[46.151064,35.111605],[45.913197,35.087317],[45.850203,34.906811],[45.666752,34.80692],[45.70153,34.551277],[45.500664,34.591688],[45.417052,34.444359],[45.55756,34.311964],[45.544537,34.139494],[45.380361,33.97356],[45.734552,33.583119],[45.885964,33.63092],[45.852581,33.494365],[45.974434,33.490799],[46.155301,33.260219],[46.167187,33.168338],[46.030296,33.105681],[46.09701,32.95432],[46.479312,32.891792],[47.090593,32.474556],[47.410832,32.395285],[47.491344,32.148633],[47.834475,31.805708],[47.678929,31.407851],[47.672935,30.994698],[48.012242,30.989066],[48.013586,30.463878],[48.305713,30.312828],[48.559255,29.946601],[47.969005,30.004055],[47.934825,30.107082],[47.948009,29.994045],[47.674175,30.098216],[47.197098,30.03424],[46.532436,29.095745],[44.691825,29.201836],[42.075395,31.079861],[40.424126,31.920533],[39.146375,32.118144],[39.291999,32.244519],[39.235775,32.352858],[39.028759,32.328338],[38.97822,32.47497],[39.057181,32.496596],[38.774511,33.371685],[40.965282,34.401855],[41.204234,34.793123],[41.20134,35.243018],[41.363501,35.655241],[41.236687,36.060332],[41.276994,36.354785],[41.385411,36.516377],[41.843781,36.617869],[42.715666,37.355292],[43.114815,37.371131],[43.809398,37.199694],[44.088037,37.31116],[44.235005,37.236772],[44.180021,37.087608],[44.284821,36.969166],[44.610279,37.178352],[44.766135,37.14192]]]}},{"type":"Feature","properties":{"name":"Iran","ISO3166-1-Alpha-3":"IRN","ISO3166-1-Alpha-2":"IR"},"geometry":{"type":"MultiPolygon","coordinates":[[[[44.806993,39.639902],[45.438601,39.004235],[46.126052,38.862668],[46.553726,38.889824],[47.10222,39.308403],[47.971418,39.704554],[48.33894,39.378941],[48.10619,39.26918],[48.293672,39.004597],[47.993122,38.850085],[48.607865,38.395978],[48.874278,38.434068],[48.944509,37.903388],[49.132498,37.623358],[50.195649,37.38935],[50.322276,37.153266],[51.004731,36.767646],[51.909028,36.582709],[54.006521,36.952623],[53.609141,36.876899],[54.014334,36.821112],[53.913748,37.34276],[54.653956,37.438905],[54.788314,37.524636],[54.826658,37.735269],[55.130309,37.95231],[55.708672,38.118656],[56.299747,38.080235],[56.436482,38.255082],[57.038409,38.187283],[57.174939,38.277561],[57.352395,37.967529],[58.156687,37.788186],[58.357812,37.633311],[58.801093,37.694651],[59.312276,37.530346],[59.461724,37.207601],[60.019209,37.025803],[60.34229,36.637145],[61.165806,36.636318],[61.224717,36.123688],[61.129839,35.970519],[61.241047,35.893883],[61.290036,35.548064],[61.108342,35.277951],[61.06545,34.814724],[60.699685,34.516396],[60.890474,34.318914],[60.643667,34.306641],[60.492772,34.139028],[60.511789,33.638387],[60.92086,33.514105],[60.562949,33.058268],[60.830323,32.248885],[60.821744,31.494668],[61.686911,31.373177],[61.826438,31.014956],[61.802253,30.847059],[60.844379,29.858179],[61.337372,29.374384],[61.566505,28.870978],[61.89279,28.5426],[62.362787,28.418887],[62.575643,28.229027],[62.761523,28.246442],[62.814698,27.494964],[62.742351,27.266812],[63.177105,27.258441],[63.319628,27.117312],[63.231365,27.065843],[63.163772,26.645093],[62.418495,26.562307],[62.265119,26.360976],[61.832949,26.225377],[61.754504,25.819975],[61.66035,25.769178],[61.620042,25.285486],[61.411717,25.059408],[60.633474,25.27497],[60.549653,25.446926],[60.395274,25.377875],[60.467246,25.290276],[59.453902,25.461607],[59.043956,25.399604],[58.825206,25.56037],[58.418956,25.612006],[58.07309,25.563625],[57.963227,25.693183],[57.771739,25.635565],[57.755626,25.742743],[57.311534,25.784125],[56.973318,27.002997],[56.808849,27.139553],[56.123709,27.160631],[55.665863,26.995429],[55.521739,26.784573],[55.270844,26.792548],[54.791026,26.495836],[54.389415,26.605129],[54.308116,26.714993],[53.716075,26.708564],[53.444102,26.975653],[52.601329,27.352932],[52.670095,27.448635],[52.459646,27.632636],[52.011241,27.832709],[51.399876,27.931713],[51.058849,28.735907],[50.804861,28.93358],[50.929942,29.054633],[50.643809,29.143459],[50.655284,29.449123],[50.144867,29.938056],[50.073416,30.195746],[49.532237,30.022935],[49.479828,30.156073],[49.245128,30.15648],[49.221202,30.264553],[48.921153,30.380764],[49.202891,30.346625],[49.211192,30.506334],[48.981456,30.515611],[49.037283,30.432522],[48.862315,30.345608],[48.915294,30.042182],[48.464307,29.989127],[48.397025,30.220999],[48.013586,30.463878],[48.012242,30.989066],[47.672935,30.994698],[47.678929,31.407851],[47.834475,31.805708],[47.491344,32.148633],[47.410832,32.395285],[47.090593,32.474556],[46.479312,32.891792],[46.09701,32.95432],[46.030296,33.105681],[46.167187,33.168338],[46.155301,33.260219],[45.974434,33.490799],[45.852581,33.494365],[45.885964,33.63092],[45.734552,33.583119],[45.380361,33.97356],[45.544537,34.139494],[45.55756,34.311964],[45.417052,34.444359],[45.500664,34.591688],[45.70153,34.551277],[45.666752,34.80692],[45.850203,34.906811],[45.913197,35.087317],[46.151064,35.111605],[45.963995,35.494165],[46.003786,35.674258],[46.327074,35.8035],[45.749021,35.810994],[45.53999,35.99398],[45.320313,35.994031],[45.238871,36.402999],[45.072266,36.423411],[45.035266,36.689596],[44.823393,36.809331],[44.887368,37.015933],[44.752699,37.103318],[44.801585,37.292686],[44.572142,37.430791],[44.59612,37.716381],[44.202087,37.897171],[44.458764,38.338333],[44.289524,38.382258],[44.275002,38.843573],[44.014863,39.374084],[44.387967,39.414495],[44.565734,39.765894],[44.806993,39.639902]]],[[[54.526378,26.309638],[54.526378,26.251939],[54.488536,26.288723],[54.526378,26.309638]]],[[[54.036876,26.48843],[53.964854,26.564114],[54.036469,26.52676],[54.036876,26.48843]]],[[[53.317149,26.799994],[53.189789,26.815172],[53.262462,26.833645],[53.317149,26.799994]]],[[[56.322276,26.834418],[56.341156,26.87934],[56.40919,26.86225],[56.322276,26.834418]]],[[[56.212413,27.002997],[56.287446,26.955146],[55.947032,26.696275],[55.290538,26.548489],[55.284679,26.660224],[55.774181,26.796942],[55.757986,26.954047],[56.212413,27.002997]]],[[[56.472992,27.106024],[56.505138,27.086982],[56.481781,27.046332],[56.472992,27.106024]]],[[[50.305817,29.271275],[50.333018,29.224026],[50.296748,29.237473],[50.305817,29.271275]]],[[[54.54656,25.9265],[54.553233,25.899848],[54.513682,25.902655],[54.54656,25.9265]]],[[[55.894298,26.679429],[55.889659,26.623765],[55.855479,26.64411],[55.894298,26.679429]]],[[[53.639415,26.688788],[53.646251,26.657172],[53.601248,26.679592],[53.639415,26.688788]]],[[[55.048676,25.885769],[55.038259,25.857733],[55.018972,25.865749],[55.048676,25.885769]]]]}},{"type":"Feature","properties":{"name":"Qatar","ISO3166-1-Alpha-3":"QAT","ISO3166-1-Alpha-2":"QA"},"geometry":{"type":"Polygon","coordinates":[[[50.807872,24.746649],[50.785004,25.60456],[50.857188,25.650824],[50.898692,25.532213],[50.984223,25.98135],[51.251231,26.160102],[51.577485,25.880845],[51.471934,25.521389],[51.611013,25.022366],[51.340587,24.569892],[51.278087,24.662991],[50.978883,24.567726],[50.807872,24.746649]]]}},{"type":"Feature","properties":{"name":"Saudi Arabia","ISO3166-1-Alpha-3":"SAU","ISO3166-1-Alpha-2":"SA"},"geometry":{"type":"MultiPolygon","coordinates":[[[[50.807872,24.746649],[50.978883,24.567726],[51.498302,24.583564],[51.278819,24.307766],[51.569347,24.256171],[51.593522,24.078325],[52.558476,22.938575],[55.105297,22.620946],[55.186843,22.703577],[55.637565,21.97897],[54.97838,19.995421],[51.978615,18.995638],[49.035849,18.57972],[48.161949,18.148919],[47.589012,17.463276],[47.427575,17.091826],[47.161338,16.947442],[46.970342,16.956847],[46.710099,17.275381],[45.430384,17.312019],[45.165387,17.428395],[44.149015,17.40483],[43.915128,17.301839],[43.412885,17.519965],[43.165044,17.32592],[43.252171,17.27197],[43.118432,17.086245],[43.179979,16.664617],[42.78948,16.370958],[42.712413,16.730618],[42.3567,17.18244],[42.362966,17.024807],[42.301524,17.453599],[41.787608,17.833564],[41.493337,18.223944],[41.435802,18.469957],[41.210216,18.697943],[41.176524,19.067369],[41.068614,19.125393],[40.944672,19.505683],[40.760427,19.60871],[40.744884,19.777004],[40.656586,19.759508],[40.534516,19.961819],[40.083832,20.279242],[39.760102,20.350816],[39.174327,21.108873],[39.08074,21.315009],[39.171072,21.40412],[39.10906,21.747789],[38.931254,22.006073],[39.005693,22.002005],[39.142751,22.403225],[39.070256,22.365828],[39.013031,22.766791],[38.799571,22.998684],[38.452647,23.784003],[37.94795,24.207047],[37.865634,24.149888],[37.429403,24.367307],[37.148611,24.85102],[37.256602,24.871243],[37.242198,25.175279],[36.93629,25.646145],[36.702322,25.779975],[36.696056,26.022284],[36.512706,26.110989],[36.031993,26.906806],[35.163585,28.009345],[35.216319,28.054389],[34.709239,28.140082],[34.613048,28.030219],[34.572765,28.112779],[34.803775,28.527133],[34.949385,29.351686],[36.069457,29.200028],[36.477081,29.494609],[36.728745,29.853528],[37.470198,29.994553],[37.647552,30.330863],[37.981381,30.498811],[36.959532,31.490999],[38.96344,31.994327],[39.157744,32.121348],[40.37028,31.938465],[42.075395,31.079861],[44.691825,29.201836],[47.433466,28.994717],[47.668129,28.533505],[48.49464,28.500149],[48.65211,28.046088],[48.792003,28.007025],[48.88266,27.826728],[48.778819,27.71955],[48.880138,27.687567],[48.831798,27.612494],[49.239757,27.545111],[49.312755,27.448635],[49.119802,27.441148],[49.263845,27.413886],[49.223399,27.331285],[49.312755,27.344957],[49.374848,27.149075],[49.572113,27.194159],[49.699474,26.958238],[50.158458,26.664862],[49.988455,26.724433],[50.03061,26.494615],[50.216563,26.32392],[50.141368,26.035956],[50.0324,26.201077],[49.990001,26.001776],[50.101329,25.989488],[50.257498,25.631903],[50.148692,25.699856],[50.471528,25.437201],[50.562185,25.054836],[50.807872,24.746649]]],[[[42.186438,16.705528],[42.178559,16.583482],[42.085753,16.693525],[41.955457,16.670115],[41.757085,16.896372],[41.905143,16.747581],[42.03499,16.715773],[42.062185,16.814195],[42.186438,16.705528]]],[[[41.918893,16.791155],[41.86085,17.013617],[42.001845,16.760987],[41.918893,16.791155]]],[[[49.56544,27.351752],[49.688813,27.317694],[49.456228,27.290351],[49.56544,27.351752]]],[[[37.026866,25.419623],[37.003591,25.411526],[36.944347,25.448798],[37.026866,25.419623]]],[[[36.942149,25.418362],[36.89975,25.361029],[36.776541,25.496405],[36.942149,25.418362]]],[[[36.849376,25.533026],[36.828949,25.561347],[36.866547,25.557522],[36.849376,25.533026]]],[[[36.790212,25.49787],[36.681407,25.553453],[36.879161,25.443345],[36.790212,25.49787]]],[[[36.900727,25.549302],[36.927745,25.593085],[36.915863,25.56802],[36.900727,25.549302]]],[[[36.683116,25.572333],[36.491466,25.645087],[36.54363,25.702867],[36.683116,25.572333]]],[[[36.544281,25.73135],[36.590831,25.860541],[36.611095,25.709459],[36.544281,25.73135]]]]}},{"type":"Feature","properties":{"name":"Kuwait","ISO3166-1-Alpha-3":"KWT","ISO3166-1-Alpha-2":"KW"},"geometry":{"type":"MultiPolygon","coordinates":[[[[47.948009,29.994045],[48.176758,29.541916],[47.965531,29.576298],[47.704717,29.363633],[48.100266,29.349954],[48.158458,29.017279],[48.393565,28.743394],[48.432781,28.54048],[47.668129,28.533505],[47.434086,28.994588],[46.532436,29.095745],[46.85345,29.44456],[47.144698,30.003338],[47.674175,30.098216],[47.948009,29.994045]]],[[[48.338227,29.462795],[48.397356,29.387497],[48.269242,29.429685],[48.338227,29.462795]]],[[[48.352712,29.709784],[48.161632,29.629706],[48.046072,29.800482],[48.197439,29.92536],[48.12086,29.981391],[48.352712,29.709784]]],[[[48.078868,30.004055],[48.023692,29.969875],[48.04363,30.019029],[48.078868,30.004055]]]]}},{"type":"Feature","properties":{"name":"Turkmenistan","ISO3166-1-Alpha-3":"TKM","ISO3166-1-Alpha-2":"TM"},"geometry":{"type":"MultiPolygon","coordinates":[[[[61.269676,35.618499],[61.241047,35.893883],[61.129839,35.970519],[61.224717,36.123688],[61.165806,36.636318],[60.34229,36.637145],[60.019209,37.025803],[59.461724,37.207601],[59.312276,37.530346],[58.801093,37.694651],[58.357812,37.633311],[58.156687,37.788186],[57.352395,37.967529],[57.185894,38.276476],[57.038409,38.187283],[56.436482,38.255082],[56.214067,38.06884],[55.447395,38.083671],[54.85663,37.761133],[54.788314,37.524636],[54.653956,37.438905],[53.913748,37.34276],[53.826996,38.525458],[53.982758,38.916002],[53.701508,39.078518],[53.72462,39.241685],[53.683767,39.083441],[53.567638,39.193305],[53.562022,39.353339],[53.149913,39.344143],[53.161469,39.179592],[53.085216,39.400458],[53.27589,39.664862],[53.21697,39.525051],[53.733165,39.527981],[53.533458,39.680487],[53.416759,39.64997],[53.382009,39.769273],[53.574474,39.967922],[52.913585,40.021674],[53.008067,39.766343],[52.738455,40.053616],[52.736583,40.484565],[52.863129,40.658108],[52.916515,41.08515],[53.118907,40.769843],[53.369965,40.835191],[53.483084,40.737047],[53.624685,40.88703],[53.721039,40.625678],[54.171072,40.729682],[54.403575,40.673651],[54.250011,40.890611],[54.639903,40.838772],[54.76002,40.965033],[54.677989,41.070868],[54.767426,41.03677],[54.073985,41.487982],[53.818696,42.124416],[53.163829,42.103705],[52.960297,41.984361],[52.769216,41.675605],[52.916515,41.674221],[52.813487,41.37934],[52.882335,41.050442],[52.760997,41.37759],[52.562185,41.519477],[52.59254,41.645738],[52.437671,41.748876],[52.978709,42.126629],[54.122618,42.337598],[54.907067,41.932144],[55.478298,41.266785],[57.010194,41.254124],[57.161399,41.367967],[57.019599,41.465946],[56.978361,41.895118],[57.382264,42.163629],[57.850453,42.191431],[58.016024,42.499707],[58.490621,42.297574],[58.121341,42.624247],[58.534546,42.654503],[58.587876,42.791188],[58.89442,42.547843],[59.146084,42.526759],[59.258429,42.347545],[59.866351,42.304215],[60.028201,42.199518],[59.906451,41.966613],[60.252684,41.780061],[60.049182,41.753499],[60.16473,41.584956],[60.094244,41.389516],[60.478096,41.212111],[60.860295,41.252987],[61.281355,41.157282],[61.43318,41.300323],[61.877907,41.124984],[62.134171,40.577834],[62.353279,40.430402],[62.452808,40.009239],[63.709268,39.190891],[64.150585,38.949458],[64.337344,38.970956],[65.60414,38.237409],[65.876681,38.272962],[66.645782,37.945902],[66.518813,37.782708],[66.469927,37.329764],[65.761443,37.578379],[65.536857,37.257107],[64.807909,37.135512],[64.477697,36.271637],[64.057258,36.105239],[64.045114,35.998734],[63.104086,35.856469],[63.214415,35.699269],[63.076646,35.6247],[63.080211,35.437063],[62.69362,35.248392],[62.431879,35.280638],[62.286203,35.140647],[62.2337,35.293764],[62.00746,35.438923],[61.604746,35.430603],[61.269676,35.618499]]],[[[53.029959,39.061347],[53.053966,39.026801],[53.092133,38.778795],[53.029959,39.061347]]],[[[53.468516,39.584947],[53.51295,39.591213],[53.506196,39.508612],[53.468516,39.584947]]]]}},{"type":"Feature","properties":{"name":"Jordan","ISO3166-1-Alpha-3":"JOR","ISO3166-1-Alpha-2":"JO"},"geometry":{"type":"Polygon","coordinates":[[[35.611758,32.6819],[35.895721,32.713276],[36.066253,32.517319],[36.806569,32.313042],[38.774511,33.371685],[39.057181,32.496596],[38.97822,32.47497],[39.028759,32.328338],[39.235775,32.352858],[39.291999,32.244519],[38.96344,31.994327],[36.959532,31.490999],[37.981381,30.498811],[37.647552,30.330863],[37.470198,29.994553],[36.728745,29.853528],[36.477081,29.494609],[36.016437,29.189951],[34.949385,29.351686],[35.140005,30.430185],[35.438488,31.103736],[35.611758,32.6819]]]}},{"type":"Feature","properties":{"name":"Egypt","ISO3166-1-Alpha-3":"EGY","ISO3166-1-Alpha-2":"EG"},"geometry":{"type":"MultiPolygon","coordinates":[[[[33.995453,26.751695],[33.989594,26.720282],[33.970551,26.790676],[33.995453,26.751695]]],[[[34.367855,30.907417],[34.886729,29.490058],[34.736583,29.311265],[34.624522,28.735989],[34.410167,28.320014],[34.434906,27.975572],[34.214122,27.79149],[34.257335,27.728583],[33.763357,28.023993],[33.228689,28.569403],[33.177908,28.989569],[32.715017,29.455959],[32.57781,30.01142],[32.337657,29.592475],[32.581228,29.369127],[32.625499,28.972724],[32.868907,28.578925],[33.554373,27.89647],[33.592052,27.791246],[33.473481,27.823188],[33.592052,27.646633],[33.496349,27.646633],[33.996104,26.896552],[33.941417,26.65351],[34.54656,25.725043],[35.144556,24.500206],[35.792535,23.902291],[35.483871,23.917787],[35.489431,23.497016],[35.695305,22.932126],[35.885964,22.735695],[36.226085,22.635443],[36.883637,21.995714],[31.435476,21.995351],[31.491803,22.173221],[31.42328,22.226965],[31.248407,21.994369],[24.981245,21.995351],[24.981245,29.181372],[24.688653,30.182758],[24.994887,30.785099],[24.848953,31.34863],[25.088422,31.613524],[25.401866,31.50316],[25.966807,31.616604],[27.320649,31.381008],[27.4463,31.223212],[27.852875,31.240302],[27.926931,31.099026],[28.424327,31.083441],[29.028087,30.827053],[29.503266,30.956692],[30.069591,31.333482],[30.165212,31.216783],[30.288748,31.237942],[30.179454,31.278266],[30.343923,31.497992],[30.398611,31.443345],[30.362153,31.508734],[30.535818,31.463853],[30.973888,31.586737],[30.542654,31.402411],[30.734386,31.388129],[31.119151,31.493109],[30.978038,31.584296],[31.097423,31.607896],[31.556814,31.443345],[31.944835,31.520941],[32.199555,31.295071],[31.889496,31.53205],[31.766938,31.284654],[32.03712,31.216783],[32.106456,31.053371],[32.283458,31.136542],[32.207042,31.295071],[32.601573,31.060981],[32.927257,31.155422],[32.666515,31.052314],[32.731293,31.038764],[33.009939,31.056301],[33.064301,31.134914],[32.954438,31.10692],[33.109386,31.196438],[33.133311,31.045559],[33.406423,31.155422],[33.64796,31.117255],[34.200269,31.314267],[34.367855,30.907417]],[[35.429207,22.97833],[35.212088,22.786263],[35.621087,23.139293],[35.429207,22.97833]],[[34.777558,22.499765],[34.828226,22.60689],[34.861952,22.680182],[34.777558,22.499765]],[[34.501684,22.262124],[34.682088,22.297912],[34.147476,22.191856],[34.501684,22.262124]]],[[[34.05128,27.45482],[33.956391,27.504381],[33.941417,27.53677],[34.05128,27.45482]]],[[[34.661786,27.930218],[34.731882,27.957141],[34.704695,27.908368],[34.661786,27.930218]]],[[[34.620453,27.920356],[34.496349,27.996039],[34.507904,27.971177],[34.620453,27.920356]]],[[[32.983084,31.089911],[32.989268,31.073432],[32.975108,31.086493],[32.983084,31.089911]]],[[[33.454356,31.15469],[33.301117,31.215888],[33.406016,31.184475],[33.454356,31.15469]]],[[[33.2435,31.219306],[33.076427,31.218736],[33.001475,31.1883],[33.2435,31.219306]]]]}},{"type":"Feature","properties":{"name":"Yemen","ISO3166-1-Alpha-3":"YEM","ISO3166-1-Alpha-2":"YE"},"geometry":{"type":"MultiPolygon","coordinates":[[[[51.978615,18.995638],[53.090343,16.642401],[52.292735,16.263821],[52.155528,15.983873],[52.228363,15.616116],[51.367849,15.229722],[49.372406,14.649807],[49.092784,14.519599],[48.695811,14.043606],[48.188731,13.969143],[48.016856,14.057278],[47.398204,13.654853],[46.700694,13.430325],[45.665782,13.341986],[45.403005,13.070136],[45.118175,12.961737],[45.058604,12.76203],[45.015147,12.85871],[44.881358,12.729885],[44.610606,12.819566],[44.415538,12.670152],[43.9463,12.598049],[43.600597,12.756293],[43.468028,12.683905],[43.473155,12.846625],[43.226329,13.283881],[43.280935,13.722113],[42.959321,14.513495],[43.021495,14.442084],[42.937266,14.948472],[42.864024,15.13642],[42.610118,15.243598],[42.712413,15.366278],[42.794932,15.209296],[42.691905,15.702094],[42.834809,15.915351],[42.78948,16.370958],[43.179979,16.664617],[43.118432,17.086245],[43.303072,17.459039],[43.50337,17.513454],[43.915128,17.301839],[44.149015,17.40483],[45.165387,17.428395],[45.430384,17.312019],[46.710099,17.275381],[46.970342,16.956847],[47.161338,16.947442],[47.427575,17.091826],[47.589012,17.463276],[48.161949,18.148919],[49.035849,18.57972],[51.978615,18.995638]]],[[[53.248326,12.121302],[53.286884,12.127337],[53.310267,12.111444],[53.248326,12.121302]]],[[[53.053068,12.17492],[53.071829,12.130283],[52.98872,12.172198],[53.053068,12.17492]]],[[[52.289199,12.200815],[52.388464,12.148868],[52.064118,12.235473],[52.289199,12.200815]]],[[[43.428966,12.673774],[43.447439,12.638658],[43.39975,12.649848],[43.428966,12.673774]]],[[[54.470662,12.543566],[54.540294,12.550238],[54.140498,12.351344],[53.731165,12.300414],[53.306895,12.543402],[53.518946,12.714351],[53.846104,12.598605],[54.119395,12.701117],[54.470662,12.543566]]],[[[42.719249,13.742621],[42.794932,13.769924],[42.688487,13.663764],[42.719249,13.742621]]],[[[42.760265,14.064683],[42.781749,13.919989],[42.691905,14.01317],[42.760265,14.064683]]],[[[42.635997,15.445543],[42.628184,15.398668],[42.56837,15.268866],[42.635997,15.445543]]]]}},{"type":"Feature","properties":{"name":"Bir Tawil","ISO3166-1-Alpha-3":"-99","ISO3166-1-Alpha-2":"-99"},"geometry":{"type":"Polygon","coordinates":[[[33.181136,21.995409],[34.084179,21.995454],[33.999118,21.767353],[33.558442,21.710957],[33.181136,21.995409]]]}},{"type":"Feature","properties":{"name":"Bahrain","ISO3166-1-Alpha-3":"BHR","ISO3166-1-Alpha-2":"BH"},"geometry":{"type":"MultiPolygon","coordinates":[[[[50.551606,26.194241],[50.64566,26.14575],[50.565278,25.789537],[50.448904,26.161607],[50.481456,26.24258],[50.551606,26.194241]]],[[[50.397704,26.174732],[50.419172,26.14897],[50.405218,26.124282],[50.397704,26.174732]]],[[[50.60165,26.278852],[50.671421,26.227328],[50.653174,26.225181],[50.60165,26.278852]]],[[[50.77431,25.721648],[50.766083,25.671653],[50.759755,25.582422],[50.77431,25.721648]]],[[[50.775576,25.752657],[50.78317,25.755821],[50.791397,25.74886],[50.775576,25.752657]]],[[[50.804687,25.679247],[50.816711,25.669122],[50.804054,25.669755],[50.804687,25.679247]]],[[[50.793296,25.652035],[50.815445,25.636847],[50.790764,25.630518],[50.793296,25.652035]]]]}}]}
