{"type":"FeatureCollection","features":[{"type":"Feature","properties":{"name":"Australia","ISO3166-1-Alpha-3":"AUS","ISO3166-1-Alpha-2":"AU"},"geometry":{"type":"MultiPolygon","coordinates":[[[[131.535899,-31.605564],[131.135427,-31.474786],[130.79005,-31.608087],[129.20045,-31.656427],[127.288748,-32.27337],[126.007579,-32.27337],[124.833991,-32.867698],[124.201182,-33.038018],[123.952485,-33.567315],[123.526622,-33.938653],[123.383311,-33.890883],[123.154633,-34.009454],[123.023123,-33.86061],[122.094737,-34.019138],[122.005707,-33.820733],[121.793712,-33.897149],[121.333751,-33.815199],[120.394298,-33.97381],[120.002208,-33.926039],[119.572032,-34.142022],[119.469493,-34.313409],[119.559255,-34.383722],[119.408458,-34.37005],[119.229991,-34.532159],[118.839854,-34.452569],[118.887706,-34.500421],[118.724946,-34.635837],[118.442638,-34.740004],[118.398448,-34.900974],[118.160818,-34.945489],[118.199392,-35.016778],[117.83546,-35.031427],[117.948578,-35.117364],[117.684337,-35.046319],[117.61964,-35.137872],[117.191661,-35.007501],[116.637869,-35.050226],[116.39503,-34.949477],[116.503673,-34.939223],[116.387543,-34.857517],[115.978526,-34.835626],[115.612315,-34.445896],[115.290782,-34.301853],[115.118826,-34.363377],[115.010427,-34.24505],[114.988536,-33.521091],[115.367198,-33.63128],[115.710134,-33.270685],[115.600922,-32.661716],[115.700938,-32.512953],[115.639659,-32.656915],[115.714122,-32.78045],[115.721528,-31.772638],[115.060802,-30.522393],[114.942638,-30.03102],[114.97877,-29.479913],[114.842459,-29.108575],[114.60377,-28.838556],[114.531098,-28.522393],[114.166026,-28.106703],[114.012543,-27.315362],[113.15698,-26.151926],[113.275971,-26.234857],[113.306224,-25.996651],[113.38427,-26.382755],[113.362674,-26.012815],[113.486755,-26.479943],[113.543565,-26.287118],[113.565507,-26.565081],[113.625147,-26.439997],[113.669586,-26.652893],[113.870286,-26.52213],[113.884773,-26.342673],[113.577239,-26.089343],[113.420781,-25.728215],[113.51525,-25.509337],[113.756951,-25.885217],[113.728004,-26.197035],[113.84807,-26.12171],[113.854503,-25.944268],[114.021534,-26.390888],[114.103776,-26.447882],[114.234371,-26.316584],[114.258556,-25.841892],[113.692149,-25.105239],[113.60434,-24.728285],[113.391449,-24.41367],[113.459727,-23.910333],[113.768809,-23.457696],[113.807384,-22.930597],[113.646658,-22.577732],[113.947032,-21.952569],[114.172211,-21.802992],[114.11085,-22.477716],[114.337413,-22.493829],[114.495616,-22.00449],[114.550304,-22.041925],[114.646739,-21.843357],[115.478526,-21.501153],[116.1963,-20.846856],[116.451508,-20.814711],[116.790863,-20.534926],[116.855479,-20.712091],[117.154063,-20.596368],[117.35377,-20.727716],[117.736339,-20.658461],[118.15089,-20.356134],[118.805675,-20.28102],[119.09547,-19.966729],[119.589854,-20.065851],[120.3685,-19.86712],[121.128266,-19.520685],[121.519379,-19.069594],[121.613292,-18.712498],[121.769054,-18.657403],[121.811046,-18.462579],[122.347016,-18.121189],[122.344086,-17.983005],[122.16977,-17.978285],[122.172048,-17.261163],[122.472911,-16.92018],[122.594981,-16.970961],[122.582367,-16.779555],[122.820974,-16.779718],[122.7588,-16.604425],[122.916189,-16.415948],[123.020274,-16.382582],[122.959809,-16.580336],[123.132172,-16.686293],[123.143321,-16.913751],[123.570811,-17.595147],[123.594981,-16.985121],[123.913341,-17.21559],[123.794607,-17.000095],[123.863048,-17.025567],[123.953298,-16.828546],[123.792491,-16.89072],[123.509939,-16.653904],[123.609223,-16.546319],[123.424164,-16.491143],[123.643321,-16.525974],[123.506114,-16.407973],[123.711681,-16.429783],[123.631602,-16.364679],[123.711681,-16.333591],[123.539724,-16.265232],[123.57016,-16.176935],[123.806895,-16.191095],[123.732677,-16.258966],[123.863048,-16.429783],[123.891856,-16.3388],[123.992849,-16.377862],[123.910899,-16.217462],[124.222667,-16.395603],[124.903982,-16.402439],[124.401541,-16.329278],[124.434337,-16.057794],[124.520356,-16.176446],[124.596202,-16.115004],[124.609711,-15.898696],[124.732677,-15.806573],[124.609711,-15.806573],[124.486339,-15.998305],[124.376475,-15.525323],[124.682628,-15.473891],[124.663748,-15.250421],[125.185232,-15.517836],[125.07252,-15.418878],[125.144298,-15.313084],[124.885265,-15.296808],[125.055431,-15.162286],[124.869884,-15.250421],[124.84197,-15.141209],[125.021251,-15.100274],[125.000173,-14.970392],[125.072276,-14.96852],[125.165294,-15.162286],[125.165294,-15.011407],[125.43214,-15.137953],[125.429535,-15.009047],[125.186778,-14.945489],[125.308849,-14.885024],[125.135997,-14.735935],[125.347667,-14.498712],[125.439464,-14.638849],[125.493663,-14.490655],[125.589203,-14.545343],[125.618175,-14.223728],[125.733165,-14.270929],[125.637706,-14.634698],[125.732921,-14.398533],[125.918142,-14.637791],[126.144786,-14.195245],[125.97283,-14.021417],[126.096365,-14.025079],[126.017345,-13.922052],[126.086436,-13.889418],[126.110606,-14.017755],[126.22047,-13.956231],[126.165863,-14.085382],[126.288829,-14.230076],[126.329112,-14.059259],[126.527517,-13.928969],[126.453298,-14.077569],[126.603526,-14.230076],[126.707205,-13.983575],[126.85727,-13.949395],[126.747406,-13.791762],[126.863536,-13.743341],[127.02003,-13.777765],[127.129731,-13.967706],[127.165212,-13.880548],[127.418468,-13.94199],[127.947276,-14.573175],[128.231293,-14.718194],[128.117931,-14.853774],[128.024262,-15.496515],[128.125173,-15.182061],[128.289317,-15.401788],[128.195811,-15.056817],[128.313487,-14.904962],[128.350108,-15.037286],[128.450206,-15.042657],[128.388438,-14.803399],[128.5324,-14.752862],[129.102306,-14.905369],[129.18393,-14.981866],[129.152599,-15.223728],[129.263031,-15.107599],[129.22877,-14.836602],[129.476573,-14.93377],[129.585216,-15.169692],[129.727061,-15.193617],[129.649181,-14.832696],[129.982432,-14.805922],[129.993337,-14.72503],[129.762706,-14.819594],[129.588064,-14.613458],[129.789399,-14.531671],[129.53533,-14.545343],[129.372895,-14.329278],[129.482188,-14.051853],[129.735606,-13.991795],[129.891287,-13.437677],[129.968923,-13.53045],[130.332286,-13.346368],[130.122732,-13.164646],[130.129893,-12.940525],[130.318614,-12.90602],[130.35434,-12.672052],[130.506847,-12.596449],[130.692882,-12.700616],[130.560395,-12.628351],[130.57838,-12.400811],[130.783865,-12.434991],[130.79005,-12.585138],[130.899913,-12.639825],[130.968598,-12.626723],[130.87379,-12.513604],[130.968598,-12.537367],[130.824718,-12.400811],[131.05128,-12.373468],[131.026134,-12.147149],[131.257335,-12.236261],[131.296235,-12.043878],[131.447765,-12.289809],[131.896983,-12.215916],[132.057872,-12.306736],[132.251313,-12.156345],[132.379893,-12.215997],[132.387543,-12.380304],[132.439626,-12.15488],[132.757579,-12.133396],[132.634532,-12.067153],[132.593028,-11.784438],[132.695567,-11.653497],[132.495372,-11.47617],[132.106456,-11.523126],[131.976085,-11.351251],[131.767589,-11.310805],[131.882498,-11.17197],[131.983246,-11.226251],[131.985606,-11.129164],[132.174653,-11.406427],[132.235606,-11.339451],[132.148123,-11.137302],[132.285167,-11.268487],[132.343028,-11.122003],[132.37794,-11.283136],[132.474946,-11.234145],[132.674164,-11.508396],[132.910981,-11.331801],[133.166759,-11.70436],[133.532074,-11.749119],[133.532074,-11.865818],[133.915782,-11.722345],[133.843761,-11.855239],[134.13795,-11.87949],[134.185802,-12.07643],[134.285004,-11.968194],[134.594249,-12.064386],[134.768565,-11.947686],[134.861095,-12.12656],[135.21759,-12.300823],[135.170075,-12.228222],[135.338145,-12.245701],[135.222684,-12.19133],[135.366267,-12.087613],[135.587901,-12.098565],[135.711997,-12.018483],[135.581065,-12.05755],[135.59254,-11.965102],[135.900401,-11.75921],[135.716907,-12.003019],[135.91627,-11.968194],[135.652138,-12.203286],[135.731944,-12.311456],[136.053477,-12.064386],[135.935395,-12.213637],[136.060232,-12.232192],[136.033946,-12.465916],[136.284516,-12.415785],[136.363048,-12.222914],[136.177013,-12.170831],[136.572215,-11.896443],[136.470251,-11.986425],[136.663585,-12.263604],[136.760916,-12.164483],[136.983653,-12.345473],[136.771177,-12.541406],[136.805512,-12.456476],[136.740245,-12.475763],[136.610688,-12.830336],[136.47169,-12.773858],[136.657494,-12.995739],[136.496755,-12.975193],[136.567231,-13.058201],[136.472341,-13.242364],[136.322001,-13.307989],[136.332856,-13.046882],[136.158618,-13.262878],[136.147634,-13.122247],[136.053477,-13.311944],[136.008285,-13.215505],[135.883365,-13.325764],[135.969435,-13.425652],[135.854747,-13.455987],[135.886729,-13.713637],[136.077891,-13.662693],[135.909434,-14.195245],[135.368175,-14.722833],[135.469574,-14.948012],[136.22462,-15.408624],[136.273204,-15.559503],[136.594737,-15.71087],[136.715587,-15.935968],[136.991873,-15.86419],[137.746104,-16.25213],[138.184255,-16.697198],[139.008311,-16.89544],[139.274181,-17.348321],[139.999522,-17.70615],[140.523204,-17.630304],[140.845225,-17.441176],[140.947032,-17.018324],[141.199474,-16.703058],[141.431163,-16.061782],[141.439708,-15.648858],[141.665701,-15.011407],[141.521658,-14.483819],[141.598481,-14.114516],[141.467784,-13.865492],[141.693614,-13.250584],[141.583751,-12.985772],[141.809744,-12.667657],[141.938731,-12.908461],[141.905284,-12.757094],[142.008311,-12.714939],[141.823253,-12.654067],[141.974132,-12.585138],[141.797618,-12.580011],[141.693614,-12.503188],[141.744802,-12.454767],[141.590587,-12.540785],[141.717133,-12.232843],[141.809744,-12.236261],[141.831228,-12.005955],[141.913341,-11.954522],[141.919607,-12.106052],[142.03297,-12.041192],[141.947602,-11.896173],[142.151052,-10.950616],[142.546153,-10.687677],[142.615896,-10.752374],[142.50172,-10.947849],[142.590831,-10.864923],[142.66627,-11.003106],[142.741954,-10.97503],[142.872244,-11.382501],[142.862315,-11.836847],[143.249034,-11.968194],[143.086274,-12.149021],[143.077159,-12.32879],[143.43393,-12.613051],[143.358897,-12.880548],[143.543793,-12.832778],[143.530121,-13.750177],[143.782725,-14.402276],[143.941173,-14.511163],[144.201182,-14.250421],[144.303559,-14.312595],[144.486339,-14.161879],[144.677582,-14.555841],[145.345714,-14.94256],[145.23585,-15.165948],[145.349457,-15.250421],[145.243907,-15.428399],[145.462413,-16.060479],[145.400401,-16.443292],[145.774262,-16.988377],[145.955089,-16.873142],[145.881847,-17.059666],[146.147716,-17.632582],[146.010102,-18.236505],[146.209158,-18.51336],[146.339366,-18.527032],[146.333263,-18.95908],[146.905121,-19.30462],[147.024099,-19.177423],[147.133962,-19.410821],[147.421397,-19.412774],[147.402354,-19.303888],[147.684255,-19.828058],[147.785004,-19.835382],[147.750824,-19.691502],[147.823904,-19.714288],[147.929047,-19.897556],[148.278575,-19.965753],[148.264903,-20.083103],[148.402029,-20.1985],[148.444184,-20.061944],[148.560069,-20.052667],[148.61085,-20.213637],[148.781993,-20.240818],[148.937022,-20.534926],[148.70102,-20.439223],[148.660167,-20.572198],[148.843516,-20.77752],[148.827159,-20.890558],[149.056326,-20.898533],[149.026622,-20.976251],[149.231212,-21.089776],[149.292166,-21.510675],[149.487153,-21.535903],[149.435395,-21.789727],[149.587576,-22.282159],[149.697439,-22.344334],[149.663259,-22.493829],[149.812755,-22.378106],[150.046723,-22.645278],[149.923513,-22.298272],[150.053559,-22.141534],[150.194021,-22.378676],[150.609141,-22.610528],[150.543712,-22.366957],[150.677501,-22.358005],[150.759776,-22.470473],[150.677501,-22.562677],[150.731944,-22.628106],[150.773448,-22.530206],[150.826427,-22.697931],[150.736501,-22.932875],[150.882335,-23.488865],[150.813975,-23.50921],[151.011277,-23.566502],[151.550548,-24.091404],[151.691661,-24.098321],[151.641368,-23.978285],[151.780447,-24.022556],[152.123057,-24.591729],[152.469737,-24.805597],[152.636974,-25.160333],[152.567719,-25.178643],[152.913829,-25.287693],[152.870372,-25.475681],[152.966156,-25.497247],[152.884044,-25.674249],[153.021251,-25.969008],[153.061534,-25.81756],[153.205577,-25.934991],[153.074067,-26.316583],[153.210216,-27.077244],[153.038259,-27.193455],[153.445811,-27.791436],[153.399913,-27.954197],[153.570567,-28.19378],[153.630626,-28.661554],[153.350597,-29.28102],[153.294932,-29.826593],[153.02307,-30.575506],[153.059501,-31.07721],[152.747215,-31.842585],[152.546373,-32.043679],[152.539886,-32.442092],[152.219249,-32.697198],[152.060883,-32.697931],[152.185069,-32.766778],[151.799237,-32.89368],[151.568957,-33.292228],[151.453795,-33.304199],[151.424164,-33.527765],[151.230724,-33.534926],[151.340753,-33.617466],[151.281423,-33.952325],[151.095225,-34.014418],[151.231212,-34.04046],[150.800955,-34.548272],[150.917003,-34.603448],[150.727061,-34.874119],[150.844737,-35.077244],[150.695567,-35.026137],[150.759451,-35.178888],[150.553966,-35.213556],[150.291677,-35.722833],[150.190929,-35.726821],[150.238617,-35.833103],[150.081554,-36.083754],[150.142345,-36.320001],[149.87615,-37.09588],[150.053559,-37.268731],[149.95102,-37.284275],[149.985362,-37.495864],[149.718435,-37.515802],[149.678477,-37.691013],[149.491222,-37.783298],[148.306407,-37.823419],[147.757579,-37.985121],[146.847667,-38.684991],[146.224132,-38.714451],[146.286388,-38.909845],[146.476736,-38.810479],[146.483409,-39.06463],[146.394216,-39.144952],[146.181651,-38.868341],[145.921153,-38.906671],[145.809337,-38.65016],[145.59962,-38.680108],[145.373057,-38.536798],[145.556895,-38.385186],[145.464366,-38.234552],[145.25587,-38.241469],[145.229015,-38.413263],[144.944591,-38.510349],[144.676768,-38.333185],[144.982921,-38.341404],[145.119314,-38.159356],[144.934825,-37.867934],[144.373057,-38.118422],[144.704763,-38.146091],[144.652843,-38.285821],[144.401866,-38.301202],[143.536957,-38.858331],[142.502452,-38.374444],[142.175466,-38.398696],[141.761974,-38.261814],[141.557872,-38.439711],[141.394542,-38.401625],[141.134288,-38.127618],[140.398204,-37.919854],[140.114268,-37.517511],[139.794932,-37.268731],[139.672048,-36.953383],[139.842133,-36.84588],[139.857107,-36.634942],[139.729015,-36.372328],[139.456716,-35.95794],[138.917817,-35.576755],[139.44752,-35.927341],[139.672048,-36.227797],[139.475434,-35.896417],[139.041352,-35.604099],[139.155284,-35.503351],[139.229503,-35.689386],[139.338064,-35.687433],[139.355724,-35.593357],[139.218923,-35.507257],[139.361013,-35.489516],[139.362966,-35.376886],[139.177989,-35.315362],[138.961192,-35.413832],[139.030935,-35.517511],[138.793793,-35.483982],[138.993419,-35.54754],[138.531261,-35.645929],[138.107432,-35.620701],[138.438162,-35.342706],[138.550629,-34.781915],[138.078136,-34.128351],[137.749522,-35.131036],[136.839366,-35.256117],[137.019786,-34.901462],[137.446137,-34.917413],[137.452403,-34.155694],[137.602061,-33.876642],[137.930919,-33.616469],[137.810444,-33.259985],[138.040212,-33.081638],[137.773936,-32.519789],[137.778331,-32.982843],[137.632091,-32.961521],[137.452159,-33.140069],[137.224864,-33.653253],[136.945567,-33.682306],[136.883149,-33.754815],[136.96461,-33.753106],[136.607432,-33.902927],[136.114757,-34.383722],[136.10141,-34.534845],[135.936778,-34.534601],[135.79949,-34.805271],[136.016368,-34.744073],[135.96461,-35.007501],[135.782725,-34.857599],[135.632579,-34.952895],[135.287852,-34.592462],[135.108084,-34.595961],[135.209809,-34.431573],[135.37086,-34.628188],[135.503591,-34.611912],[135.389171,-34.569268],[135.189789,-33.892999],[134.840831,-33.63128],[134.706228,-33.172947],[134.581554,-33.145929],[134.628266,-33.246677],[134.47755,-33.157322],[134.333507,-33.205011],[134.148611,-33.02752],[134.190684,-32.946466],[134.068696,-32.929295],[134.074067,-32.713962],[134.216807,-32.725844],[134.214041,-32.806248],[134.297618,-32.678481],[134.148285,-32.456964],[133.864431,-32.546808],[133.949962,-32.389418],[133.649181,-32.101658],[133.270844,-32.218845],[132.776215,-31.95086],[132.233735,-32.032973],[131.535899,-31.605564]]],[[[128.158865,-15.090265],[128.198578,-15.152032],[128.133962,-15.14658],[128.158865,-15.090265]]],[[[128.416189,-14.956231],[128.440684,-15.038751],[128.35377,-14.869236],[128.416189,-14.956231]]],[[[129.632498,-14.846938],[129.611827,-14.867364],[129.583018,-14.803806],[129.632498,-14.846938]]],[[[129.533458,-14.798517],[129.589122,-14.952325],[129.519786,-14.836358],[129.533458,-14.798517]]],[[[126.500987,-13.873712],[126.61085,-13.901056],[126.539561,-13.897882],[126.500987,-13.873712]]],[[[134.885265,-12.05755],[134.932872,-12.087335],[134.878103,-12.100274],[134.885265,-12.05755]]],[[[134.965256,-12.026465],[134.948729,-12.054669],[134.90937,-12.03585],[134.965256,-12.026465]]],[[[135.121962,-11.929696],[135.084852,-11.946093],[135.053888,-11.919437],[135.121962,-11.929696]]],[[[133.408702,-11.592055],[133.484386,-11.601983],[133.360199,-11.660333],[133.408702,-11.592055]]],[[[133.476899,-11.454848],[133.458995,-11.503595],[133.401866,-11.523126],[133.476899,-11.454848]]],[[[147.998546,-43.230401],[147.882823,-43.131524],[147.792491,-43.244073],[147.627208,-43.042739],[147.692556,-42.936212],[147.887055,-43.034438],[147.840343,-42.902032],[147.533539,-42.836602],[147.559093,-42.977227],[147.436209,-43.046075],[147.477306,-42.908868],[147.283702,-42.778497],[147.360199,-42.925226],[147.333181,-43.042657],[147.254405,-43.027276],[147.257579,-43.254327],[146.972911,-43.131117],[147.099783,-43.299412],[146.962657,-43.340265],[147.055349,-43.356215],[146.921641,-43.42962],[147.017833,-43.478123],[146.901703,-43.531996],[146.927013,-43.611749],[146.710704,-43.629002],[146.554698,-43.469415],[146.024181,-43.552504],[145.943207,-43.364841],[146.161388,-43.415948],[146.229503,-43.319757],[146.025401,-43.324884],[145.917166,-43.195896],[145.925792,-43.289158],[145.831798,-43.292576],[145.265473,-42.604262],[145.188731,-42.195733],[145.472016,-42.512791],[145.558116,-42.341567],[145.345714,-42.147231],[145.229015,-42.195733],[145.206554,-41.966567],[144.749848,-41.414239],[144.605805,-40.996515],[144.698578,-40.660252],[145.118826,-40.821384],[145.269216,-40.719985],[145.332367,-40.838067],[145.809825,-41.026951],[146.585623,-41.180108],[146.744151,-41.065525],[146.949555,-41.161065],[146.819347,-41.075372],[147.017589,-40.976658],[147.444835,-41.008396],[147.650564,-40.828546],[147.849457,-40.888767],[147.984223,-40.736505],[148.209321,-40.840753],[148.331391,-41.002211],[148.260997,-41.800388],[148.364268,-42.20436],[148.257986,-42.244236],[148.320079,-42.119399],[148.162446,-42.059177],[148.24171,-42.00742],[148.181,-41.947361],[148.131358,-42.061944],[148.217052,-42.093357],[148.092947,-42.100193],[147.963878,-42.339776],[148.030935,-42.332289],[148.006033,-42.514093],[147.888682,-42.545099],[147.953136,-42.719985],[147.844574,-42.866143],[148.004731,-42.908868],[147.998546,-43.230401]]],[[[158.893403,-54.510837],[158.962413,-54.469334],[158.838227,-54.750421],[158.893403,-54.510837]]],[[[147.336599,-43.340265],[147.303884,-43.508884],[147.086192,-43.42962],[147.17921,-43.454034],[147.304454,-43.261814],[147.336599,-43.340265]]],[[[147.40211,-43.131117],[147.437511,-43.238946],[147.36085,-43.257908],[147.291759,-43.153009],[147.40211,-43.131117]]],[[[148.141856,-42.603774],[148.011567,-42.751235],[148.024587,-42.613458],[148.141856,-42.603774]]],[[[148.299001,-42.305597],[148.334483,-42.356622],[148.28004,-42.32936],[148.299001,-42.305597]]],[[[145.013682,-40.668227],[145.065196,-40.709161],[144.872813,-40.715997],[144.930512,-40.61533],[145.013682,-40.668227]]],[[[148.114024,-40.524184],[148.25115,-40.489435],[148.194184,-40.596287],[148.114024,-40.524184]]],[[[144.790863,-40.421157],[144.732921,-40.577407],[144.730154,-40.475274],[144.790863,-40.421157]]],[[[144.900727,-40.469496],[144.831228,-40.427992],[144.96046,-40.397882],[144.900727,-40.469496]]],[[[148.429942,-40.373305],[148.484548,-40.427992],[148.340587,-40.503676],[147.998546,-40.417739],[148.323497,-40.304457],[148.429942,-40.373305]]],[[[148.014903,-40.150567],[147.88087,-39.894952],[147.75766,-39.879327],[147.953298,-39.711684],[148.299001,-39.961847],[148.223888,-40.126397],[148.299001,-40.099054],[148.326915,-40.222589],[148.124278,-40.270603],[148.014903,-40.150567]]],[[[144.105479,-39.892999],[144.112478,-40.030857],[143.902843,-40.126153],[143.837169,-39.918634],[143.944591,-39.578871],[144.109223,-39.665785],[144.105479,-39.892999]]],[[[146.626801,-38.755955],[146.644054,-38.770278],[146.49464,-38.778009],[146.626801,-38.755955]]],[[[145.335216,-38.509454],[145.263682,-38.51922],[145.202403,-38.461114],[145.335216,-38.509454]]],[[[145.441905,-38.316502],[145.494395,-38.365167],[145.283702,-38.402602],[145.297862,-38.296563],[145.441905,-38.316502]]],[[[138.129649,-35.816339],[138.047699,-35.918634],[137.628754,-35.910333],[137.459239,-36.082696],[137.227875,-35.97975],[136.715587,-36.062758],[136.532563,-35.911879],[136.59783,-35.757501],[137.335134,-35.58294],[137.622895,-35.582127],[137.580821,-35.726821],[137.812755,-35.811456],[137.935557,-35.726495],[138.129649,-35.816339]]],[[[136.447276,-35.148126],[136.487966,-35.157403],[136.484874,-35.172052],[136.447276,-35.148126]]],[[[136.173595,-35.011326],[136.201345,-35.075372],[136.086111,-34.948175],[136.173595,-35.011326]]],[[[137.369151,-34.472426],[137.367198,-34.524102],[137.34197,-34.527765],[137.369151,-34.472426]]],[[[134.546397,-33.712172],[134.490489,-33.775649],[134.486339,-33.711684],[134.546397,-33.712172]]],[[[133.565684,-32.321222],[133.623302,-32.24391],[133.633962,-32.280206],[133.565684,-32.321222]]],[[[159.044444,-31.51922],[159.098399,-31.579278],[159.083018,-31.558364],[159.044444,-31.51922]]],[[[153.487315,-27.415216],[153.403331,-27.726251],[153.39796,-27.493097],[153.487315,-27.415216]]],[[[153.411469,-27.339532],[153.360525,-27.066013],[153.451345,-27.017022],[153.411469,-27.339532]]],[[[113.216645,-26.068048],[113.207042,-26.139744],[112.953868,-25.773045],[112.959483,-25.482517],[113.216645,-26.068048]]],[[[152.962413,-25.269627],[153.006358,-25.327732],[152.963715,-25.299086],[152.962413,-25.269627]]],[[[113.055675,-25.262791],[113.110606,-25.044692],[113.079845,-25.190525],[113.055675,-25.262791]]],[[[113.151866,-24.926935],[113.117686,-24.995212],[113.151866,-24.755629],[113.151866,-24.926935]]],[[[153.369965,-24.989028],[153.055349,-25.797133],[152.9463,-25.58294],[153.068533,-25.329034],[153.014415,-25.211521],[153.226085,-25.02752],[153.137218,-24.817071],[153.281261,-24.693536],[153.369965,-24.989028]]],[[[151.372325,-23.820245],[151.35963,-23.847833],[151.326345,-23.757257],[151.372325,-23.820245]]],[[[151.269867,-23.666274],[151.213878,-23.77809],[150.979607,-23.487386],[151.239106,-23.488865],[151.269867,-23.666274]]],[[[149.727794,-22.340509],[149.754405,-22.386895],[149.715587,-22.415216],[149.727794,-22.340509]]],[[[150.536632,-22.275323],[150.48227,-22.344985],[150.478363,-22.216241],[150.536632,-22.275323]]],[[[149.916515,-22.041925],[149.908702,-22.216404],[149.869884,-22.175551],[149.916515,-22.041925]]],[[[150.293224,-21.740899],[150.341075,-21.740899],[150.351736,-21.760675],[150.293224,-21.740899]]],[[[150.300059,-21.678888],[150.272716,-21.678888],[150.251638,-21.651544],[150.300059,-21.678888]]],[[[115.464529,-20.730157],[115.306977,-20.870538],[115.428966,-20.669122],[115.464529,-20.730157]]],[[[149.094086,-20.418227],[149.081798,-20.500177],[149.039399,-20.500746],[149.094086,-20.418227]]],[[[149.067393,-20.315199],[148.927013,-20.287286],[148.984874,-20.151462],[149.067393,-20.315199]]],[[[148.95753,-20.143813],[148.881847,-20.137628],[148.963715,-20.041599],[148.95753,-20.143813]]],[[[148.45045,-19.965753],[148.470225,-20.047621],[148.45045,-20.041599],[148.45045,-19.965753]]],[[[146.860199,-19.115981],[146.867035,-19.163832],[146.785004,-19.122817],[146.860199,-19.115981]]],[[[146.319021,-18.382989],[146.310802,-18.478692],[146.223399,-18.465509],[146.097341,-18.245212],[146.302094,-18.237237],[146.319021,-18.382989]]],[[[139.562185,-17.039239],[139.425059,-17.142836],[139.493907,-16.985121],[139.562185,-17.039239]]],[[[139.089203,-16.827569],[139.148448,-16.834649],[139.101085,-16.85947],[139.089203,-16.827569]]],[[[139.734141,-16.443292],[139.707693,-16.526462],[139.487071,-16.517836],[139.444672,-16.664646],[139.302094,-16.724542],[139.177989,-16.662367],[139.144867,-16.756036],[139.287852,-16.470636],[139.734141,-16.443292]]],[[[136.670421,-15.663181],[136.707693,-15.719659],[136.629731,-15.749119],[136.670421,-15.663181]]],[[[136.800629,-15.642022],[136.78004,-15.672947],[136.752452,-15.745782],[136.800629,-15.642022]]],[[[137.077891,-15.751235],[137.072894,-15.846961],[136.934725,-15.721324],[136.994756,-15.592776],[137.077891,-15.751235]]],[[[136.615733,-15.538995],[136.519542,-15.642022],[136.521495,-15.567804],[136.615733,-15.538995]]],[[[136.895681,-15.587498],[136.848481,-15.635186],[136.883311,-15.498142],[136.895681,-15.587498]]],[[[124.417979,-15.254083],[124.444591,-15.299412],[124.376475,-15.319268],[124.417979,-15.254083]]],[[[124.575694,-15.33294],[124.650157,-15.395115],[124.531261,-15.440362],[124.58253,-15.373956],[124.458832,-15.360935],[124.568696,-15.244236],[124.575694,-15.33294]]],[[[124.928233,-14.973565],[124.911469,-15.018243],[124.886974,-14.952813],[124.928233,-14.973565]]],[[[135.766754,-14.86821],[135.692553,-14.908794],[135.710507,-14.858752],[135.766754,-14.86821]]],[[[125.195079,-14.470147],[125.137462,-14.647638],[125.096446,-14.549005],[125.195079,-14.470147]]],[[[136.807465,-13.818536],[136.810313,-13.808282],[136.818126,-13.801365],[136.807465,-13.818536]]],[[[136.286876,-13.705824],[136.236095,-13.847263],[136.177013,-13.763849],[136.11671,-13.816664],[136.195323,-13.66961],[136.286876,-13.705824]]],[[[136.951508,-14.181573],[136.903087,-14.298923],[136.324067,-14.229587],[136.437348,-14.120375],[136.409679,-13.818536],[136.594737,-13.81227],[136.572276,-13.686212],[136.718272,-13.647719],[136.731781,-13.839532],[136.903087,-13.757582],[136.7046,-14.126886],[136.951508,-14.181573]]],[[[136.135916,-13.434828],[136.094981,-13.360447],[136.203136,-13.461196],[136.142956,-13.56045],[136.135916,-13.434828]]],[[[136.816956,-12.076077],[136.821461,-12.120832],[136.812999,-12.136163],[136.816956,-12.076077]]],[[[132.387543,-12.071873],[132.405772,-12.132989],[132.344574,-12.08587],[132.387543,-12.071873]]],[[[136.290212,-11.975681],[136.135509,-12.067315],[136.200043,-11.999933],[136.290212,-11.975681]]],[[[136.464203,-11.893731],[136.498546,-11.79811],[136.483246,-11.889418],[136.464203,-11.893731]]],[[[136.605235,-11.746026],[136.595714,-11.774184],[136.519542,-11.790704],[136.605235,-11.746026]]],[[[135.955906,-11.707165],[135.980865,-11.661368],[136.02156,-11.687457],[135.955906,-11.707165]]],[[[132.619802,-11.646661],[132.583832,-11.720147],[132.5088,-11.649591],[132.619802,-11.646661]]],[[[136.42335,-11.509535],[136.478038,-11.461114],[136.177013,-11.688246],[136.42335,-11.509535]]],[[[130.536794,-11.705011],[130.628184,-11.80462],[130.016612,-11.777032],[130.185395,-11.676528],[130.146983,-11.489028],[130.344981,-11.317071],[130.448009,-11.701349],[130.536794,-11.705011]]],[[[131.537364,-11.413263],[131.473969,-11.600193],[131.386567,-11.577813],[130.961192,-11.933852],[130.496593,-11.649509],[130.367442,-11.204278],[130.695567,-11.43434],[130.920909,-11.30934],[131.023285,-11.413263],[131.153087,-11.249282],[131.219249,-11.399672],[131.274425,-11.18963],[131.537364,-11.413263]]],[[[136.763685,-11.04007],[136.524615,-11.446964],[136.616707,-11.236105],[136.763685,-11.04007]]],[[[132.489431,-11.160089],[132.46811,-11.029962],[132.599294,-10.968357],[132.599294,-11.344985],[132.489431,-11.160089]]],[[[142.255382,-10.666681],[142.187022,-10.769627],[142.112315,-10.68434],[142.193207,-10.591485],[142.255382,-10.666681]]],[[[142.262218,-10.577813],[142.318858,-10.588637],[142.274425,-10.640802],[142.262218,-10.577813]]],[[[142.293468,-10.13893],[142.334239,-10.200453],[142.221202,-10.24212],[142.293468,-10.13893]]],[[[142.190115,-10.080987],[142.142914,-10.185642],[142.097016,-10.118585],[142.190115,-10.080987]]],[[[115.660004,-32.149835],[115.680512,-32.239353],[115.656993,-32.209405],[115.660004,-32.149835]]],[[[115.492107,-31.995649],[115.552192,-32.006203],[115.4594,-32.022979],[115.492107,-31.995649]]],[[[113.679618,-28.452241],[113.735184,-28.427571],[113.702091,-28.472018],[113.679618,-28.452241]]],[[[146.651134,-18.745782],[146.57016,-18.760837],[146.581309,-18.682224],[146.651134,-18.745782]]],[[[142.754568,-9.369806],[142.741954,-9.419203],[142.601248,-9.399509],[142.754568,-9.369806]]],[[[142.206879,-9.240167],[142.279145,-9.287042],[142.180837,-9.284763],[142.206879,-9.240167]]]]}},{"type":"Feature","properties":{"name":"Fiji","ISO3166-1-Alpha-3":"FJI","ISO3166-1-Alpha-2":"FJ"},"geometry":{"type":"MultiPolygon","coordinates":[[[[-180,-16.169614],[-179.987538,-16.138116],[-179.948476,-16.142185],[-180,-16.169614]]],[[[-180,-16.541115],[-179.897654,-16.436456],[-179.919626,-16.463149],[-180,-16.541115]]],[[[-180,-16.964144],[-180,-16.786733],[-179.864084,-16.681329],[-179.815663,-16.772231],[-180,-16.964144]]],[[[180,-16.489519],[179.999216,-16.541452],[179.984548,-16.538263],[180,-16.489519]]],[[[180,-16.785349],[179.953949,-16.998793],[179.895274,-16.939142],[180,-16.785349]]],[[[180,-16.149112],[179.478689,-16.697198],[179.548106,-16.766046],[179.939464,-16.463311],[179.848643,-16.662367],[179.910655,-16.766046],[179.296886,-16.806817],[179.35141,-16.731378],[179.266368,-16.689874],[179.026866,-16.92311],[178.910004,-16.848077],[178.733897,-17.007013],[178.636404,-16.807061],[178.485606,-16.79339],[178.533946,-16.629002],[178.800955,-16.635837],[178.917003,-16.470636],[179.403575,-16.407973],[179.520274,-16.244806],[180,-16.149112]]],[[[-178.588572,-19.122817],[-178.536977,-19.177179],[-178.581654,-19.111505],[-178.588572,-19.122817]]],[[[-178.972157,-18.965102],[-178.957875,-18.927911],[-178.930979,-18.971368],[-178.972157,-18.965102]]],[[[-179.863067,-18.965834],[-179.78718,-18.955336],[-179.855214,-18.963149],[-179.863067,-18.965834]]],[[[-178.766713,-18.191257],[-178.763295,-18.245864],[-178.824778,-18.23211],[-178.766713,-18.191257]]],[[[-179.050294,-17.955952],[-179.027865,-18.003014],[-179.069336,-17.989319],[-179.050294,-17.955952]]],[[[-178.293162,-17.882745],[-178.248647,-17.952569],[-178.352284,-17.945733],[-178.293162,-17.882745]]],[[[-178.964711,-17.176935],[-179.000681,-17.302504],[-178.972157,-17.197442],[-178.964711,-17.176935]]],[[[179.777517,-19.122817],[179.760427,-19.192315],[179.75294,-19.163832],[179.777517,-19.122817]]],[[[178.430349,-18.955255],[178.496593,-19.013279],[178.281505,-19.00742],[178.178966,-19.157485],[177.951182,-19.129653],[178.430349,-18.955255]]],[[[178.526541,-18.87656],[178.520518,-18.906183],[178.474132,-18.895278],[178.526541,-18.87656]]],[[[179.943427,-18.556346],[179.882754,-18.662524],[179.830666,-18.589302],[179.943427,-18.556346]]],[[[177.648774,-18.492852],[177.648774,-18.579278],[177.620779,-18.504083],[177.648774,-18.492852]]],[[[178.122325,-18.369317],[178.152599,-18.397393],[178.121837,-18.399184],[178.122325,-18.369317]]],[[[179.34547,-17.998793],[179.350271,-18.118829],[179.232758,-17.944757],[179.34547,-17.998793]]],[[[179.430837,-17.794041],[179.430512,-17.822931],[179.410411,-17.828058],[179.430837,-17.794041]]],[[[178.725762,-17.72471],[178.77711,-17.773207],[178.752615,-17.776137],[178.725762,-17.72471]]],[[[178.776378,-17.628839],[178.831963,-17.67945],[178.785114,-17.740221],[178.776378,-17.628839]]],[[[179.005382,-17.621352],[179.019705,-17.600844],[179.033376,-17.656183],[179.005382,-17.621352]]],[[[178.711436,-17.991957],[178.588634,-18.136],[178.389903,-18.101821],[178.168305,-18.248468],[177.894054,-18.273126],[177.335948,-18.105564],[177.251638,-17.952244],[177.515147,-17.50506],[178.190115,-17.300551],[178.286469,-17.383722],[178.245372,-17.471287],[178.348318,-17.440118],[178.590831,-17.630955],[178.5949,-17.926039],[178.711436,-17.991957]]],[[[177.093923,-17.245294],[177.156016,-17.267022],[177.111827,-17.310317],[177.093923,-17.245294]]],[[[179.451915,-17.290297],[179.39088,-17.396254],[179.371349,-17.259861],[179.451915,-17.290297]]],[[[177.272146,-17.080824],[177.227387,-17.141209],[177.186046,-17.120294],[177.272146,-17.080824]]],[[[177.443696,-16.867852],[177.408458,-16.924493],[177.373057,-16.902927],[177.443696,-16.867852]]],[[[178.333995,-16.79339],[178.333669,-16.828871],[178.28004,-16.786716],[178.333995,-16.79339]]],[[[177.56072,-16.676853],[177.493419,-16.802667],[177.430349,-16.82822],[177.56072,-16.676853]]],[[[179.917491,-16.655532],[179.910899,-16.646254],[179.944998,-16.618748],[179.917491,-16.655532]]],[[[178.588227,-16.573012],[178.622569,-16.573012],[178.573985,-16.594171],[178.588227,-16.573012]]],[[[179.362315,-16.326593],[179.389659,-16.333591],[179.343761,-16.338962],[179.362315,-16.326593]]],[[[177.124766,-12.486098],[177.059581,-12.511977],[177.00587,-12.489516],[177.124766,-12.486098]]],[[[174.615896,-21.711114],[174.588878,-21.681573],[174.626638,-21.676528],[174.615896,-21.711114]]],[[[-178.719065,-20.670994],[-178.730295,-20.650079],[-178.720815,-20.659275],[-178.719065,-20.670994]]],[[[-178.226796,-19.84002],[-178.228953,-19.829034],[-178.216135,-19.815199],[-178.226796,-19.84002]]],[[[-178.419789,-19.167413],[-178.389272,-19.146417],[-178.409373,-19.171808],[-178.419789,-19.167413]]],[[[-178.899648,-18.87713],[-178.930613,-18.882094],[-178.879872,-18.854262],[-178.899648,-18.87713]]],[[[-178.507151,-18.665216],[-178.511098,-18.637953],[-178.486073,-18.651788],[-178.507151,-18.665216]]],[[[-179.322581,-17.770196],[-179.334218,-17.740004],[-179.279734,-17.739435],[-179.322581,-17.770196]]],[[[-179.156606,-17.471368],[-179.175486,-17.439711],[-179.134714,-17.435317],[-179.156606,-17.471368]]],[[[-179.157297,-17.272719],[-179.146474,-17.247979],[-179.130808,-17.277032],[-179.157297,-17.272719]]]]}},{"type":"Feature","properties":{"name":"New Zealand","ISO3166-1-Alpha-3":"NZL","ISO3166-1-Alpha-2":"NZ"},"geometry":{"type":"MultiPolygon","coordinates":[[[[166.136974,-50.864353],[166.226329,-50.885431],[165.924083,-50.851251],[166.136974,-50.864353]]],[[[169.250421,-52.520257],[169.195296,-52.600313],[169.015391,-52.542657],[169.250421,-52.520257]]],[[[166.243419,-50.600763],[166.122732,-50.700372],[166.240082,-50.851007],[166.040212,-50.752048],[165.896739,-50.851251],[166.095876,-50.535903],[166.287771,-50.542739],[166.243419,-50.600763]]],[[[178.839041,-49.629164],[178.822113,-49.719822],[178.719005,-49.700128],[178.839041,-49.629164]]],[[[-176.145253,-44.248142],[-176.218984,-44.341241],[-176.236073,-44.241957],[-176.145253,-44.248142]]],[[[-176.382029,-43.898614],[-176.372263,-43.765883],[-176.53539,-43.755629],[-176.300038,-44.042576],[-176.581492,-44.123142],[-176.664377,-44.01922],[-176.51594,-43.922296],[-176.566151,-43.837823],[-176.85497,-43.820082],[-176.580637,-43.703383],[-176.169138,-43.731378],[-176.382029,-43.898614]]],[[[-177.909535,-29.278578],[-177.95283,-29.233087],[-177.865427,-29.251153],[-177.909535,-29.278578]]],[[[-171.190663,-9.356378],[-171.2058,-9.330987],[-171.185658,-9.361261],[-171.190663,-9.356378]]],[[[-172.486073,-8.565362],[-172.502553,-8.543227],[-172.47936,-8.574477],[-172.486073,-8.565362]]],[[[166.637218,-47.993585],[166.634288,-48.039972],[166.613048,-48.038263],[166.637218,-47.993585]]],[[[167.418712,-47.232599],[167.454275,-47.207452],[167.473888,-47.227309],[167.418712,-47.232599]]],[[[167.709239,-46.784112],[167.669444,-46.791599],[167.678722,-46.758559],[167.709239,-46.784112]]],[[[168.590017,-46.732354],[168.563243,-46.801202],[168.542166,-46.759698],[168.590017,-46.732354]]],[[[168.199474,-47.047621],[168.259288,-47.084731],[167.901866,-47.188409],[167.764903,-47.137465],[167.521007,-47.273045],[167.81422,-46.911228],[167.787446,-46.697198],[167.96754,-46.699802],[168.17921,-46.864435],[167.966645,-46.972589],[168.230235,-46.971612],[168.199474,-47.047621]]],[[[166.711436,-45.616306],[166.739268,-45.72796],[166.623057,-45.658298],[166.506196,-45.724867],[166.711436,-45.616306]]],[[[166.973643,-45.163263],[167.034434,-45.30047],[166.893321,-45.243422],[166.973643,-45.163263]]],[[[174.38087,-41.106378],[174.38087,-41.195082],[174.197276,-41.230076],[174.38087,-41.106378]]],[[[173.784434,-40.907159],[173.832286,-40.757582],[173.964854,-40.708754],[173.921641,-40.866795],[173.784434,-40.907159]]],[[[172.748694,-43.279694],[172.747732,-43.567153],[172.832286,-43.601658],[172.681407,-43.639337],[173.064952,-43.648126],[173.092947,-43.854181],[172.996837,-43.88893],[172.948578,-43.751153],[172.965587,-43.90545],[172.763438,-43.792739],[172.422618,-43.854587],[172.647716,-43.782647],[172.417328,-43.737481],[172.376313,-43.864435],[171.346002,-44.278631],[171.173839,-44.54697],[171.203136,-44.905532],[170.62672,-45.706313],[170.759288,-45.776788],[170.556814,-45.896254],[170.776622,-45.780206],[170.778575,-45.876153],[170.333751,-45.981541],[169.848969,-46.467543],[169.659353,-46.49212],[169.755544,-46.499607],[169.704112,-46.549005],[169.035981,-46.681899],[168.8449,-46.560154],[168.365733,-46.540216],[168.378103,-46.619806],[168.267833,-46.5263],[168.385102,-46.499607],[168.368907,-46.416925],[168.301931,-46.478448],[168.171153,-46.336684],[167.838634,-46.393243],[167.590017,-46.159601],[167.295177,-46.273614],[166.761974,-46.219985],[166.671235,-46.153578],[166.952485,-45.944024],[166.616059,-46.088067],[166.808604,-45.930434],[166.691254,-45.940199],[166.743907,-45.860935],[166.474783,-45.996026],[166.489757,-45.80755],[167.020844,-45.697686],[166.774262,-45.718845],[166.890961,-45.649835],[166.781993,-45.594171],[167.054942,-45.491632],[166.71461,-45.575616],[166.767589,-45.409601],[166.952485,-45.436944],[166.825531,-45.317153],[167.20574,-45.478611],[167.047537,-45.327081],[167.308849,-45.313409],[167.047537,-45.269708],[167.012055,-45.132908],[167.170746,-45.184747],[167.054942,-45.101739],[167.274669,-45.094415],[167.151541,-45.007582],[167.335704,-45.037205],[167.198985,-44.964044],[167.385753,-44.84238],[167.514171,-44.992608],[167.457693,-44.789321],[167.555186,-44.785821],[167.568126,-44.882013],[167.548839,-44.73447],[167.679373,-44.765395],[167.594737,-44.697686],[167.751964,-44.603204],[167.932628,-44.697035],[167.836436,-44.505304],[168.37086,-44.039158],[168.803722,-43.997247],[169.717784,-43.573663],[170.23878,-43.237888],[170.289317,-43.106866],[170.858409,-42.843357],[171.225413,-42.450689],[171.46811,-41.76629],[171.855235,-41.66546],[172.070811,-41.414239],[172.106781,-40.886895],[172.595876,-40.527765],[172.83961,-40.50213],[172.996837,-40.524184],[172.742198,-40.520929],[172.660411,-40.647719],[172.856456,-40.843683],[173.017345,-40.797296],[173.103852,-41.307794],[173.992035,-40.899998],[173.780528,-41.011407],[173.778656,-41.10768],[173.95574,-41.058689],[173.774262,-41.283949],[174.133962,-41.175388],[173.896332,-41.191664],[174.045665,-41.092869],[173.998546,-40.968845],[174.183116,-40.973077],[174.207205,-41.070571],[174.326427,-41.009373],[174.167328,-41.115899],[174.216482,-41.188897],[173.935232,-41.279555],[174.325694,-41.216241],[174.050629,-41.436944],[174.292166,-41.730157],[174.21518,-41.856703],[173.723155,-42.4367],[173.558604,-42.491143],[173.287283,-42.953871],[172.91505,-43.102797],[172.748694,-43.279694]]],[[[175.16863,-36.741143],[175.182628,-36.824965],[175.011729,-36.802667],[175.16863,-36.741143]]],[[[175.847667,-36.625095],[175.794932,-36.618341],[175.784516,-36.591485],[175.847667,-36.625095]]],[[[174.853282,-36.391697],[174.901134,-36.415216],[174.855235,-36.452407],[174.853282,-36.391697]]],[[[175.134532,-36.175958],[175.154959,-36.213556],[175.100352,-36.227797],[175.134532,-36.175958]]],[[[175.538422,-36.282403],[175.522797,-36.352146],[175.333751,-36.223728],[175.375499,-36.065851],[175.538422,-36.282403]]],[[[172.145995,-34.144658],[172.148841,-34.161933],[172.12181,-34.156446],[172.145995,-34.144658]]],[[[176.953712,-39.607513],[177.118907,-39.66725],[176.861827,-40.14072],[175.966807,-41.247003],[175.237478,-41.620294],[175.181814,-41.417901],[174.865571,-41.419529],[174.889659,-41.224542],[174.785411,-41.249444],[174.810069,-41.333754],[174.609386,-41.291925],[174.865977,-41.104181],[175.141287,-40.674412],[175.23878,-40.296319],[175.183767,-40.134454],[174.967296,-39.916436],[174.567638,-39.826755],[174.319021,-39.613865],[173.851248,-39.463962],[173.759288,-39.301365],[173.852712,-39.134454],[174.594005,-38.818617],[174.709809,-38.10475],[174.942638,-38.097345],[174.792003,-38.084731],[174.888031,-37.966892],[174.788097,-37.985284],[174.79184,-37.872003],[174.977061,-37.749933],[174.850352,-37.764907],[174.717784,-37.411879],[174.837901,-37.299005],[174.706391,-37.347833],[174.558279,-37.062758],[174.667328,-37.069513],[174.740001,-37.244399],[174.804861,-37.166274],[174.716645,-37.152602],[174.948416,-37.101739],[174.785818,-37.008477],[174.832774,-36.942804],[174.500336,-37.032159],[174.182302,-36.45322],[174.431407,-36.665623],[174.465994,-36.373224],[174.271007,-36.33766],[174.524913,-36.241469],[174.305186,-36.282403],[174.45045,-36.163263],[174.393891,-36.1242],[174.33253,-36.227797],[174.284679,-36.117934],[174.182302,-36.145196],[174.26059,-36.268243],[174.075206,-36.168064],[173.90797,-35.870294],[173.880138,-35.959649],[174.20281,-36.347589],[174.079845,-36.399509],[173.407237,-35.571222],[173.660899,-35.312921],[173.565278,-35.274509],[173.369965,-35.516534],[173.272146,-35.391371],[173.31837,-35.302341],[173.24936,-35.370701],[173.256847,-35.281345],[173.092947,-35.206801],[173.198416,-35.109063],[173.156749,-34.945001],[172.674083,-34.479913],[172.70281,-34.411798],[173.079275,-34.411716],[172.907481,-34.541436],[173.007498,-34.651137],[173.035818,-34.552341],[173.18865,-34.835626],[173.123057,-34.809666],[173.298188,-34.909438],[173.266612,-35.007745],[173.444102,-34.796319],[173.458751,-34.981215],[173.586436,-35.014907],[173.588227,-34.927504],[173.784434,-35.007501],[173.760265,-35.096938],[173.89088,-35.000665],[174.12794,-35.136489],[174.014985,-35.216974],[174.151134,-35.369724],[174.251638,-35.322524],[174.15504,-35.274509],[174.353038,-35.199395],[174.422374,-35.373712],[174.33253,-35.329034],[174.569509,-35.594334],[174.476573,-35.643243],[174.606781,-35.84352],[174.359874,-35.713311],[174.352712,-35.841974],[174.503754,-35.830011],[174.496918,-35.987563],[174.880544,-36.351332],[174.750743,-36.354425],[174.778819,-36.487237],[174.716645,-36.411554],[174.722911,-36.593683],[174.856944,-36.610935],[174.723481,-36.63128],[174.819102,-36.823663],[174.621104,-36.796319],[174.680186,-36.907403],[174.875662,-36.851007],[174.891449,-36.957778],[174.935232,-36.837335],[174.963145,-36.933526],[175.240977,-36.942315],[175.367198,-37.207208],[175.609548,-37.25156],[175.436209,-36.864679],[175.53712,-36.786065],[175.497569,-36.63128],[175.354259,-36.490981],[175.532237,-36.507745],[175.628103,-36.763849],[175.851736,-36.718357],[175.713552,-36.875177],[175.850759,-36.840997],[175.975434,-37.469903],[176.169119,-37.624933],[175.943126,-37.521905],[175.997244,-37.631768],[176.214122,-37.719496],[176.216807,-37.618259],[177.131033,-38.021661],[177.556814,-37.913832],[177.992035,-37.543064],[178.550548,-37.680597],[178.348318,-38.012628],[178.300141,-38.531671],[178.079845,-38.70908],[177.932384,-38.702407],[177.882823,-39.085545],[177.998871,-39.129815],[177.911957,-39.255955],[177.852061,-39.089288],[177.413259,-39.059015],[176.937511,-39.348728],[176.953712,-39.607513]]]]}},{"type":"Feature","properties":{"name":"New Caledonia","ISO3166-1-Alpha-3":"NCL","ISO3166-1-Alpha-2":"NC"},"geometry":{"type":"MultiPolygon","coordinates":[[[[163.985118,-20.047621],[163.971365,-20.06878],[163.944102,-20.025974],[163.985118,-20.047621]]],[[[167.521007,-22.569594],[167.555186,-22.638442],[167.418712,-22.645278],[167.432302,-22.54225],[167.521007,-22.569594]]],[[[166.801768,-22.398858],[166.828949,-22.425551],[166.801768,-22.463067],[166.801768,-22.398858]]],[[[168.137462,-21.431817],[168.126801,-21.622247],[167.992931,-21.654962],[167.861176,-21.600681],[167.808442,-21.383966],[167.987804,-21.335626],[168.00766,-21.452895],[168.137462,-21.431817]]],[[[166.424978,-20.719903],[166.443533,-20.733494],[166.400645,-20.728936],[166.424978,-20.719903]]],[[[167.432302,-21.027765],[167.390798,-21.178643],[167.120128,-21.051935],[167.020844,-20.911716],[167.190929,-20.809991],[167.058849,-20.715997],[167.30128,-20.713067],[167.281505,-20.894301],[167.432302,-21.027765]]],[[[166.637218,-20.425063],[166.629731,-20.596368],[166.493907,-20.713067],[166.563731,-20.401951],[166.637218,-20.425063]]],[[[167.034434,-22.237481],[166.915701,-22.395603],[166.545584,-22.237563],[166.436697,-22.308038],[166.431814,-22.172296],[166.344005,-22.227472],[166.108897,-22.090427],[166.163341,-22.024591],[166.061209,-21.891209],[166.003184,-21.963962],[165.732921,-21.719822],[164.951427,-21.353774],[164.791026,-21.064386],[164.711762,-21.089776],[164.656586,-20.945896],[164.375499,-20.774021],[164.123383,-20.410821],[164.166515,-20.332127],[163.994802,-20.264255],[163.991954,-20.083103],[165.21754,-20.764418],[165.623057,-21.267999],[166.370372,-21.658949],[167.034434,-22.237481]]],[[[164.22462,-20.137628],[164.192638,-20.139093],[164.163748,-20.061944],[164.22462,-20.137628]]],[[[163.682791,-19.739841],[163.639985,-19.723728],[163.621837,-19.623712],[163.682791,-19.739841]]],[[[171.340605,-22.344761],[171.343765,-22.346342],[171.341922,-22.349239],[171.340605,-22.344761]]]]}},{"type":"Feature","properties":{"name":"Norfolk Island","ISO3166-1-Alpha-3":"NFK","ISO3166-1-Alpha-2":"NF"},"geometry":{"type":"Polygon","coordinates":[[[167.984141,-29.017836],[167.966645,-29.080011],[167.918305,-29.036391],[167.984141,-29.017836]]]}},{"type":"Feature","properties":{"name":"Vanuatu","ISO3166-1-Alpha-3":"VUT","ISO3166-1-Alpha-2":"VU"},"geometry":{"type":"MultiPolygon","coordinates":[[[[169.840343,-20.140802],[169.871593,-20.239435],[169.737966,-20.208917],[169.840343,-20.140802]]],[[[169.432791,-19.492852],[169.50172,-19.52752],[169.436209,-19.657322],[169.218516,-19.490167],[169.243419,-19.341974],[169.336599,-19.31463],[169.432791,-19.492852]]],[[[169.336599,-18.934828],[169.275076,-18.999282],[168.987315,-18.87656],[169.008149,-18.649998],[169.152354,-18.636326],[169.336599,-18.934828]]],[[[168.549571,-17.691013],[168.484141,-17.820733],[168.151134,-17.718194],[168.323009,-17.532647],[168.549571,-17.691013]]],[[[168.205414,-17.58115],[168.275645,-17.509373],[168.260427,-17.542901],[168.205414,-17.58115]]],[[[168.322765,-17.447361],[168.338552,-17.414483],[168.372081,-17.479099],[168.322765,-17.447361]]],[[[168.391124,-17.067153],[168.343272,-17.093438],[168.349376,-17.059666],[168.391124,-17.067153]]],[[[168.559255,-16.943617],[168.529796,-16.929457],[168.552745,-16.879083],[168.559255,-16.943617]]],[[[168.192068,-16.813897],[168.144216,-16.573012],[168.480724,-16.800226],[168.192068,-16.813897]]],[[[168.3296,-16.539646],[168.295421,-16.497979],[168.349376,-16.497979],[168.3296,-16.539646]]],[[[168.213145,-16.478123],[168.260997,-16.429783],[168.243826,-16.494561],[168.213145,-16.478123]]],[[[168.182384,-16.347833],[167.912852,-16.233087],[168.171641,-16.080255],[168.329845,-16.306248],[168.182384,-16.347833]]],[[[167.812511,-16.419529],[167.76059,-16.546319],[167.458751,-16.567966],[167.374848,-16.192966],[167.147472,-16.08294],[167.185313,-15.89072],[167.336111,-15.908949],[167.397634,-16.087091],[167.812511,-16.419529]]],[[[167.20574,-15.751235],[167.075694,-15.649591],[167.233572,-15.641534],[167.20574,-15.751235]]],[[[167.1574,-15.538995],[167.194835,-15.607517],[167.109548,-15.587498],[167.1574,-15.538995]]],[[[168.185802,-15.517836],[168.270356,-15.914239],[168.204275,-15.992446],[168.11964,-15.662774],[168.185802,-15.517836]]],[[[167.939464,-15.39186],[167.838552,-15.484796],[167.672862,-15.449802],[168.002452,-15.281834],[167.939464,-15.39186]]],[[[167.12322,-14.963637],[167.114106,-14.933852],[167.148611,-14.96559],[167.12322,-14.963637]]],[[[168.096446,-14.980401],[168.110688,-14.915785],[168.178966,-15.395115],[168.096446,-14.980401]]],[[[167.140636,-15.535577],[166.753917,-15.627699],[166.616059,-15.385024],[166.556163,-14.645929],[166.747081,-14.819594],[166.813162,-15.160414],[166.91977,-15.155938],[166.964529,-14.951349],[167.082856,-14.928888],[167.04127,-15.025079],[167.247244,-15.498224],[167.140636,-15.535577]]],[[[167.514903,-14.140558],[167.603038,-14.18906],[167.562022,-14.298923],[167.401215,-14.305108],[167.514903,-14.140558]]],[[[167.45281,-13.918634],[167.390798,-13.77752],[167.488943,-13.708185],[167.590017,-13.856622],[167.45281,-13.918634]]],[[[167.702647,-13.619806],[167.712901,-13.668227],[167.643565,-13.692804],[167.702647,-13.619806]]],[[[167.329275,-13.510512],[167.368663,-13.54339],[167.297048,-13.520603],[167.329275,-13.510512]]],[[[166.575206,-13.236261],[166.644054,-13.230076],[166.595714,-13.264255],[166.575206,-13.236261]]],[[[166.575206,-13.154392],[166.538422,-13.179946],[166.520518,-13.064874],[166.575206,-13.154392]]],[[[166.672699,-13.455011],[166.658458,-13.41546],[166.673839,-13.407647],[166.672699,-13.455011]]]]}},{"type":"Feature","properties":{"name":"Coral Sea Islands","ISO3166-1-Alpha-3":"-99","ISO3166-1-Alpha-2":"-99"},"geometry":{"type":"Polygon","coordinates":[[[154.391287,-21.030043],[154.38852,-21.029067],[154.391287,-21.028741],[154.391287,-21.030043]]]}},{"type":"Feature","properties":{"name":"Ashmore and Cartier Islands","ISO3166-1-Alpha-3":"-99","ISO3166-1-Alpha-2":"-99"},"geometry":{"type":"Polygon","coordinates":[[[123.597016,-12.428318],[123.597748,-12.438572],[123.575613,-12.436782],[123.597016,-12.428318]]]}}]}
