{"type":"FeatureCollection","features":[{"type":"Feature","properties":{"name":"Andorra","ISO3166-1-Alpha-3":"AND","ISO3166-1-Alpha-2":"AD"},"geometry":{"type":"Polygon","coordinates":[[[1.707006,42.502781],[1.653986,42.496529],[1.639517,42.466427],[1.508466,42.428677],[1.436429,42.440951],[1.407593,42.486762],[1.449968,42.504073],[1.446557,42.519886],[1.406456,42.52924],[1.419272,42.579263],[1.466814,42.641455],[1.543089,42.649362],[1.608304,42.618123],[1.721993,42.609855],[1.713311,42.589546],[1.765091,42.563372],[1.721683,42.548515],[1.707006,42.502781]]]}}]}
