{"type":"FeatureCollection","features":[{"type":"Feature","properties":{"name":"United Arab Emirates","ISO3166-1-Alpha-3":"ARE","ISO3166-1-Alpha-2":"AE"},"geometry":{"type":"MultiPolygon","coordinates":[[[[56.279055,25.627446],[56.340017,25.60456],[56.369965,25.525702],[56.359223,25.37641],[56.383637,25.313463],[56.36199,25.057278],[56.383311,24.978217],[56.328995,24.972689],[56.308325,24.895174],[56.241662,24.842438],[56.171176,24.82399],[56.127251,24.7457],[56.099139,24.730507],[56.031546,24.754149],[56.00209,24.823008],[55.96478,24.853859],[55.960852,24.881247],[55.978422,24.886105],[56.029272,24.861171],[56.005604,24.956178],[55.978422,24.971759],[55.89698,24.968606],[55.799105,24.886105],[55.792697,24.722291],[55.818226,24.643381],[55.759831,24.558528],[55.774611,24.4259],[55.810887,24.389236],[55.807373,24.340789],[55.755697,24.230331],[55.830318,24.21227],[55.903182,24.232243],[55.933154,24.220719],[55.997853,24.08127],[55.807063,24.007476],[55.762415,24.028147],[55.646866,24.02502],[55.456801,23.963164],[55.461555,23.930556],[55.530595,23.874668],[55.538346,23.770049],[55.478298,23.67636],[55.445328,23.552259],[55.375255,23.469344],[55.321098,23.275092],[55.22591,23.121251],[55.191287,22.995471],[55.186843,22.703577],[55.120387,22.623426],[52.558476,22.938575],[51.578536,24.101837],[51.569347,24.256171],[51.590668,24.28441],[51.591645,24.328599],[51.573985,24.364447],[51.593761,24.384914],[51.62379,24.339342],[51.634451,24.226874],[51.662934,24.232815],[51.672618,24.278062],[51.700694,24.22191],[51.723643,24.227769],[51.7588,24.290513],[51.77947,24.26203],[51.773448,24.153225],[51.809418,24.000678],[51.893565,23.990383],[51.928722,23.964748],[51.931407,23.987982],[51.952891,23.990912],[52.016938,23.989691],[52.067393,23.963446],[52.155528,23.966539],[52.341075,24.007514],[52.574555,24.152086],[52.58074,24.199368],[52.600271,24.20954],[52.681326,24.140815],[52.827647,24.152167],[52.947113,24.137885],[53.00587,24.165839],[53.067231,24.121894],[53.107188,24.137885],[53.146495,24.121324],[53.163422,24.124823],[53.142426,24.165839],[53.165294,24.170315],[53.253754,24.098782],[53.445811,24.119818],[53.47877,24.093695],[53.519298,24.096869],[53.58961,24.047065],[53.656993,24.048529],[53.70281,24.070502],[53.878917,24.064846],[53.951182,24.103746],[54.122569,24.144721],[54.187022,24.203599],[54.252778,24.221096],[54.323009,24.270657],[54.382579,24.254584],[54.427257,24.292141],[54.485606,24.388332],[54.483165,24.425116],[54.499278,24.432685],[54.485606,24.446967],[54.540294,24.432685],[54.513438,24.474311],[54.574392,24.446967],[54.5713,24.473334],[54.499278,24.487942],[54.417328,24.535102],[54.451915,24.556545],[54.465099,24.535102],[54.485606,24.569892],[54.537446,24.49844],[54.56129,24.501614],[54.540294,24.515855],[54.581798,24.50845],[54.636404,24.597805],[54.615896,24.621161],[54.670584,24.666083],[54.643321,24.748684],[54.707042,24.8039],[54.754161,24.792426],[54.773611,24.814765],[54.76002,24.830552],[55.049978,24.993394],[55.044607,25.013902],[55.082286,25.016832],[55.2824,25.260688],[55.31837,25.225287],[55.301117,25.193671],[55.328868,25.201483],[55.303722,25.283026],[55.363292,25.324042],[55.365489,25.358588],[55.387055,25.357082],[55.438975,25.412787],[55.455333,25.399888],[55.472504,25.412787],[55.551036,25.578599],[55.568126,25.584662],[55.548188,25.529486],[55.626313,25.536322],[55.683442,25.623521],[55.770518,25.687161],[55.842459,25.713813],[55.959727,25.823676],[55.937185,25.776679],[55.952322,25.772121],[55.965994,25.834215],[56.030772,25.900865],[56.041026,25.933539],[56.007579,25.906887],[56.077397,26.061048],[56.162701,26.073552],[56.183475,26.014537],[56.170555,25.87682],[56.139653,25.822973],[56.172002,25.76525],[56.141203,25.732694],[56.145131,25.670837],[56.205799,25.617766],[56.279055,25.627446]],[[56.260625,25.331075],[56.233625,25.312526],[56.244887,25.277988],[56.208375,25.255374],[56.219958,25.215258],[56.344375,25.266528],[56.349123,25.294025],[56.260625,25.331075]]],[[[56.263026,25.249223],[56.265075,25.281175],[56.288328,25.271926],[56.263026,25.249223]]],[[[53.656993,24.158393],[53.627778,24.171942],[53.72283,24.229885],[53.770274,24.22724],[53.848155,24.275051],[53.863048,24.234687],[53.9546,24.200995],[53.964854,24.172593],[53.95102,24.149726],[53.884613,24.141181],[53.837413,24.177436],[53.834483,24.152167],[53.774669,24.130113],[53.656993,24.158393]]],[[[54.190766,24.22724],[54.112559,24.271674],[54.101573,24.297756],[54.115245,24.318508],[54.136974,24.32689],[54.188324,24.277493],[54.190766,24.22724]]],[[[52.574474,24.34394],[52.611095,24.373236],[52.634461,24.3666],[52.650855,24.324899],[52.592154,24.253368],[52.556104,24.306946],[52.574474,24.34394]]],[[[53.322759,24.262691],[53.276008,24.288666],[53.266142,24.27381],[53.184581,24.287014],[53.329607,24.336115],[53.36671,24.319241],[53.361583,24.350735],[53.416759,24.412828],[53.447032,24.379828],[53.44044,24.341254],[53.345793,24.298335],[53.322759,24.262691]]],[[[54.382579,24.439521],[54.334809,24.453192],[54.334809,24.46894],[54.396251,24.522691],[54.396658,24.483466],[54.470551,24.425035],[54.382579,24.439521]]],[[[54.266368,24.294501],[54.222179,24.284491],[54.183116,24.315009],[54.184581,24.337063],[54.232432,24.357571],[54.266368,24.294501]]],[[[54.325857,24.373033],[54.336111,24.350328],[54.30893,24.31387],[54.279063,24.364447],[54.311371,24.355292],[54.292003,24.384508],[54.325857,24.373033]]],[[[52.309744,24.539496],[52.339238,24.501552],[52.314228,24.475651],[52.283214,24.497016],[52.309744,24.539496]]]]}}]}
