{"type":"FeatureCollection","features":[{"type":"Feature","properties":{"name":"Afghanistan","ISO3166-1-Alpha-3":"AFG","ISO3166-1-Alpha-2":"AF"},"geometry":{"type":"Polygon","coordinates":[[[74.542354,37.021669],[74.537393,36.962241],[74.456984,37.004383],[74.394043,36.994022],[74.235706,36.902167],[74.129666,36.898421],[74.094319,36.831241],[74.035305,36.815583],[73.772892,36.892013],[73.331782,36.882091],[73.267496,36.866536],[73.191842,36.877027],[72.867727,36.830415],[72.629602,36.832947],[72.516741,36.800597],[72.454109,36.757964],[72.213607,36.726442],[72.153456,36.702102],[72.171646,36.653629],[72.059095,36.627119],[72.038838,36.580456],[71.874713,36.499065],[71.773221,36.480048],[71.794408,36.407598],[71.782626,36.396539],[71.736324,36.395919],[71.649301,36.452763],[71.61044,36.457931],[71.547188,36.371631],[71.55835,36.327861],[71.479078,36.300524],[71.402752,36.231381],[71.31914,36.200582],[71.302087,36.163323],[71.223073,36.125393],[71.165919,36.045708],[71.170932,36.027001],[71.356399,35.933053],[71.360688,35.90029],[71.431019,35.843705],[71.475564,35.741024],[71.515355,35.701491],[71.514012,35.665576],[71.483316,35.62656],[71.492721,35.609559],[71.59349,35.549356],[71.581708,35.493132],[71.620879,35.410139],[71.531582,35.327922],[71.529825,35.300895],[71.637932,35.189688],[71.604135,35.138166],[71.508947,35.072021],[71.511325,35.008717],[71.46957,34.949702],[71.289478,34.87503],[71.203075,34.748164],[71.080601,34.672923],[71.065822,34.55846],[70.985827,34.556186],[70.956991,34.532002],[70.961229,34.487612],[70.991511,34.443067],[71.122046,34.356819],[71.097086,34.262458],[71.108093,34.165228],[71.062773,34.10531],[71.062618,34.054253],[70.939731,34.000923],[70.884334,34.007047],[70.862217,33.964775],[70.521979,33.938705],[70.328193,33.957282],[70.002838,34.043789],[69.916021,34.038879],[69.872613,34.017227],[69.847188,33.926948],[69.885429,33.889457],[69.957518,33.752695],[70.118128,33.716522],[70.132546,33.661435],[70.174093,33.632108],[70.154973,33.506612],[70.285715,33.382873],[70.294448,33.318949],[70.124794,33.199034],[70.048003,33.194073],[69.994725,33.127333],[69.955812,33.127695],[69.880933,33.089248],[69.838713,33.086664],[69.771844,33.114776],[69.667768,33.077],[69.547517,33.075011],[69.487727,33.028373],[69.468503,32.994292],[69.477288,32.856833],[69.376313,32.771877],[69.383237,32.744462],[69.414657,32.725575],[69.426025,32.655088],[69.361223,32.568478],[69.281952,32.532796],[69.232859,32.462671],[69.228001,32.421304],[69.268102,32.301337],[69.251049,32.13065],[69.29885,31.93769],[69.223764,31.881931],[69.114313,31.737754],[69.040106,31.673107],[68.977267,31.641481],[68.803841,31.602568],[68.705449,31.70127],[68.675787,31.774702],[68.527476,31.822968],[68.418748,31.783022],[68.5498,31.753515],[68.49802,31.725248],[68.356065,31.762507],[68.255037,31.766383],[68.206823,31.807879],[68.138559,31.824674],[68.046575,31.688403],[67.966063,31.638225],[67.842711,31.623497],[67.781165,31.564173],[67.696312,31.520816],[67.568981,31.52986],[67.556114,31.512186],[67.611459,31.410797],[67.770364,31.394674],[67.764731,31.334058],[67.692798,31.325221],[67.583657,31.265225],[67.346204,31.20776],[67.213757,31.212256],[67.136759,31.241092],[67.035267,31.235924],[67.015268,31.244657],[67.016818,31.309149],[66.943283,31.314731],[66.696993,31.195823],[66.663093,31.083117],[66.550025,30.976973],[66.392309,30.944624],[66.366264,30.922868],[66.267975,30.601389],[66.264926,30.557826],[66.321822,30.437368],[66.305286,30.24477],[66.219296,30.057856],[66.340529,29.956571],[66.27521,29.885154],[66.195628,29.835338],[65.036371,29.540162],[64.820312,29.567886],[64.477697,29.570367],[64.172599,29.4843],[64.113378,29.396295],[64.086093,29.386605],[63.971991,29.429574],[63.568605,29.497477],[62.477509,29.407819],[60.844379,29.858179],[61.802253,30.847059],[61.800186,30.961419],[61.826438,31.014956],[61.78768,31.158616],[61.742722,31.239541],[61.742308,31.32088],[61.686911,31.373177],[60.821744,31.494668],[60.792599,31.660084],[60.805311,31.733981],[60.792599,32.011277],[60.774926,32.027194],[60.81482,32.087862],[60.830323,32.248885],[60.562949,33.058268],[60.5676,33.151285],[60.757046,33.366337],[60.829082,33.416282],[60.832183,33.484495],[60.92086,33.514105],[60.846032,33.555782],[60.655553,33.559891],[60.574834,33.587796],[60.511789,33.638387],[60.486881,33.71138],[60.528016,33.84145],[60.492772,34.139028],[60.552407,34.220057],[60.650592,34.28535],[60.643667,34.306641],[60.890474,34.318914],[60.77937,34.455081],[60.699685,34.516396],[60.739269,34.548022],[60.838488,34.570914],[60.895435,34.628327],[60.947525,34.63799],[60.959927,34.723205],[61.034755,34.806249],[61.06545,34.814724],[61.074752,34.933114],[61.115887,35.059877],[61.147306,35.102096],[61.096353,35.193202],[61.112373,35.202038],[61.102451,35.25666],[61.122708,35.287666],[61.187097,35.300379],[61.195055,35.390089],[61.290036,35.548064],[61.269676,35.618499],[61.351531,35.627801],[61.393182,35.553593],[61.538703,35.452307],[61.604746,35.430603],[61.739621,35.413757],[61.919352,35.451842],[62.00746,35.438923],[62.136341,35.341358],[62.2337,35.293764],[62.25096,35.202349],[62.286203,35.140647],[62.431879,35.280638],[62.458905,35.281879],[62.53549,35.22736],[62.60453,35.219402],[62.69362,35.248392],[62.918206,35.388177],[63.080211,35.437063],[63.100727,35.524964],[63.077369,35.558761],[63.076646,35.6247],[63.179895,35.666455],[63.214415,35.699269],[63.112044,35.769911],[63.084397,35.826083],[63.104086,35.856469],[63.430216,35.871042],[63.511089,35.901841],[63.582093,35.959047],[63.765906,35.977288],[63.889826,36.029637],[64.045114,35.998734],[64.036225,36.076404],[64.057258,36.105239],[64.158698,36.160275],[64.266134,36.152471],[64.303651,36.211538],[64.477697,36.271637],[64.594382,36.424186],[64.610505,36.500926],[64.588801,36.600454],[64.604821,36.660554],[64.778764,36.93847],[64.755613,37.053631],[64.778764,37.118046],[65.063088,37.233232],[65.501407,37.242276],[65.536857,37.257107],[65.624087,37.345138],[65.620986,37.430404],[65.65871,37.51027],[65.739429,37.529054],[65.761443,37.578379],[65.804334,37.565305],[65.855184,37.507944],[66.079666,37.440868],[66.142918,37.385058],[66.218469,37.3748],[66.294434,37.331211],[66.413496,37.349633],[66.451065,37.322943],[66.539018,37.36909],[66.694099,37.343406],[66.734975,37.363302],[67.005915,37.384386],[67.097382,37.34059],[67.123324,37.281963],[67.187816,37.258244],[67.259129,37.185147],[67.391163,37.21959],[67.503145,37.281963],[67.561385,37.2199],[67.633163,37.254058],[67.746593,37.229408],[67.780544,37.188868],[67.773051,37.109984],[67.87811,37.064431],[68.02022,36.92568],[68.186411,37.01831],[68.277775,37.010068],[68.288317,37.103214],[68.391877,37.105437],[68.418025,37.128277],[68.403711,37.151635],[68.523858,37.164658],[68.551453,37.192615],[68.626901,37.206257],[68.648605,37.244369],[68.671239,37.247185],[68.657545,37.267675],[68.668862,37.278294],[68.759606,37.275245],[68.820378,37.250906],[68.810197,37.312091],[68.835829,37.329144],[68.915824,37.279069],[68.887867,37.338135],[68.985225,37.320359],[69.123615,37.169205],[69.245675,37.103886],[69.312079,37.117477],[69.407732,37.177473],[69.442148,37.223621],[69.445197,37.23641],[69.409851,37.245661],[69.37838,37.437406],[69.491448,37.536986],[69.508656,37.578973],[69.664977,37.576157],[69.754274,37.596673],[69.80223,37.581506],[69.918812,37.617137],[70.007592,37.548846],[70.157867,37.541431],[70.216468,37.617137],[70.248301,37.623338],[70.283079,37.704831],[70.275121,37.774181],[70.247164,37.819166],[70.196004,37.839914],[70.165205,37.889911],[70.17213,37.946083],[70.214711,37.929262],[70.26153,37.939287],[70.253934,37.973394],[70.470303,38.120517],[70.547197,38.262653],[70.583061,38.275081],[70.600011,38.347066],[70.68476,38.38665],[70.664865,38.405409],[70.741811,38.419439],[70.777261,38.446466],[70.871002,38.45321],[70.936217,38.433004],[70.950739,38.473053],[70.998229,38.465664],[71.049802,38.408664],[71.117395,38.398639],[71.217699,38.325827],[71.334384,38.280662],[71.358156,38.251258],[71.359086,38.184105],[71.272631,37.997992],[71.258265,37.926472],[71.341154,37.893295],[71.537059,37.944455],[71.597727,37.89836],[71.590286,37.815729],[71.529515,37.761133],[71.542537,37.719559],[71.497165,37.566545],[71.511221,37.485878],[71.48714,37.409087],[71.493858,37.307543],[71.45014,37.21667],[71.431123,37.066989],[71.459958,37.010739],[71.463059,36.948082],[71.528481,36.856149],[71.552872,36.769591],[71.61106,36.704841],[71.653021,36.687012],[71.748519,36.678641],[71.836576,36.699156],[72.259806,36.967305],[72.405947,37.007665],[72.474987,36.997484],[72.657714,37.028826],[72.79073,37.220262],[72.902247,37.2538],[72.995575,37.3093],[73.067509,37.315062],[73.132104,37.384386],[73.211479,37.40826],[73.296332,37.464949],[73.378394,37.452547],[73.485261,37.480969],[73.6745,37.43105],[73.753462,37.428388],[73.739096,37.338342],[73.690416,37.305218],[73.630988,37.295993],[73.597295,37.261809],[73.617656,37.233181],[73.680494,37.242457],[73.709227,37.217006],[74.187647,37.338394],[74.223924,37.403351],[74.303816,37.400173],[74.315598,37.426916],[74.378126,37.393765],[74.521167,37.375601],[74.660383,37.393972],[74.78854,37.331159],[74.892307,37.231114],[74.794018,37.213931],[74.721464,37.297776],[74.623279,37.230804],[74.59,37.243361],[74.500083,37.23163],[74.456674,37.177318],[74.368308,37.167061],[74.38257,37.126572],[74.476622,37.083138],[74.542354,37.021669]]]}}]}
