{"type":"FeatureCollection","features":[{"type":"Feature","properties":{"name":"Antigua and Barbuda","ISO3166-1-Alpha-3":"ATG","ISO3166-1-Alpha-2":"AG"},"geometry":{"type":"MultiPolygon","coordinates":[[[[-61.883616,17.049018],[-61.8662,17.086859],[-61.894154,17.100531],[-61.842356,17.124416],[-61.848785,17.149482],[-61.825266,17.168769],[-61.793365,17.164944],[-61.756418,17.114163],[-61.743316,17.141506],[-61.708608,17.127834],[-61.725087,17.09984],[-61.680653,17.100531],[-61.667592,17.079413],[-61.694936,17.079413],[-61.67219,17.057563],[-61.685699,17.028551],[-61.733998,17.034857],[-61.737131,16.989244],[-61.776845,17.018541],[-61.851715,17.007636],[-61.883656,17.026272],[-61.883616,17.049018]]],[[[-61.838938,17.593329],[-61.857289,17.600979],[-61.87385,17.691148],[-61.873036,17.710639],[-61.831451,17.613837],[-61.831207,17.680487],[-61.856435,17.701077],[-61.837799,17.727688],[-61.81786,17.703192],[-61.831451,17.696357],[-61.784291,17.696357],[-61.754262,17.668769],[-61.727773,17.588446],[-61.736399,17.554023],[-61.77066,17.545559],[-61.838938,17.593329]]],[[[-62.345589,16.93914],[-62.342918,16.938366],[-62.347065,16.93197],[-62.345589,16.93914]]]]}}]}
