{"type":"FeatureCollection","features":[{"type":"Feature","properties":{"name":"Argentina","ISO3166-1-Alpha-3":"ARG","ISO3166-1-Alpha-2":"AR"},"geometry":{"type":"MultiPolygon","coordinates":[[[[-67.193904,-22.822223],[-67.113237,-22.710086],[-67.026628,-22.639392],[-67.032725,-22.524567],[-66.978155,-22.5225],[-66.935315,-22.480539],[-66.785092,-22.427622],[-66.790518,-22.388348],[-66.735896,-22.225051],[-66.699309,-22.200763],[-66.64138,-22.212545],[-66.626755,-22.192598],[-66.377468,-22.127072],[-66.307602,-22.077049],[-66.240009,-21.792415],[-66.222465,-21.786938],[-66.094488,-21.83293],[-66.046532,-21.917989],[-65.932689,-21.944551],[-65.804557,-22.085834],[-65.744613,-22.11405],[-65.579894,-22.086454],[-65.457344,-22.101441],[-65.020368,-22.096583],[-64.596207,-22.20655],[-64.542774,-22.275487],[-64.572023,-22.343183],[-64.524558,-22.385351],[-64.531328,-22.425658],[-64.428285,-22.542344],[-64.45371,-22.642906],[-64.355731,-22.751943],[-64.359994,-22.803],[-64.343897,-22.863668],[-64.325294,-22.871936],[-64.250828,-22.54069],[-64.160549,-22.438474],[-64.086239,-22.257917],[-64.051021,-22.229185],[-64.004383,-22.09927],[-63.968106,-22.066507],[-63.947591,-22.007596],[-63.813129,-22.003049],[-63.74042,-22.050591],[-63.693911,-22.01204],[-63.639392,-21.997468],[-62.804353,-22.004082],[-62.783476,-22.130896],[-62.624829,-22.247271],[-62.625294,-22.305046],[-62.564678,-22.321996],[-62.368256,-22.464416],[-62.287227,-22.483949],[-62.281387,-22.512061],[-62.241183,-22.538416],[-62.25281,-22.603632],[-62.192969,-22.62823],[-62.195036,-22.673602],[-62.175916,-22.684867],[-62.188267,-22.708329],[-62.035821,-22.884855],[-62.006055,-22.936842],[-62.0059,-22.978906],[-61.956446,-23.034407],[-61.84498,-23.097245],[-61.769274,-23.165562],[-61.732997,-23.243386],[-61.680313,-23.27925],[-61.60515,-23.289275],[-61.554636,-23.338368],[-61.51606,-23.344982],[-61.526343,-23.374748],[-61.501073,-23.407821],[-61.296951,-23.481408],[-61.272612,-23.523576],[-61.18024,-23.557166],[-61.109857,-23.606982],[-61.118849,-23.66641],[-61.006349,-23.805471],[-60.974826,-23.824074],[-60.936663,-23.813842],[-60.837625,-23.871823],[-60.63216,-23.892287],[-60.594617,-23.90655],[-60.577538,-23.94417],[-60.484882,-23.977347],[-60.378351,-23.988509],[-60.337372,-24.016414],[-60.143249,-24.025199],[-60.033669,-24.007009],[-59.67364,-24.225394],[-59.610517,-24.289576],[-59.4659,-24.353551],[-59.340973,-24.4876],[-59.000916,-24.644179],[-58.809196,-24.776781],[-58.473403,-24.851299],[-58.335995,-24.991858],[-58.224064,-24.941216],[-58.124019,-25.012942],[-58.00046,-25.044362],[-57.983769,-25.074231],[-57.870701,-25.085289],[-57.754067,-25.180891],[-57.721769,-25.246106],[-57.671488,-25.290135],[-57.640792,-25.37261],[-57.55811,-25.44351],[-57.575318,-25.564433],[-57.623067,-25.615386],[-57.668077,-25.612286],[-57.678981,-25.647012],[-57.741251,-25.661895],[-57.774582,-25.701686],[-57.740373,-25.72215],[-57.820626,-25.77827],[-57.801868,-25.831394],[-57.875352,-25.876146],[-57.851374,-25.908392],[-57.905841,-25.968646],[-57.85959,-25.980945],[-57.872716,-26.010298],[-57.988213,-26.088536],[-58.086501,-26.12719],[-58.124019,-26.201914],[-58.151304,-26.18145],[-58.105983,-26.239534],[-58.169959,-26.270333],[-58.167633,-26.335032],[-58.213057,-26.418645],[-58.18541,-26.451718],[-58.217346,-26.527579],[-58.164946,-26.592278],[-58.192283,-26.612845],[-58.178641,-26.650672],[-58.235536,-26.649845],[-58.247939,-26.758159],[-58.287936,-26.768598],[-58.27481,-26.798363],[-58.288556,-26.811489],[-58.340026,-26.808595],[-58.352377,-26.830506],[-58.31579,-26.874121],[-58.47547,-26.937993],[-58.466633,-26.975923],[-58.51154,-27.060156],[-58.54544,-27.041036],[-58.56549,-27.115966],[-58.616133,-27.123821],[-58.653289,-27.156274],[-58.652358,-27.198029],[-58.60156,-27.245674],[-58.604196,-27.316264],[-58.510765,-27.278437],[-58.021958,-27.259834],[-57.709367,-27.329804],[-57.513358,-27.41414],[-57.335229,-27.409489],[-57.180097,-27.487313],[-57.076227,-27.484006],[-56.904351,-27.418687],[-56.771155,-27.506744],[-56.613,-27.446386],[-56.54644,-27.455067],[-56.461484,-27.553873],[-56.399731,-27.586842],[-56.367537,-27.580641],[-56.296998,-27.480905],[-56.279842,-27.389645],[-56.205428,-27.362153],[-56.124554,-27.298901],[-55.892837,-27.334868],[-55.854157,-27.40122],[-55.754732,-27.443698],[-55.591331,-27.328357],[-55.568671,-27.245984],[-55.598281,-27.16754],[-55.555338,-27.153794],[-55.533841,-27.09943],[-55.461855,-27.097983],[-55.442761,-27.015508],[-55.414003,-26.979851],[-55.2806,-26.934272],[-55.138361,-26.953702],[-55.118879,-26.920009],[-55.125778,-26.863579],[-55.060898,-26.805184],[-54.97527,-26.787821],[-54.919899,-26.674133],[-54.879359,-26.654393],[-54.817321,-26.665761],[-54.793059,-26.644987],[-54.789829,-26.528509],[-54.697664,-26.428153],[-54.663661,-26.308367],[-54.664333,-26.236227],[-54.638288,-26.196953],[-54.663816,-26.149204],[-54.642526,-26.062801],[-54.662266,-25.979912],[-54.606404,-25.946632],[-54.61524,-25.882863],[-54.587904,-25.810827],[-54.617152,-25.773516],[-54.642887,-25.661585],[-54.583356,-25.644842],[-54.600203,-25.574945],[-54.545632,-25.574769],[-54.5323,-25.610632],[-54.473027,-25.625825],[-54.447344,-25.68918],[-54.395409,-25.581073],[-54.349675,-25.582417],[-54.299239,-25.552651],[-54.255624,-25.598746],[-54.243687,-25.577559],[-54.190253,-25.580763],[-54.2148,-25.531464],[-54.165087,-25.534358],[-54.116408,-25.494567],[-54.123126,-25.571771],[-54.09889,-25.597196],[-54.082715,-25.550067],[-54.055378,-25.570738],[-53.997449,-25.574975],[-53.967735,-25.653213],[-53.90996,-25.629236],[-53.876474,-25.697862],[-53.88345,-25.735586],[-53.840352,-25.791396],[-53.833428,-25.962238],[-53.765008,-26.028074],[-53.661552,-26.259791],[-53.724442,-26.376063],[-53.712918,-26.5005],[-53.737465,-26.525305],[-53.739532,-26.67558],[-53.77431,-26.714337],[-53.747852,-26.739142],[-53.752916,-26.773248],[-53.734002,-26.777383],[-53.712505,-26.904507],[-53.76847,-27.024086],[-53.800923,-27.039072],[-53.830017,-27.156791],[-53.842006,-27.163509],[-53.88221,-27.119894],[-53.909495,-27.168263],[-53.964117,-27.154],[-53.961792,-27.191414],[-54.005148,-27.18821],[-54.091758,-27.285155],[-54.158059,-27.279471],[-54.15594,-27.257663],[-54.177024,-27.243401],[-54.231646,-27.38055],[-54.261257,-27.388715],[-54.286888,-27.428402],[-54.347712,-27.394296],[-54.347712,-27.435844],[-54.371586,-27.454447],[-54.388898,-27.411142],[-54.444553,-27.408972],[-54.464552,-27.423338],[-54.448377,-27.458891],[-54.543255,-27.487003],[-54.589454,-27.452587],[-54.625912,-27.515322],[-54.651233,-27.525864],[-54.666452,-27.50385],[-54.690326,-27.551289],[-54.773939,-27.563794],[-54.805048,-27.526381],[-54.827527,-27.545088],[-54.845097,-27.611854],[-54.898272,-27.623636],[-54.913207,-27.736911],[-54.985192,-27.78528],[-55.081155,-27.778252],[-55.029634,-27.850702],[-55.09994,-27.843777],[-55.119241,-27.880881],[-55.177558,-27.853596],[-55.26024,-27.919225],[-55.314113,-27.914987],[-55.33791,-27.96315],[-55.38093,-27.978239],[-55.383385,-28.014206],[-55.440746,-28.078905],[-55.505935,-28.078905],[-55.553478,-28.145568],[-55.604741,-28.116939],[-55.684064,-28.196211],[-55.772534,-28.231971],[-55.766591,-28.257602],[-55.687216,-28.290055],[-55.6636,-28.326539],[-55.694244,-28.400126],[-55.714967,-28.404467],[-55.734604,-28.365916],[-55.842349,-28.346382],[-55.905601,-28.378008],[-55.902035,-28.465135],[-56.011589,-28.496554],[-56.021899,-28.585748],[-56.040812,-28.609002],[-56.103005,-28.648069],[-56.184705,-28.744188],[-56.286146,-28.780154],[-56.301003,-28.88144],[-56.323069,-28.916477],[-56.391618,-28.952237],[-56.427972,-29.069852],[-56.548301,-29.109953],[-56.617289,-29.160906],[-56.688654,-29.329578],[-56.769941,-29.379084],[-56.819034,-29.474996],[-56.951635,-29.586307],[-57.094159,-29.751981],[-57.219629,-29.778336],[-57.291511,-29.81513],[-57.325153,-29.981011],[-57.411452,-30.039612],[-57.506175,-30.144309],[-57.568652,-30.176555],[-57.633971,-30.183583],[-57.623739,-30.2581],[-57.652729,-30.329104],[-57.849617,-30.48527],[-57.889769,-30.550796],[-57.88579,-30.589863],[-57.817887,-30.712026],[-57.796132,-30.868399],[-57.807242,-30.90757],[-57.90398,-30.929687],[-57.911732,-30.947361],[-57.863311,-31.012266],[-57.855249,-31.058982],[-57.911732,-31.170603],[-57.905117,-31.240986],[-57.966354,-31.314573],[-57.990228,-31.399323],[-58.062575,-31.444281],[-58.075236,-31.475184],[-57.986818,-31.554145],[-57.979583,-31.598794],[-58.048881,-31.797128],[-58.152854,-31.835988],[-58.202618,-31.893143],[-58.158797,-31.943889],[-58.145309,-32.01789],[-58.186547,-32.15292],[-58.096527,-32.280974],[-58.220082,-32.489516],[-58.179351,-32.828302],[-58.137766,-32.900323],[-58.159495,-32.97975],[-58.146799,-33.049981],[-58.204457,-33.091892],[-58.383168,-33.075453],[-58.430165,-33.102634],[-58.412831,-33.118748],[-58.433217,-33.232354],[-58.412343,-33.298272],[-58.487864,-33.369561],[-58.521718,-33.449314],[-58.549224,-33.705336],[-58.524322,-33.777765],[-58.461049,-33.85947],[-58.447174,-34.010512],[-58.387807,-34.046482],[-58.37857,-34.188246],[-58.460194,-34.272882],[-58.54308,-34.267673],[-58.570424,-34.288181],[-58.454607,-34.366183],[-58.511465,-34.435945],[-58.477284,-34.483331],[-58.474192,-34.52158],[-58.378772,-34.572509],[-58.315031,-34.657195],[-58.154872,-34.7504],[-58.00019,-34.787258],[-57.965031,-34.82453],[-57.871032,-34.829915],[-57.758843,-34.909662],[-57.522032,-35.013154],[-57.248769,-35.248793],[-57.128144,-35.441321],[-57.144909,-35.4842],[-57.352625,-35.727524],[-57.3933,-35.86297],[-57.366444,-35.987888],[-57.308827,-36.099867],[-57.268178,-36.127862],[-57.248036,-36.170343],[-57.108266,-36.282322],[-56.937734,-36.350763],[-56.939198,-36.384861],[-56.856679,-36.343927],[-56.767893,-36.343927],[-56.776031,-36.30641],[-56.74059,-36.316583],[-56.697621,-36.396173],[-56.699574,-36.521417],[-56.672271,-36.600518],[-56.664866,-36.851007],[-56.686431,-36.927667],[-56.888661,-37.162042],[-57.055898,-37.412693],[-57.487416,-37.832208],[-57.528879,-37.91367],[-57.532786,-38.072524],[-57.55842,-38.120864],[-57.861887,-38.294122],[-58.330963,-38.492771],[-58.940297,-38.646091],[-59.063222,-38.69378],[-59.632395,-38.783787],[-59.796864,-38.838474],[-60.865712,-38.975681],[-61.016469,-38.968194],[-61.143381,-39.001072],[-61.428049,-38.982517],[-61.518056,-39.011489],[-61.67516,-38.99391],[-61.722808,-38.968194],[-61.839019,-38.98089],[-62.026723,-38.937595],[-62.09317,-38.901951],[-62.157338,-38.810479],[-62.358469,-38.787286],[-62.37975,-38.798435],[-62.373931,-38.899998],[-62.336008,-38.896905],[-62.320465,-38.960707],[-62.274037,-38.954522],[-62.283925,-39.002211],[-62.318512,-39.022068],[-62.357818,-39.102227],[-62.339182,-39.126397],[-62.339182,-39.194106],[-62.257232,-39.255548],[-62.311269,-39.241876],[-62.325592,-39.254653],[-62.294342,-39.272719],[-62.167877,-39.28338],[-62.023915,-39.364841],[-62.056996,-39.411554],[-62.155995,-39.352146],[-62.188344,-39.310724],[-62.283925,-39.310724],[-62.272532,-39.338637],[-62.228139,-39.346368],[-62.154205,-39.427423],[-62.055776,-39.451918],[-62.114369,-39.821466],[-62.164174,-39.858819],[-62.239573,-39.848728],[-62.305043,-39.81113],[-62.283925,-39.852634],[-62.314565,-39.869399],[-62.315419,-39.924493],[-62.366322,-40.054132],[-62.339182,-40.112726],[-62.35969,-40.191827],[-62.451772,-40.249607],[-62.490061,-40.307875],[-62.414906,-40.462091],[-62.328684,-40.49627],[-62.326039,-40.525079],[-62.283681,-40.564386],[-62.26415,-40.551528],[-62.25064,-40.622247],[-62.267201,-40.633477],[-62.315012,-40.626642],[-62.346018,-40.599298],[-62.329742,-40.669122],[-62.181549,-40.626642],[-62.229237,-40.658624],[-62.254262,-40.746352],[-62.337799,-40.872735],[-62.7294,-41.041111],[-62.810943,-41.044041],[-62.86384,-41.085138],[-63.099517,-41.15488],[-63.779408,-41.158787],[-63.866689,-41.133722],[-63.966868,-41.060235],[-64.062856,-41.041274],[-64.062123,-40.999444],[-64.174306,-41.008966],[-64.417104,-40.91074],[-64.644765,-40.846449],[-64.911204,-40.823826],[-64.911977,-40.80877],[-64.867991,-40.792169],[-64.849924,-40.795099],[-64.854237,-40.812188],[-64.744985,-40.797296],[-64.75357,-40.776544],[-64.800282,-40.758884],[-64.771637,-40.736505],[-64.796213,-40.723321],[-64.890452,-40.705987],[-64.981842,-40.723321],[-64.922475,-40.729669],[-64.936391,-40.744724],[-64.908844,-40.770115],[-65.010854,-40.767267],[-65.131703,-40.84238],[-65.175689,-40.969171],[-65.146799,-41.180597],[-65.061187,-41.448419],[-64.991363,-41.524102],[-65.037221,-41.665134],[-64.999908,-41.79339],[-65.074534,-41.950942],[-65.004994,-42.093194],[-64.857289,-42.193617],[-64.644154,-42.234633],[-64.602895,-42.258233],[-64.480865,-42.254653],[-64.464223,-42.275323],[-64.510894,-42.298761],[-64.587473,-42.38128],[-64.602284,-42.422052],[-64.445058,-42.44671],[-64.315541,-42.423028],[-64.103586,-42.42783],[-64.051584,-42.372247],[-64.059722,-42.336602],[-64.045481,-42.322686],[-64.06843,-42.269627],[-64.29662,-42.257582],[-64.339711,-42.2374],[-64.16218,-42.209405],[-63.870915,-42.083713],[-63.768648,-42.077723],[-63.709625,-42.134373],[-63.668324,-42.228611],[-63.597971,-42.299981],[-63.579335,-42.59295],[-63.63329,-42.714614],[-63.620269,-42.751235],[-63.671498,-42.802179],[-63.736643,-42.824802],[-64.1079,-42.883722],[-64.251332,-42.775079],[-64.202382,-42.635431],[-64.294423,-42.585707],[-64.322621,-42.542413],[-64.437734,-42.506931],[-64.639638,-42.521742],[-64.734731,-42.557875],[-64.804026,-42.621515],[-64.946034,-42.654229],[-65.01891,-42.74684],[-64.997141,-42.784845],[-64.737904,-42.871026],[-64.645497,-42.925388],[-64.579905,-42.943048],[-64.503163,-42.93727],[-64.433461,-42.976332],[-64.315785,-42.950453],[-64.302113,-42.98089],[-64.447581,-43.068617],[-64.765248,-43.147393],[-64.943918,-43.239435],[-65.032338,-43.299412],[-65.039052,-43.395603],[-65.27538,-43.587335],[-65.3308,-43.663344],[-65.332387,-43.730727],[-65.30606,-43.779067],[-65.318227,-43.832208],[-65.27538,-43.898614],[-65.271962,-43.964044],[-65.22861,-43.975253],[-65.251859,-43.988134],[-65.241977,-44.027267],[-65.186708,-44.035539],[-65.237864,-44.084161],[-65.214817,-44.137435],[-65.282567,-44.154517],[-65.308708,-44.200085],[-65.304724,-44.240089],[-65.267985,-44.27227],[-65.258204,-44.323158],[-65.221412,-44.338449],[-65.216885,-44.36641],[-65.33159,-44.46076],[-65.311687,-44.471015],[-65.313587,-44.494293],[-65.282601,-44.492576],[-65.279278,-44.516263],[-65.320135,-44.532804],[-65.32571,-44.508278],[-65.373102,-44.516183],[-65.361225,-44.540394],[-65.393308,-44.551922],[-65.356328,-44.574118],[-65.368679,-44.586062],[-65.461812,-44.576558],[-65.460915,-44.600993],[-65.643208,-44.668],[-65.695831,-44.73481],[-65.704264,-44.801252],[-65.7271,-44.809605],[-65.715443,-44.869963],[-65.572916,-44.895829],[-65.5214,-44.931898],[-65.605436,-44.972741],[-65.583809,-45.007472],[-65.622232,-45.007071],[-65.602643,-45.027687],[-65.685056,-45.044538],[-65.690619,-45.062721],[-65.751375,-45.023646],[-65.817397,-45.04029],[-65.841592,-45.003216],[-65.889807,-45.008085],[-65.887659,-45.039444],[-65.936238,-45.048684],[-66.016357,-45.003107],[-66.200367,-44.992919],[-66.281579,-45.057603],[-66.349707,-45.04345],[-66.49659,-45.088382],[-66.525301,-45.13188],[-66.454758,-45.149341],[-66.473302,-45.168674],[-66.587799,-45.139337],[-66.588214,-45.166662],[-66.543102,-45.174187],[-66.523997,-45.216097],[-66.669515,-45.21459],[-66.929266,-45.256534],[-67.064795,-45.349949],[-67.223329,-45.528678],[-67.331925,-45.613491],[-67.356285,-45.658965],[-67.354426,-45.705799],[-67.335113,-45.718845],[-67.363904,-45.735683],[-67.364597,-45.78661],[-67.455874,-45.825003],[-67.547732,-45.933446],[-67.533111,-45.958266],[-67.578481,-45.992852],[-67.621205,-46.099542],[-67.622467,-46.163751],[-67.540883,-46.4013],[-67.42322,-46.567419],[-67.336498,-46.625192],[-67.256271,-46.643422],[-67.19364,-46.691004],[-67.129995,-46.706596],[-67.033193,-46.819106],[-66.999827,-46.824884],[-66.786448,-47.006606],[-66.628795,-47.051218],[-66.505238,-47.040785],[-66.200493,-47.089587],[-65.979563,-47.066176],[-65.881156,-47.096555],[-65.847381,-47.139687],[-65.744902,-47.204164],[-65.755355,-47.223452],[-65.713014,-47.341497],[-65.735665,-47.509535],[-65.845626,-47.742206],[-66.032064,-47.739525],[-66.095621,-47.787457],[-66.273915,-47.85947],[-66.38915,-47.863865],[-66.301096,-47.872491],[-66.144443,-47.828202],[-66.022572,-47.770993],[-65.901824,-47.76995],[-65.853409,-47.87959],[-65.761739,-47.911908],[-65.795121,-47.935934],[-65.761952,-47.948552],[-65.836742,-47.962991],[-65.847068,-47.944417],[-65.927385,-47.941409],[-65.952009,-47.980692],[-65.929991,-47.990951],[-65.936879,-48.015802],[-65.968445,-48.047168],[-65.903188,-48.078546],[-65.917237,-48.113814],[-65.971675,-48.099449],[-66.108632,-48.123305],[-66.159535,-48.185317],[-66.238287,-48.208923],[-66.264812,-48.242779],[-66.316884,-48.264255],[-66.354988,-48.321216],[-66.341115,-48.352725],[-66.448598,-48.350274],[-66.469558,-48.364932],[-66.46849,-48.400275],[-66.501056,-48.413988],[-66.65099,-48.431085],[-66.857812,-48.548307],[-66.866435,-48.589834],[-66.986923,-48.611698],[-67.114348,-48.67375],[-67.198285,-48.818353],[-67.405737,-48.904235],[-67.556549,-49.015817],[-67.596359,-49.106797],[-67.632558,-49.129978],[-67.635198,-49.155545],[-67.60993,-49.178107],[-67.650136,-49.195977],[-67.67536,-49.248789],[-67.73233,-49.274672],[-67.704172,-49.303888],[-67.711903,-49.315606],[-67.757802,-49.334781],[-67.745779,-49.355693],[-67.774312,-49.374408],[-67.830881,-49.379571],[-67.725184,-49.390746],[-67.697895,-49.37196],[-67.663207,-49.267153],[-67.63683,-49.247247],[-67.607655,-49.265069],[-67.611405,-49.323193],[-67.65331,-49.37713],[-67.700063,-49.534275],[-67.732012,-49.781302],[-67.793813,-49.905369],[-67.894927,-49.996875],[-68.07635,-50.087268],[-68.170109,-50.114034],[-68.341868,-50.117608],[-68.421953,-50.051189],[-68.462453,-49.980391],[-68.520949,-49.940524],[-68.654042,-49.757908],[-68.739735,-49.727716],[-68.664052,-49.767511],[-68.59578,-49.858307],[-68.577272,-49.927616],[-68.674387,-49.968357],[-68.875379,-49.962495],[-69.013499,-50.007745],[-68.915013,-50.011266],[-68.842152,-49.981052],[-68.670842,-49.994726],[-68.58347,-49.970337],[-68.518851,-50.015666],[-68.493754,-50.080114],[-68.349873,-50.14881],[-68.4381,-50.200779],[-68.876429,-50.330572],[-69.076519,-50.560172],[-69.079908,-50.604537],[-69.149973,-50.74212],[-69.127267,-50.846726],[-69.1368,-50.903481],[-69.347808,-51.01865],[-69.410715,-51.083917],[-69.288083,-51.015769],[-69.167778,-50.978225],[-69.104177,-51.214858],[-68.963735,-51.500746],[-68.962554,-51.560154],[-69.047597,-51.563165],[-69.119618,-51.60475],[-69.284332,-51.559747],[-69.377187,-51.556899],[-69.616811,-51.625177],[-69.304559,-51.59349],[-69.156982,-51.634883],[-69.218902,-51.680434],[-69.198964,-51.686619],[-69.02892,-51.61419],[-68.973511,-51.619952],[-68.935928,-51.645516],[-68.873158,-51.758966],[-68.685059,-52.005006],[-68.365611,-52.306204],[-68.362472,-52.339072],[-68.434748,-52.390749],[-68.454499,-52.299907],[-68.820497,-52.243167],[-69.007566,-52.179088],[-69.212256,-52.137953],[-69.485289,-52.132476],[-69.952754,-52.007419],[-71.917699,-51.990055],[-71.965241,-51.970625],[-71.948498,-51.896004],[-71.981726,-51.844948],[-72.142129,-51.739425],[-72.300724,-51.691469],[-72.330903,-51.599382],[-72.42914,-51.576024],[-72.450069,-51.552666],[-72.351212,-51.475978],[-72.320465,-51.312577],[-72.258815,-51.245191],[-72.273956,-51.216769],[-72.382218,-51.160597],[-72.404594,-51.10582],[-72.338603,-51.036987],[-72.293438,-51.029236],[-72.265946,-50.960713],[-72.263466,-50.836276],[-72.347388,-50.743155],[-72.302843,-50.648897],[-72.505983,-50.601251],[-72.618121,-50.666777],[-72.662614,-50.667811],[-72.755787,-50.616444],[-72.902858,-50.66657],[-73.051738,-50.757831],[-73.139484,-50.770233],[-73.177725,-50.749459],[-73.192246,-50.641352],[-73.261854,-50.556603],[-73.284333,-50.333051],[-73.346345,-50.24365],[-73.530572,-50.140814],[-73.531502,-50.083143],[-73.478585,-50.009453],[-73.57274,-49.932352],[-73.54194,-49.894524],[-73.534499,-49.847602],[-73.462979,-49.787141],[-73.465098,-49.759959],[-73.19675,-49.682423],[-73.059745,-49.554971],[-73.057424,-49.47592],[-73.118652,-49.392427],[-73.097627,-49.266552],[-73.183151,-49.239061],[-73.171317,-49.189348],[-73.107187,-49.134881],[-73.078558,-49.05871],[-73.009725,-48.990394],[-72.922237,-48.952256],[-72.781212,-48.93386],[-72.618793,-48.819655],[-72.592334,-48.791129],[-72.57802,-48.721883],[-72.61471,-48.510009],[-72.57678,-48.452132],[-72.433119,-48.400352],[-72.371418,-48.346402],[-72.302326,-48.347539],[-72.325632,-48.285527],[-72.309509,-48.211216],[-72.343047,-48.07045],[-72.388006,-48.057841],[-72.419167,-48.009575],[-72.509445,-47.972988],[-72.543914,-47.9148],[-72.457304,-47.749126],[-72.344443,-47.602261],[-72.320878,-47.498392],[-72.370487,-47.474517],[-72.361186,-47.450953],[-72.288167,-47.414986],[-72.170551,-47.407544],[-72.038156,-47.287035],[-72.045133,-47.215825],[-72.030301,-47.197531],[-71.912531,-47.234532],[-71.880698,-47.221923],[-71.863283,-47.196601],[-71.874135,-47.142548],[-72.005187,-47.061932],[-71.999967,-47.042192],[-71.914805,-46.998474],[-71.970357,-46.948451],[-71.936199,-46.854297],[-71.9501,-46.813989],[-71.834086,-46.788564],[-71.68717,-46.690069],[-71.695542,-46.587129],[-71.680504,-46.53814],[-71.751869,-46.393033],[-71.763341,-46.244515],[-71.914701,-46.152324],[-71.904469,-46.136304],[-71.770162,-46.112636],[-71.612291,-45.970526],[-71.665879,-45.88402],[-71.758483,-45.848156],[-71.749027,-45.786765],[-71.801788,-45.72403],[-71.780498,-45.689406],[-71.78241,-45.641761],[-71.742825,-45.594322],[-71.765098,-45.572411],[-71.713732,-45.53324],[-71.525836,-45.518978],[-71.489094,-45.498514],[-71.478139,-45.482701],[-71.508318,-45.40839],[-71.389359,-45.37077],[-71.311534,-45.299456],[-71.317167,-45.26721],[-71.363262,-45.208816],[-71.487182,-45.123343],[-71.588726,-44.978132],[-71.702363,-44.973688],[-71.782461,-44.927386],[-71.889432,-44.94723],[-72.009838,-44.904545],[-72.073503,-44.902168],[-72.088748,-44.782795],[-72.04782,-44.754786],[-71.85455,-44.79096],[-71.762669,-44.754373],[-71.631204,-44.780005],[-71.497104,-44.742901],[-71.378868,-44.79189],[-71.29784,-44.795611],[-71.238153,-44.747862],[-71.240634,-44.658152],[-71.2134,-44.607095],[-71.147358,-44.580844],[-71.122398,-44.549424],[-71.171336,-44.452169],[-71.209783,-44.427571],[-71.437831,-44.401526],[-71.822045,-44.40318],[-71.860596,-44.377135],[-71.864162,-44.359152],[-71.80401,-44.314813],[-71.831812,-44.270165],[-71.805096,-44.205156],[-71.858736,-44.107798],[-71.762204,-44.064079],[-71.6696,-43.959796],[-71.659885,-43.92631],[-71.761842,-43.828435],[-71.755021,-43.771384],[-71.797137,-43.780789],[-71.819203,-43.758051],[-71.803235,-43.726012],[-71.709184,-43.684361],[-71.7143,-43.602195],[-71.800703,-43.544214],[-71.873825,-43.538943],[-71.881525,-43.524474],[-71.858632,-43.498636],[-71.868813,-43.462566],[-71.955112,-43.443549],[-71.901731,-43.322006],[-71.75068,-43.295341],[-71.757657,-43.225371],[-71.742981,-43.190127],[-71.770162,-43.161395],[-71.861888,-43.13318],[-72.054434,-43.105378],[-72.129314,-43.04223],[-72.148537,-42.998718],[-72.112674,-42.863842],[-72.141457,-42.65569],[-72.131587,-42.624064],[-72.148434,-42.592645],[-72.122647,-42.529909],[-72.03919,-42.48123],[-72.075208,-42.433791],[-72.069886,-42.349972],[-72.133706,-42.287599],[-72.05893,-42.197578],[-72.039913,-42.144662],[-71.977488,-42.125335],[-71.923796,-42.176908],[-71.884264,-42.144248],[-71.773108,-42.11996],[-71.736263,-42.08389],[-71.73957,-42.031904],[-71.780653,-41.986428],[-71.794037,-41.867469],[-71.856875,-41.78613],[-71.868968,-41.71554],[-71.925915,-41.653012],[-71.925967,-41.622936],[-71.853258,-41.567332],[-71.888088,-41.512762],[-71.87982,-41.436694],[-71.903953,-41.367655],[-71.87336,-41.249212],[-71.889432,-41.179759],[-71.871345,-41.166737],[-71.853981,-41.078887],[-71.867676,-40.998995],[-71.851449,-40.938327],[-71.910671,-40.850064],[-71.955577,-40.720356],[-71.853103,-40.616383],[-71.861836,-40.54972],[-71.796414,-40.414535],[-71.729286,-40.421356],[-71.674044,-40.324101],[-71.686705,-40.288547],[-71.74267,-40.296506],[-71.823751,-40.210103],[-71.802873,-40.116052],[-71.814036,-40.0929],[-71.766752,-40.076881],[-71.683708,-40.098998],[-71.680504,-40.009495],[-71.616632,-39.909863],[-71.684586,-39.833485],[-71.714352,-39.726308],[-71.694043,-39.673495],[-71.716057,-39.644762],[-71.714352,-39.601354],[-71.689754,-39.568385],[-71.61782,-39.61665],[-71.503512,-39.601664],[-71.495657,-39.565594],[-71.541959,-39.532315],[-71.461654,-39.433819],[-71.476537,-39.38297],[-71.412045,-39.317961],[-71.401968,-39.236002],[-71.430235,-38.999117],[-71.399901,-38.910544],[-71.236035,-38.811635],[-71.152836,-38.798819],[-71.048423,-38.746626],[-70.945045,-38.747246],[-70.873835,-38.691436],[-70.883421,-38.643067],[-70.837584,-38.584465],[-70.848668,-38.527621],[-70.950471,-38.459408],[-70.973751,-38.424682],[-71.019743,-38.234306],[-71.008658,-38.167643],[-71.023515,-38.104598],[-71.007418,-38.071008],[-71.087594,-37.940164],[-71.18503,-37.706069],[-71.190766,-37.640027],[-71.127928,-37.584423],[-71.141725,-37.543909],[-71.117696,-37.466497],[-71.194745,-37.343508],[-71.205597,-37.292658],[-71.146479,-37.214833],[-71.139296,-37.133288],[-71.089119,-37.103419],[-71.139555,-37.061664],[-71.15604,-37.002753],[-71.207148,-36.972367],[-71.161466,-36.975468],[-71.135679,-36.95149],[-71.169062,-36.921931],[-71.158778,-36.882657],[-71.195159,-36.839146],[-71.151544,-36.760494],[-71.145343,-36.68825],[-71.057441,-36.68763],[-71.068913,-36.566397],[-71.043282,-36.484335],[-70.934968,-36.472553],[-70.907786,-36.405167],[-70.890371,-36.400413],[-70.807198,-36.433382],[-70.71865,-36.414572],[-70.708599,-36.379949],[-70.732215,-36.334267],[-70.710511,-36.265847],[-70.604368,-36.194637],[-70.581424,-36.143167],[-70.499129,-36.163631],[-70.451483,-36.152262],[-70.386939,-36.058728],[-70.412571,-35.957339],[-70.383684,-35.913207],[-70.420787,-35.903802],[-70.420245,-35.868352],[-70.357329,-35.815229],[-70.421537,-35.659683],[-70.40823,-35.506204],[-70.445463,-35.461142],[-70.471766,-35.37939],[-70.428384,-35.357066],[-70.47528,-35.314071],[-70.560417,-35.298361],[-70.578891,-35.259707],[-70.542899,-35.209271],[-70.386629,-35.16669],[-70.353711,-34.953266],[-70.276713,-34.798237],[-70.316298,-34.74563],[-70.252219,-34.695814],[-70.227828,-34.58533],[-70.067579,-34.414591],[-70.05758,-34.291187],[-69.989237,-34.26907],[-69.911568,-34.284573],[-69.828885,-34.23331],[-69.87325,-34.139982],[-69.855809,-33.984746],[-69.865602,-33.957668],[-69.909552,-33.955704],[-69.897279,-33.871368],[-69.914255,-33.771943],[-69.860046,-33.726364],[-69.895367,-33.662285],[-69.878831,-33.558002],[-69.841469,-33.532784],[-69.830901,-33.458163],[-69.787674,-33.379408],[-69.836844,-33.26572],[-69.905289,-33.238228],[-69.940558,-33.242879],[-69.983863,-33.294452],[-70.010011,-33.299103],[-70.109463,-33.169602],[-70.092177,-33.091777],[-70.111194,-33.038447],[-70.088921,-33.008268],[-70.04249,-32.992662],[-70.000219,-32.876597],[-70.087268,-32.823267],[-70.155739,-32.738414],[-70.181086,-32.607569],[-70.17057,-32.572739],[-70.13773,-32.569019],[-70.157883,-32.542457],[-70.160829,-32.485303],[-70.24532,-32.403964],[-70.242374,-32.330274],[-70.269194,-32.299061],[-70.321801,-32.280147],[-70.345521,-32.174727],[-70.335237,-32.140001],[-70.389084,-32.053081],[-70.373323,-32.030395],[-70.284697,-32.046777],[-70.244467,-31.942235],[-70.313326,-31.882084],[-70.42828,-31.870095],[-70.464144,-31.838262],[-70.486313,-31.731189],[-70.589769,-31.567684],[-70.578995,-31.431982],[-70.554655,-31.362942],[-70.568969,-31.304238],[-70.535922,-31.172566],[-70.479802,-31.096705],[-70.448098,-31.097636],[-70.435618,-31.141354],[-70.408643,-31.150036],[-70.339785,-31.041722],[-70.266559,-31.036451],[-70.339216,-30.938162],[-70.319476,-30.800806],[-70.276171,-30.725565],[-70.27599,-30.673062],[-70.217105,-30.515139],[-70.143931,-30.439588],[-70.173412,-30.364657],[-70.146928,-30.353908],[-70.030191,-30.39711],[-69.964588,-30.374786],[-69.912136,-30.329517],[-69.890742,-30.228955],[-69.848962,-30.199086],[-69.835758,-30.161879],[-69.880717,-30.099764],[-69.973244,-30.089428],[-69.980375,-30.072479],[-69.927975,-29.976774],[-69.915599,-29.805621],[-69.929086,-29.718288],[-69.973192,-29.666095],[-69.968464,-29.583309],[-70.042619,-29.363064],[-70.040655,-29.297539],[-69.980323,-29.249996],[-69.989496,-29.214443],[-69.910948,-29.143233],[-69.844363,-29.12928],[-69.803926,-29.098688],[-69.802789,-28.939938],[-69.732767,-28.794314],[-69.753386,-28.673391],[-69.72207,-28.610656],[-69.678404,-28.573862],[-69.653031,-28.397852],[-69.510094,-28.267524],[-69.490508,-28.198381],[-69.476168,-28.187942],[-69.420306,-28.212644],[-69.303233,-27.99953],[-69.190191,-27.951368],[-69.124329,-27.73443],[-69.075831,-27.696189],[-69.092341,-27.640172],[-69.028573,-27.551289],[-69.01741,-27.460442],[-68.931447,-27.395226],[-68.883052,-27.294974],[-68.870753,-27.198442],[-68.814322,-27.120307],[-68.718617,-27.106665],[-68.649474,-27.15121],[-68.585861,-27.162785],[-68.518009,-27.076899],[-68.330476,-27.044963],[-68.305361,-26.897995],[-68.570151,-26.550626],[-68.595317,-26.457299],[-68.575164,-26.30351],[-68.419876,-26.179279],[-68.409024,-26.144243],[-68.498476,-25.754913],[-68.559351,-25.663032],[-68.568807,-25.587791],[-68.55501,-25.572598],[-68.602914,-25.51069],[-68.605963,-25.436999],[-68.516046,-25.183578],[-68.474033,-25.145441],[-68.399205,-25.144821],[-68.366649,-25.123427],[-68.443544,-25.021107],[-68.437394,-24.974082],[-68.473051,-24.907936],[-68.555165,-24.862151],[-68.578006,-24.808717],[-68.572373,-24.769856],[-68.49553,-24.601805],[-68.451502,-24.629297],[-68.397655,-24.500519],[-68.326807,-24.498245],[-68.244486,-24.385384],[-67.412289,-24.055585],[-67.339787,-24.000601],[-67.013967,-23.000714],[-67.193904,-22.822223]]],[[[-68.654135,-54.886245],[-68.641998,-54.799168],[-68.568227,-54.878351],[-68.654135,-54.886245]]],[[[-68.641882,-54.782971],[-68.627617,-52.639572],[-68.585805,-52.662774],[-68.428131,-52.834649],[-68.311431,-52.912042],[-68.265981,-52.980645],[-68.225819,-53.102472],[-68.23054,-53.118585],[-68.280426,-53.015395],[-68.349569,-53.016162],[-68.520715,-53.120631],[-68.554799,-53.167052],[-68.550751,-53.238537],[-68.451351,-53.297717],[-68.296074,-53.320169],[-68.189332,-53.313737],[-68.111402,-53.343802],[-68.07636,-53.395298],[-68.082509,-53.429783],[-68.047678,-53.523207],[-67.983632,-53.601332],[-67.702461,-53.774746],[-67.708779,-53.804568],[-67.660151,-53.800079],[-67.558248,-53.836189],[-67.549239,-53.847408],[-67.587758,-53.869317],[-67.571523,-53.907973],[-67.140844,-54.123398],[-66.766582,-54.249842],[-66.701731,-54.288263],[-66.654023,-54.346542],[-66.492314,-54.441344],[-66.482213,-54.4658],[-65.844228,-54.647393],[-65.69811,-54.662367],[-65.309316,-54.62656],[-65.141916,-54.646905],[-65.193715,-54.690199],[-65.224192,-54.743585],[-65.209828,-54.764744],[-65.251454,-54.790704],[-65.243398,-54.820977],[-65.30606,-54.852227],[-65.332265,-54.913832],[-65.358957,-54.92669],[-65.392934,-54.92547],[-65.401682,-54.893731],[-65.462717,-54.884454],[-65.499664,-54.933038],[-65.615142,-54.934177],[-65.669097,-54.971775],[-65.710194,-54.948419],[-65.718861,-54.909275],[-65.966225,-54.902073],[-65.987558,-54.910683],[-65.950829,-54.939949],[-65.993355,-54.972366],[-66.11706,-54.99553],[-66.317068,-54.994978],[-66.371633,-55.005478],[-66.371622,-55.037755],[-66.450673,-55.052016],[-66.630067,-55.031097],[-66.802805,-54.94256],[-67.030995,-54.905206],[-67.931956,-54.862481],[-68.302073,-54.792169],[-68.328236,-54.84238],[-68.520334,-54.852227],[-68.641882,-54.782971]]],[[[-63.888417,-54.729913],[-63.825673,-54.714939],[-63.812123,-54.729913],[-63.870351,-54.781671],[-63.966786,-54.815037],[-63.990834,-54.811212],[-63.96288,-54.774021],[-63.979644,-54.75742],[-64.244537,-54.837091],[-64.270741,-54.824884],[-64.251576,-54.777032],[-64.311106,-54.777602],[-64.445139,-54.843357],[-64.497914,-54.845961],[-64.484283,-54.824884],[-64.506581,-54.827325],[-64.525258,-54.838556],[-64.512278,-54.845961],[-64.62442,-54.903741],[-64.689768,-54.900567],[-64.668609,-54.866469],[-64.758656,-54.832289],[-64.683095,-54.770196],[-64.603749,-54.79811],[-64.522572,-54.781671],[-64.50475,-54.770929],[-64.569895,-54.722101],[-64.542348,-54.71559],[-64.497914,-54.750421],[-64.407053,-54.743829],[-64.384389,-54.784438],[-64.363881,-54.705987],[-64.224233,-54.723077],[-64.187164,-54.747003],[-64.158762,-54.71559],[-64.127431,-54.729913],[-64.093251,-54.71559],[-64.065989,-54.750421],[-63.914052,-54.715427],[-63.888417,-54.729913]]],[[[-61.907216,-39.136651],[-61.861724,-39.209893],[-61.868276,-39.239435],[-62.026845,-39.182875],[-62.098012,-39.087823],[-61.941803,-39.117771],[-61.91926,-39.15252],[-61.907216,-39.136651]]],[[[-62.085927,-39.02337],[-62.100453,-39.035089],[-62.130767,-39.020603],[-62.119456,-39.002211],[-62.040191,-39.005466],[-61.967275,-39.04697],[-62.010243,-39.064386],[-62.085927,-39.02337]]],[[[-62.1553,-40.374205],[-62.093997,-40.377419],[-62.028517,-40.454882],[-62.108709,-40.564064],[-62.16134,-40.557101],[-62.16573,-40.509401],[-62.193546,-40.522604],[-62.237326,-40.509949],[-62.199026,-40.463473],[-62.172836,-40.375048],[-62.1553,-40.374205]]],[[[-62.118962,-40.13072],[-62.04058,-40.146456],[-62.01466,-40.175163],[-62.021165,-40.343553],[-62.13318,-40.181094],[-62.118962,-40.13072]]]]}}]}
