{"type":"FeatureCollection","features":[{"type":"Feature","properties":{"name":"Azerbaijan","ISO3166-1-Alpha-3":"AZE","ISO3166-1-Alpha-2":"AZ"},"geometry":{"type":"MultiPolygon","coordinates":[[[[44.979456,41.082041],[45.018885,41.07491],[45.029995,41.046281],[45.015732,41.023234],[44.96695,41.044834],[44.963953,41.073773],[44.979456,41.082041]]],[[[45.0024,41.290452],[45.24962,41.4445],[45.464801,41.430185],[45.511826,41.39458],[45.74406,41.335359],[45.685872,41.29624],[45.820748,41.208804],[46.017428,41.163793],[46.113133,41.19604],[46.210595,41.200174],[46.332345,41.115889],[46.496779,41.044834],[46.522411,41.087002],[46.601786,41.09403],[46.621113,41.114597],[46.64447,41.207977],[46.694803,41.269782],[46.688499,41.284355],[46.591554,41.372928],[46.313948,41.493747],[46.2539,41.615911],[46.21969,41.593302],[46.192767,41.610174],[46.180002,41.655159],[46.188994,41.740141],[46.208321,41.755514],[46.313741,41.756651],[46.430892,41.890442],[46.543546,41.874293],[46.544321,41.814761],[46.567576,41.786675],[46.740795,41.851245],[46.769114,41.77572],[46.834795,41.730245],[46.902232,41.712752],[47.003932,41.60542],[47.027031,41.556948],[47.107491,41.569919],[47.141391,41.5524],[47.159323,41.503514],[47.239059,41.415716],[47.24092,41.338925],[47.268411,41.302803],[47.375588,41.259447],[47.500955,41.246321],[47.547309,41.205651],[47.622498,41.229061],[47.743731,41.192681],[47.828739,41.198417],[47.894627,41.219294],[47.892146,41.283269],[47.953228,41.355771],[48.001648,41.362076],[48.053532,41.461295],[48.201843,41.493489],[48.393046,41.598883],[48.455419,41.714406],[48.578949,41.845282],[48.655447,41.800605],[48.865896,41.585395],[48.904063,41.523383],[49.042491,41.414374],[49.135916,41.27497],[49.195486,41.057278],[49.382009,40.866645],[49.471039,40.835761],[49.538829,40.788072],[49.509532,40.699042],[49.53891,40.653998],[49.723806,40.580756],[49.816742,40.565375],[49.938162,40.58747],[50.052013,40.584296],[50.109386,40.527086],[50.237559,40.496161],[50.27589,40.436591],[50.350597,40.385891],[50.391124,40.235012],[50.387869,40.221137],[50.32309,40.296576],[50.229991,40.34276],[50.127696,40.358954],[49.983735,40.324205],[49.955821,40.351508],[49.893403,40.369045],[49.840343,40.337836],[49.847179,40.314154],[49.819021,40.29206],[49.577159,40.216742],[49.492524,40.153998],[49.496593,40.09455],[49.432628,40.062974],[49.483897,39.988674],[49.423676,39.935492],[49.443126,39.873358],[49.394786,39.782457],[49.423595,39.70954],[49.318044,39.621405],[49.284923,39.522203],[49.295746,39.476711],[49.408946,39.38642],[49.407074,39.323676],[49.366873,39.350979],[49.407074,39.289496],[49.306407,39.346503],[49.273123,39.336575],[49.237071,39.278957],[49.237804,39.169501],[49.203298,39.034125],[49.079275,38.963324],[49.051524,38.981024],[49.055837,39.007514],[49.125499,39.028144],[49.147716,39.083441],[49.116384,39.110297],[49.068614,39.111396],[49.05893,39.172797],[49.041189,39.184394],[48.967621,39.183824],[48.934825,39.124416],[48.952647,39.031643],[48.921723,38.935452],[48.867931,38.863837],[48.831798,38.871161],[48.863129,38.756659],[48.874278,38.434068],[48.777725,38.444812],[48.683209,38.398019],[48.607865,38.395978],[48.433715,38.569972],[48.415267,38.618109],[48.310312,38.600151],[48.228043,38.662189],[48.222979,38.721462],[48.077974,38.780941],[47.993122,38.850085],[47.990745,38.891219],[48.058544,38.948373],[48.243184,38.973875],[48.293672,39.004597],[48.306798,39.045396],[48.271296,39.108312],[48.142157,39.181201],[48.104329,39.234841],[48.10619,39.26918],[48.153525,39.319048],[48.33894,39.378941],[48.288608,39.445035],[47.971418,39.704554],[47.922945,39.684142],[47.823106,39.680318],[47.54116,39.51516],[47.406904,39.476816],[47.291356,39.379613],[47.10222,39.308403],[47.020468,39.18996],[46.953754,39.16066],[46.866162,39.165362],[46.744826,39.040254],[46.65217,38.992944],[46.585352,38.907704],[46.514039,38.882176],[46.475075,38.95106],[46.491921,39.081905],[46.479312,39.114771],[46.396268,39.164432],[46.395286,39.19518],[46.418334,39.211923],[46.514142,39.184431],[46.602612,39.215489],[46.517656,39.278844],[46.49528,39.324009],[46.374616,39.378838],[46.36087,39.410257],[46.405725,39.451185],[46.491405,39.466429],[46.492025,39.510199],[46.518276,39.525444],[46.524271,39.554641],[46.495435,39.575932],[46.396423,39.576655],[46.343713,39.618616],[46.18424,39.593243],[46.131685,39.652154],[46.045127,39.687553],[45.97924,39.768478],[45.861882,39.804548],[45.816821,39.839171],[45.742768,39.940509],[45.579419,39.970171],[45.576267,39.993891],[45.63957,40.025413],[45.873768,40.009755],[45.962961,40.141685],[45.97924,40.223592],[45.924618,40.266174],[45.861676,40.261265],[45.526192,40.441047],[45.455447,40.523626],[45.444647,40.566362],[45.387803,40.609512],[45.373643,40.675296],[45.437929,40.73338],[45.555855,40.776582],[45.58221,40.799371],[45.599159,40.862675],[45.537871,40.875904],[45.416432,40.961325],[45.419119,41.017342],[45.312562,40.99662],[45.221611,41.014449],[45.120016,41.079613],[45.111024,41.049537],[45.070044,41.062094],[45.057177,41.078786],[45.067822,41.110928],[45.166731,41.107776],[45.199752,41.142658],[45.134433,41.187875],[45.034853,41.197693],[45.0394,41.23118],[45.0024,41.290452]],[[45.513687,40.601967],[45.560712,40.647649],[45.47927,40.650233],[45.47927,40.609822],[45.513687,40.601967]]],[[[46.135871,38.863701],[45.716878,38.954781],[45.530843,38.969276],[45.438601,39.004235],[45.434518,39.052785],[45.396381,39.073327],[45.345273,39.138439],[45.348219,39.163916],[45.311115,39.176292],[45.311115,39.200528],[45.152727,39.213525],[45.096038,39.341114],[45.006379,39.417957],[44.957028,39.434493],[44.886438,39.605956],[44.872279,39.625076],[44.809647,39.636962],[44.774559,39.702797],[44.927159,39.724708],[45.033509,39.77039],[45.067512,39.757213],[45.151538,39.667709],[45.148334,39.57526],[45.204765,39.572314],[45.259955,39.599703],[45.312975,39.533815],[45.374884,39.525857],[45.434828,39.488857],[45.586447,39.545391],[45.714656,39.569472],[45.788088,39.548957],[45.803075,39.448188],[45.758633,39.369484],[45.985802,39.24944],[45.955107,39.203241],[45.958104,39.151513],[46.135871,38.863701]]],[[[45.209932,40.967991],[45.186781,40.970834],[45.17717,40.99383],[45.220474,40.97905],[45.209932,40.967991]]],[[[50.618907,40.299994],[50.572765,40.310045],[50.565278,40.337836],[50.606944,40.337836],[50.618907,40.299994]]],[[[50.388438,40.401679],[50.353689,40.399888],[50.358653,40.424221],[50.326427,40.481879],[50.360525,40.474433],[50.395274,40.420396],[50.388438,40.401679]]]]}}]}
