{"type":"FeatureCollection","features":[{"type":"Feature","properties":{"name":"Burkina Faso","ISO3166-1-Alpha-3":"BFA","ISO3166-1-Alpha-2":"BF"},"geometry":{"type":"Polygon","coordinates":[[[2.390169,11.896536],[2.354099,11.799849],[2.301596,11.731533],[2.287436,11.665284],[2.14698,11.56374],[2.010761,11.426901],[1.948025,11.41672],[1.840642,11.445478],[1.601587,11.388686],[1.580606,11.427056],[1.563243,11.426022],[1.56934,11.453307],[1.439633,11.473771],[1.389817,11.428399],[1.398085,11.398685],[1.33907,11.366103],[1.347855,11.303497],[1.330389,11.288847],[1.302483,11.288847],[1.273338,11.318225],[1.28264,11.278873],[1.268377,11.247893],[1.218974,11.268047],[1.172155,11.261484],[1.156342,11.28554],[1.130608,11.247583],[1.158409,11.165935],[1.117482,11.178983],[1.100429,11.15162],[1.062291,11.14206],[1.097018,11.104491],[1.117482,11.032196],[0.981366,11.080126],[0.952427,11.042402],[0.963279,10.974137],[0.901474,10.992741],[0.675338,10.988529],[0.487649,10.933236],[0.499742,10.975688],[0.483619,10.979693],[0.486616,11.003205],[-0.301682,11.162937],[-0.298297,11.128392],[-0.318813,11.101365],[-0.368939,11.065217],[-0.425215,11.101468],[-0.456686,11.029612],[-0.512961,10.989744],[-0.590579,10.982432],[-0.634763,10.907966],[-0.68277,10.953596],[-0.673933,10.983517],[-0.827774,11.005841],[-0.900586,10.966231],[-0.89392,10.979899],[-0.932471,11.003102],[-1.070343,11.013902],[-1.10755,10.994343],[-1.355287,10.99672],[-1.436057,11.022713],[-1.562406,11.026589],[-1.598683,10.997133],[-2.750706,10.985842],[-2.837341,10.998012],[-2.821399,10.90626],[-2.864239,10.864273],[-2.922323,10.721207],[-2.905115,10.692733],[-2.932504,10.634313],[-2.859562,10.465616],[-2.812149,10.428822],[-2.767552,10.4212],[-2.822329,10.387584],[-2.841295,10.343272],[-2.833182,10.305987],[-2.754943,10.260796],[-2.79892,10.169613],[-2.788481,10.038768],[-2.754375,9.966783],[-2.760524,9.870536],[-2.733911,9.822787],[-2.795303,9.720002],[-2.740164,9.650833],[-2.766261,9.576523],[-2.689211,9.488724],[-2.763677,9.391883],[-2.810418,9.411106],[-2.910154,9.542726],[-2.989994,9.708427],[-3.094561,9.733851],[-3.136936,9.82953],[-3.200007,9.845369],[-3.21476,9.915623],[-3.277857,9.843457],[-3.301732,9.841132],[-3.317183,9.901335],[-3.348344,9.886995],[-3.389168,9.913246],[-3.606261,9.918181],[-3.661658,9.948929],[-3.679641,9.932211],[-3.755037,9.93588],[-3.804259,9.901386],[-3.910093,9.888493],[-3.984042,9.851157],[-3.994609,9.820771],[-4.053675,9.79762],[-4.150259,9.818291],[-4.196974,9.764961],[-4.283636,9.732017],[-4.267513,9.727263],[-4.303299,9.686723],[-4.315933,9.616623],[-4.365026,9.624168],[-4.371175,9.582956],[-4.409106,9.647733],[-4.50171,9.655019],[-4.515921,9.67569],[-4.509953,9.745065],[-4.539098,9.744703],[-4.552198,9.696464],[-4.57832,9.696515],[-4.604029,9.727159],[-4.681079,9.682072],[-4.738337,9.753153],[-4.769963,9.737365],[-4.796447,9.754496],[-4.810115,9.781781],[-4.775905,9.788008],[-4.798462,9.842527],[-4.817557,9.836455],[-4.83846,9.86945],[-4.898017,9.888907],[-4.928015,9.870949],[-4.966075,9.901025],[-4.952949,9.953373],[-4.981397,10.007737],[-4.960209,10.008486],[-4.963336,10.040319],[-5.015581,10.097111],[-5.048343,10.085355],[-5.042866,10.103338],[-5.070099,10.110159],[-5.039455,10.134344],[-5.070719,10.161009],[-5.06395,10.179044],[-5.090718,10.177933],[-5.084414,10.227439],[-5.117073,10.208034],[-5.119192,10.293533],[-5.296649,10.32304],[-5.327086,10.302576],[-5.402534,10.300561],[-5.437829,10.340016],[-5.474157,10.350325],[-5.522578,10.425489],[-5.468111,10.58783],[-5.477413,10.61956],[-5.460566,10.644571],[-5.482632,10.684233],[-5.431421,10.844688],[-5.479118,10.975533],[-5.501804,10.97021],[-5.504233,11.072684],[-5.332512,11.12157],[-5.306726,11.199395],[-5.262852,11.251588],[-5.263472,11.390184],[-5.218307,11.422198],[-5.233914,11.575987],[-5.307604,11.617638],[-5.280681,11.699494],[-5.28714,11.758922],[-5.334269,11.790806],[-5.370649,11.791064],[-5.412352,11.82853],[-5.275151,11.837418],[-5.167819,11.943665],[-5.089323,11.97927],[-5.004703,11.980665],[-4.95375,12.005108],[-4.761281,12.006607],[-4.714617,12.059007],[-4.653716,12.069135],[-4.636121,12.117556],[-4.560466,12.149492],[-4.585529,12.197241],[-4.493545,12.272844],[-4.488171,12.320696],[-4.406135,12.307467],[-4.451636,12.435314],[-4.387247,12.533965],[-4.42249,12.597217],[-4.482538,12.646258],[-4.485251,12.714677],[-4.36885,12.738991],[-4.297227,12.712145],[-4.257642,12.72093],[-4.23413,12.74235],[-4.211883,12.819193],[-4.229324,12.948952],[-4.351073,13.106075],[-4.327044,13.168551],[-4.234801,13.175605],[-4.253508,13.22909],[-4.205501,13.272989],[-4.16602,13.278157],[-4.087549,13.397995],[-3.97691,13.460627],[-3.997968,13.480522],[-3.977737,13.499926],[-3.956059,13.46166],[-3.917973,13.451066],[-3.984042,13.39647],[-3.971613,13.386755],[-3.798626,13.347145],[-3.54505,13.174494],[-3.449475,13.16881],[-3.448544,13.265781],[-3.248634,13.292781],[-3.283955,13.542198],[-3.259719,13.658315],[-3.286952,13.69777],[-3.267057,13.717045],[-3.195821,13.674903],[-3.125102,13.67728],[-3.08221,13.646222],[-3.067508,13.606767],[-3.019113,13.637515],[-2.97232,13.624467],[-2.895245,13.651648],[-2.928059,13.799624],[-2.89447,13.866571],[-2.855377,13.996175],[-2.867288,14.000542],[-2.840855,14.042994],[-2.69319,14.123196],[-2.597382,14.222311],[-2.46168,14.280912],[-2.385612,14.264712],[-2.151879,14.15614],[-2.104337,14.151179],[-2.035918,14.181229],[-1.997057,14.470694],[-1.69692,14.496119],[-1.350275,14.714969],[-1.07856,14.796359],[-0.782816,15.048385],[-0.719719,15.078461],[-0.4679,15.079908],[-0.425732,15.0026],[-0.236699,15.065619],[0.218467,14.910977],[0.184102,14.819562],[0.219707,14.731221],[0.152941,14.54671],[0.158832,14.496119],[0.388792,14.251612],[0.339157,14.12578],[0.378457,14.070434],[0.369155,14.039067],[0.456695,13.94685],[0.454809,13.902357],[0.600511,13.768721],[0.58046,13.713789],[0.59431,13.688881],[0.763498,13.682034],[0.775694,13.635293],[0.896927,13.614932],[0.991391,13.541113],[1.015266,13.465665],[1.157169,13.392646],[1.23427,13.377583],[1.268687,13.34606],[1.241505,13.335544],[1.187658,13.364121],[1.160683,13.311307],[0.983536,13.36841],[0.970411,13.328335],[0.983536,13.032358],[1.113968,12.996236],[1.563863,12.63215],[1.843742,12.606105],[1.911438,12.696642],[1.934486,12.693542],[1.971693,12.724237],[2.109049,12.705634],[2.2,12.595925],[2.244958,12.424152],[2.069258,12.383328],[2.051792,12.341935],[2.338079,11.940099],[2.390169,11.896536]]]}}]}
