{"type":"FeatureCollection","features":[{"type":"Feature","properties":{"name":"Benin","ISO3166-1-Alpha-3":"BEN","ISO3166-1-Alpha-2":"BJ"},"geometry":{"type":"Polygon","coordinates":[[[3.5964,11.695773],[3.504933,11.556557],[3.468449,11.419485],[3.662546,11.143145],[3.722077,11.112346],[3.711845,11.051859],[3.754117,10.907139],[3.730035,10.807714],[3.783262,10.71697],[3.82295,10.70325],[3.837419,10.599897],[3.772513,10.407635],[3.652107,10.435798],[3.572422,10.285704],[3.667507,10.146565],[3.654898,10.101116],[3.605805,10.054116],[3.589476,9.948825],[3.513098,9.846609],[3.452946,9.853095],[3.325926,9.801728],[3.314867,9.759095],[3.33161,9.652022],[3.245724,9.633702],[3.243554,9.584403],[3.132553,9.457279],[3.151363,9.288633],[3.076019,9.095157],[2.983104,9.060611],[2.929878,9.078362],[2.846265,9.050767],[2.769164,9.057045],[2.751077,8.803417],[2.723172,8.782928],[2.744773,8.498294],[2.703741,8.417885],[2.697127,8.320708],[2.734437,8.189966],[2.708392,8.13798],[2.671082,7.897917],[2.727203,7.793324],[2.720588,7.586566],[2.792315,7.477633],[2.786527,7.421254],[2.751284,7.423631],[2.741155,7.408179],[2.762136,7.1622],[2.735264,7.096002],[2.779706,7.041328],[2.71511,6.979833],[2.736918,6.863303],[2.723585,6.799715],[2.736298,6.769846],[2.773298,6.755041],[2.778569,6.698765],[2.73113,6.641844],[2.737331,6.558025],[2.703841,6.368352],[1.884532,6.274807],[1.61964,6.213894],[1.612439,6.234763],[1.633109,6.245692],[1.782351,6.277267],[1.74411,6.425733],[1.681685,6.489838],[1.680755,6.530068],[1.653883,6.570659],[1.597349,6.600813],[1.596316,6.636418],[1.566033,6.678146],[1.60107,6.746437],[1.58319,6.808268],[1.590114,6.867334],[1.551357,6.920871],[1.531927,6.991926],[1.625668,6.996783],[1.625564,8.270478],[1.60107,8.371635],[1.644168,8.493488],[1.607581,8.558755],[1.601173,9.049526],[1.567273,9.13673],[1.401185,9.321267],[1.379895,9.462473],[1.326358,9.521952],[1.35602,9.647474],[1.331009,9.996471],[0.768769,10.367094],[0.759881,10.405154],[0.78851,10.563852],[0.781275,10.693044],[0.862924,10.796086],[0.885144,10.869389],[0.875843,10.931169],[0.901474,10.992741],[0.963279,10.974137],[0.952427,11.042402],[0.981366,11.080126],[1.035006,11.049275],[1.097018,11.049275],[1.114174,11.027674],[1.097018,11.104491],[1.062291,11.14206],[1.100429,11.15162],[1.117482,11.178983],[1.158409,11.165935],[1.135568,11.260115],[1.156342,11.28554],[1.172155,11.261484],[1.218974,11.268047],[1.268377,11.247893],[1.28264,11.278873],[1.273338,11.318225],[1.302483,11.288847],[1.330389,11.288847],[1.347855,11.303497],[1.33907,11.366103],[1.398085,11.398685],[1.389817,11.428399],[1.439633,11.473771],[1.56934,11.453307],[1.563243,11.426022],[1.580606,11.427056],[1.601587,11.388686],[1.840642,11.445478],[1.983372,11.414007],[2.14698,11.56374],[2.273587,11.652055],[2.390169,11.896536],[2.380867,11.947902],[2.456728,11.979063],[2.455281,12.008674],[2.405568,12.046708],[2.36123,12.218894],[2.3942,12.247212],[2.477709,12.257599],[2.495072,12.283231],[2.523701,12.269175],[2.586126,12.294031],[2.663847,12.291551],[2.700434,12.347103],[2.844301,12.399244],[2.912618,12.346328],[2.944967,12.292481],[3.009356,12.276306],[3.063409,12.193779],[3.252028,12.024125],[3.307012,11.902375],[3.341635,11.882893],[3.380909,11.895037],[3.495424,11.837521],[3.5964,11.695773]]]}}]}
