{"type":"FeatureCollection","features":[{"type":"Feature","properties":{"name":"Bermuda","ISO3166-1-Alpha-3":"BMU","ISO3166-1-Alpha-2":"BM"},"geometry":{"type":"MultiPolygon","coordinates":[[[[-64.676096,32.388658],[-64.647631,32.368228],[-64.65577,32.350399],[-64.691428,32.363965],[-64.708094,32.351562],[-64.677862,32.334508],[-64.809253,32.256217],[-64.876304,32.257767],[-64.879793,32.30544],[-64.858088,32.297688],[-64.872041,32.276371],[-64.848786,32.270945],[-64.8577,32.254666],[-64.832895,32.259705],[-64.779021,32.291099],[-64.810834,32.307559],[-64.718558,32.323656],[-64.705381,32.336059],[-64.739488,32.328695],[-64.736387,32.34381],[-64.676096,32.388658]]],[[[-64.815454,32.288774],[-64.799951,32.283347],[-64.832508,32.287223],[-64.815454,32.288774]]]]}}]}
