{"type":"FeatureCollection","features":[{"type":"Feature","properties":{"name":"Brunei","ISO3166-1-Alpha-3":"BRN","ISO3166-1-Alpha-2":"BN"},"geometry":{"type":"MultiPolygon","coordinates":[[[[115.146169,4.908515],[115.146801,4.88562],[115.207365,4.825598],[115.272684,4.636772],[115.272478,4.474663],[115.358261,4.350278],[115.346272,4.313769],[115.169952,4.361259],[115.091817,4.405417],[115.079828,4.503964],[115.026808,4.660027],[115.029778,4.820642],[115.048106,4.801825],[115.130219,4.852037],[115.116466,4.896064],[115.146169,4.908515]]],[[[114.9817,4.889065],[114.948363,4.818932],[114.855759,4.806659],[114.741967,4.729454],[114.773903,4.636824],[114.788166,4.461202],[114.806046,4.433322],[114.847904,4.423736],[114.84563,4.395108],[114.828991,4.340486],[114.781965,4.284933],[114.782585,4.264418],[114.813798,4.277104],[114.817208,4.259664],[114.766875,4.131816],[114.627762,4.016681],[114.586628,4.021435],[114.569368,4.064404],[114.477384,4.144968],[114.41992,4.260129],[114.282667,4.264909],[114.289902,4.361311],[114.245564,4.481433],[114.118956,4.561635],[113.99879,4.601142],[114.25172,4.592678],[114.326671,4.606879],[114.529307,4.693793],[114.601817,4.779975],[114.722667,4.876044],[114.928396,5.000556],[115.057791,5.054104],[115.101736,5.049872],[115.057384,5.012641],[114.9817,4.889065]]]]}}]}
