{"type":"FeatureCollection","features":[{"type":"Feature","properties":{"name":"Bolivia","ISO3166-1-Alpha-3":"BOL","ISO3166-1-Alpha-2":"BO"},"geometry":{"type":"Polygon","coordinates":[[[-69.510089,-17.506588],[-69.522599,-17.36912],[-69.597272,-17.300493],[-69.666492,-17.288298],[-69.6228,-17.185565],[-69.510094,-17.112081],[-69.427437,-17.086863],[-69.401263,-17.047175],[-69.413588,-17.022267],[-69.364314,-16.991158],[-69.325945,-16.922222],[-69.224452,-16.818249],[-69.182362,-16.728745],[-69.037073,-16.670247],[-69.008341,-16.634177],[-69.040122,-16.581364],[-69.027875,-16.454137],[-69.001727,-16.422821],[-68.855844,-16.363186],[-68.833494,-16.328976],[-68.843648,-16.302001],[-68.91876,-16.266655],[-68.982038,-16.210017],[-69.053558,-16.208364],[-69.120815,-16.231205],[-69.184868,-16.195031],[-69.219646,-16.15276],[-69.430021,-15.62628],[-69.356408,-15.50143],[-69.343411,-15.442209],[-69.285921,-15.405415],[-69.291166,-15.350845],[-69.222592,-15.302166],[-69.20913,-15.263615],[-69.166135,-15.263925],[-69.1481,-15.233333],[-69.288583,-15.101971],[-69.384313,-14.981772],[-69.370541,-14.801524],[-69.267628,-14.750675],[-69.234658,-14.574251],[-69.170399,-14.577559],[-69.164275,-14.503041],[-68.990254,-14.379018],[-69.01617,-14.32114],[-69.01015,-14.245899],[-68.883724,-14.211483],[-68.864448,-14.191226],[-68.905764,-14.039297],[-68.982968,-13.972221],[-68.992993,-13.869798],[-69.023095,-13.80603],[-69.015964,-13.753113],[-69.101591,-13.666607],[-69.087587,-13.643869],[-69.023844,-13.634981],[-69.023198,-13.596947],[-68.970747,-13.501449],[-68.980953,-12.867947],[-68.926615,-12.800975],[-68.904627,-12.803972],[-68.876566,-12.754983],[-68.766134,-12.710541],[-68.742957,-12.665789],[-68.785332,-12.645945],[-68.793419,-12.62021],[-68.726059,-12.56595],[-68.684252,-12.502492],[-69.577635,-10.952302],[-69.39594,-10.935042],[-69.086889,-10.967185],[-68.996998,-11.001705],[-68.884034,-11.016381],[-68.804659,-10.994677],[-68.757633,-11.011937],[-68.791171,-11.08511],[-68.775926,-11.140611],[-68.61573,-11.112499],[-68.536096,-11.061546],[-68.428196,-11.043666],[-68.378276,-11.005012],[-68.29332,-10.978967],[-68.112091,-10.714074],[-68.043775,-10.666945],[-67.862649,-10.65878],[-67.755782,-10.714177],[-67.721727,-10.705495],[-67.684675,-10.610514],[-67.58463,-10.501787],[-67.468048,-10.452281],[-67.418335,-10.381484],[-67.342836,-10.372492],[-67.323509,-10.318852],[-67.184706,-10.326707],[-67.151736,-10.288983],[-67.0643,-10.256944],[-66.902656,-10.09313],[-66.770623,-9.992567],[-66.660087,-9.945335],[-66.64262,-9.907921],[-66.43271,-9.886114],[-66.190658,-9.800848],[-66.118182,-9.806015],[-66.086995,-9.784518],[-66.029479,-9.808289],[-65.946952,-9.771392],[-65.862461,-9.781831],[-65.834065,-9.758266],[-65.806418,-9.784415],[-65.788564,-9.733048],[-65.772441,-9.768808],[-65.709964,-9.755993],[-65.713116,-9.794233],[-65.678958,-9.789376],[-65.583977,-9.837228],[-65.510777,-9.734082],[-65.45184,-9.681372],[-65.416235,-9.680132],[-65.370501,-9.710621],[-65.29911,-9.841259],[-65.336834,-9.967246],[-65.284822,-10.206818],[-65.327817,-10.314408],[-65.379235,-10.351408],[-65.410938,-10.44918],[-65.44998,-10.468094],[-65.429232,-10.561421],[-65.435691,-10.62581],[-65.386753,-10.669529],[-65.381069,-10.698054],[-65.404737,-10.799236],[-65.327119,-10.850499],[-65.299601,-10.969665],[-65.341976,-11.032814],[-65.341046,-11.106608],[-65.394738,-11.153427],[-65.398148,-11.178025],[-65.360011,-11.218849],[-65.38727,-11.277553],[-65.326447,-11.327783],[-65.354766,-11.382353],[-65.319548,-11.476404],[-65.29247,-11.504723],[-65.257562,-11.495318],[-65.222655,-11.517435],[-65.219244,-11.584511],[-65.167439,-11.615517],[-65.193354,-11.632364],[-65.196197,-11.741814],[-65.151497,-11.77313],[-65.133978,-11.702644],[-65.113411,-11.690551],[-65.113566,-11.722591],[-65.065559,-11.75308],[-65.033674,-11.879791],[-64.998121,-11.908936],[-65.009438,-11.98428],[-64.967606,-12.007948],[-64.7925,-12.032546],[-64.736793,-12.119776],[-64.739532,-12.144581],[-64.716278,-12.146544],[-64.710283,-12.111921],[-64.689923,-12.104376],[-64.688992,-12.153882],[-64.66486,-12.180961],[-64.489392,-12.239459],[-64.468153,-12.272635],[-64.48978,-12.373611],[-64.452521,-12.390354],[-64.395729,-12.457326],[-64.297699,-12.465698],[-64.287544,-12.497117],[-64.215223,-12.473759],[-64.144788,-12.520372],[-64.119828,-12.489676],[-64.104455,-12.507142],[-64.044458,-12.509106],[-64.022832,-12.537838],[-63.972447,-12.523886],[-63.921236,-12.544349],[-63.862893,-12.469212],[-63.801398,-12.454949],[-63.657738,-12.475413],[-63.542189,-12.547967],[-63.485758,-12.557475],[-63.431446,-12.636954],[-63.317913,-12.701963],[-63.235955,-12.698552],[-63.136684,-12.63375],[-63.075034,-12.652663],[-63.04346,-12.719119],[-63.051108,-12.742167],[-63.014728,-12.77772],[-62.988011,-12.843866],[-62.955145,-12.857509],[-62.928893,-12.846036],[-62.865073,-12.93554],[-62.831431,-12.944945],[-62.789832,-13.000652],[-62.770453,-13.010471],[-62.768645,-12.990627],[-62.686634,-12.964996],[-62.651339,-12.992487],[-62.641676,-13.030005],[-62.554601,-13.066798],[-62.472125,-13.068452],[-62.424118,-13.126536],[-62.335028,-13.14514],[-62.211521,-13.120335],[-62.173952,-13.140799],[-62.172454,-13.117855],[-62.114679,-13.150204],[-62.109408,-13.248958],[-62.003265,-13.360475],[-61.872317,-13.456077],[-61.83635,-13.540619],[-61.597114,-13.5061],[-61.503425,-13.548164],[-61.347724,-13.493697],[-61.248556,-13.524393],[-61.149105,-13.519845],[-61.118719,-13.484499],[-61.047225,-13.464552],[-61.022007,-13.535245],[-60.896743,-13.552918],[-60.575135,-13.765619],[-60.472635,-13.797865],[-60.448812,-13.896773],[-60.387188,-13.98328],[-60.419434,-14.076917],[-60.473513,-14.117225],[-60.464341,-14.278352],[-60.391348,-14.357107],[-60.338431,-14.5326],[-60.369204,-14.542832],[-60.291716,-14.630062],[-60.269805,-15.083368],[-60.582241,-15.098871],[-60.246395,-15.478279],[-60.17981,-16.222006],[-60.16069,-16.264794],[-58.464721,-16.33125],[-58.421623,-16.318434],[-58.392943,-16.279367],[-58.349741,-16.2804],[-58.334548,-16.386647],[-58.36359,-16.43667],[-58.342661,-16.473154],[-58.455885,-16.619088],[-58.480276,-16.683683],[-58.452939,-16.841296],[-58.466272,-16.887289],[-58.406275,-17.110117],[-58.399144,-17.237448],[-58.38116,-17.267214],[-58.231557,-17.329742],[-58.204065,-17.377388],[-58.010175,-17.49676],[-57.943564,-17.517844],[-57.836749,-17.511023],[-57.800731,-17.533451],[-57.7859,-17.677525],[-57.724456,-17.736642],[-57.732983,-17.768475],[-57.696809,-17.825112],[-57.698773,-17.843096],[-57.730089,-17.846093],[-57.551082,-18.183643],[-57.474549,-18.208035],[-57.466798,-18.239557],[-57.56674,-18.256094],[-57.782334,-18.910421],[-57.731794,-18.921996],[-57.715826,-19.044573],[-57.789,-19.059249],[-58.124639,-19.729906],[-58.116939,-19.758018],[-57.859745,-19.980123],[-57.895609,-20.024151],[-57.959171,-20.026218],[-58.103555,-20.144041],[-58.158797,-20.165125],[-58.141847,-20.000897],[-58.175282,-19.821373],[-59.089541,-19.286729],[-60.006384,-19.298097],[-61.753203,-19.64588],[-61.94425,-20.104146],[-62.26883,-20.553111],[-62.275703,-21.066568],[-62.650357,-22.234456],[-62.679296,-22.194768],[-62.783476,-22.130896],[-62.801356,-22.013487],[-62.818564,-22.000878],[-63.639392,-21.997468],[-63.693911,-22.01204],[-63.74042,-22.050591],[-63.813129,-22.003049],[-63.933173,-22.001808],[-64.004383,-22.09927],[-64.160549,-22.438474],[-64.250828,-22.54069],[-64.325294,-22.871936],[-64.343897,-22.863668],[-64.359994,-22.803],[-64.355731,-22.751943],[-64.45371,-22.642906],[-64.428285,-22.542344],[-64.531328,-22.425658],[-64.524558,-22.385351],[-64.572023,-22.343183],[-64.542774,-22.275487],[-64.596207,-22.20655],[-65.020368,-22.096583],[-65.457344,-22.101441],[-65.579894,-22.086454],[-65.744613,-22.11405],[-65.804557,-22.085834],[-65.932689,-21.944551],[-66.046532,-21.917989],[-66.094488,-21.83293],[-66.222465,-21.786938],[-66.240009,-21.792415],[-66.307602,-22.077049],[-66.377468,-22.127072],[-66.626755,-22.192598],[-66.64138,-22.212545],[-66.699309,-22.200763],[-66.735896,-22.225051],[-66.790518,-22.388348],[-66.785092,-22.427622],[-66.935315,-22.480539],[-66.978155,-22.5225],[-67.032725,-22.524567],[-67.026628,-22.639392],[-67.113237,-22.710086],[-67.193904,-22.822223],[-67.547113,-22.892503],[-67.77144,-22.888679],[-67.887092,-22.818709],[-67.891329,-22.715667],[-67.859187,-22.547305],[-67.951894,-22.334088],[-67.934789,-22.251716],[-67.976595,-22.159835],[-67.960627,-22.102887],[-68.096226,-21.953956],[-68.107595,-21.789625],[-68.198442,-21.57186],[-68.19374,-21.328464],[-68.207537,-21.284333],[-68.41631,-20.959805],[-68.555113,-20.913916],[-68.57196,-20.872368],[-68.572786,-20.742867],[-68.480957,-20.624735],[-68.685544,-20.516834],[-68.76541,-20.421233],[-68.757685,-20.364286],[-68.678516,-20.328629],[-68.729469,-20.228687],[-68.726265,-20.150965],[-68.789466,-20.125851],[-68.792592,-20.106627],[-68.652885,-20.054227],[-68.588341,-20.055571],[-68.541574,-19.920385],[-68.561108,-19.844317],[-68.698412,-19.746339],[-68.703218,-19.71554],[-68.510206,-19.471627],[-68.447626,-19.434627],[-68.493205,-19.376956],[-68.663324,-19.273603],[-68.698464,-19.215622],[-68.815407,-19.113303],[-68.908502,-19.067931],[-68.989609,-18.946491],[-68.951445,-18.867323],[-69.033844,-18.649455],[-69.034386,-18.478303],[-69.07782,-18.398824],[-69.100351,-18.234286],[-69.155438,-18.140235],[-69.089215,-18.083081],[-69.081722,-18.039983],[-69.092057,-18.023343],[-69.157712,-18.02572],[-69.262047,-17.964019],[-69.302406,-17.976214],[-69.326875,-17.915133],[-69.334239,-17.805785],[-69.497123,-17.621404],[-69.510089,-17.506588]]]}}]}
