{"type":"FeatureCollection","features":[{"type":"Feature","properties":{"name":"Brazil","ISO3166-1-Alpha-3":"BRA","ISO3166-1-Alpha-2":"BR"},"geometry":{"type":"MultiPolygon","coordinates":[[[[-57.602793,-30.190517],[-57.506175,-30.144309],[-57.411452,-30.039612],[-57.325153,-29.981011],[-57.291511,-29.81513],[-57.219629,-29.778336],[-57.112866,-29.766037],[-57.020933,-29.683355],[-56.951635,-29.586307],[-56.819034,-29.474996],[-56.769941,-29.379084],[-56.677027,-29.313352],[-56.656304,-29.223435],[-56.617289,-29.160906],[-56.548301,-29.109953],[-56.427972,-29.069852],[-56.391618,-28.952237],[-56.323069,-28.916477],[-56.301003,-28.88144],[-56.286146,-28.780154],[-56.184705,-28.744188],[-56.103005,-28.648069],[-56.040812,-28.609002],[-56.021899,-28.585748],[-56.011589,-28.496554],[-55.902035,-28.465135],[-55.905601,-28.378008],[-55.842349,-28.346382],[-55.734604,-28.365916],[-55.714967,-28.404467],[-55.694244,-28.400126],[-55.6636,-28.326539],[-55.687216,-28.290055],[-55.766591,-28.257602],[-55.772534,-28.231971],[-55.684064,-28.196211],[-55.604741,-28.116939],[-55.553478,-28.145568],[-55.505935,-28.078905],[-55.440746,-28.078905],[-55.383385,-28.014206],[-55.38093,-27.978239],[-55.33791,-27.96315],[-55.314113,-27.914987],[-55.26024,-27.919225],[-55.177558,-27.853596],[-55.119241,-27.880881],[-55.09994,-27.843777],[-55.029634,-27.850702],[-55.081155,-27.778252],[-54.985192,-27.78528],[-54.913207,-27.736911],[-54.898272,-27.623636],[-54.845097,-27.611854],[-54.827527,-27.545088],[-54.805048,-27.526381],[-54.773939,-27.563794],[-54.690326,-27.551289],[-54.666452,-27.50385],[-54.651233,-27.525864],[-54.625912,-27.515322],[-54.589454,-27.452587],[-54.543255,-27.487003],[-54.448377,-27.458891],[-54.464552,-27.423338],[-54.444553,-27.408972],[-54.388898,-27.411142],[-54.371586,-27.454447],[-54.347712,-27.435844],[-54.347712,-27.394296],[-54.286888,-27.428402],[-54.261257,-27.388715],[-54.231646,-27.38055],[-54.177024,-27.243401],[-54.15594,-27.257663],[-54.158059,-27.279471],[-54.091758,-27.285155],[-54.005148,-27.18821],[-53.961792,-27.191414],[-53.964117,-27.154],[-53.909495,-27.168263],[-53.88221,-27.119894],[-53.842006,-27.163509],[-53.830017,-27.156791],[-53.800923,-27.039072],[-53.76847,-27.024086],[-53.712505,-26.904507],[-53.734002,-26.777383],[-53.752916,-26.773248],[-53.747852,-26.739142],[-53.77431,-26.714337],[-53.739532,-26.67558],[-53.737465,-26.525305],[-53.712918,-26.5005],[-53.724442,-26.376063],[-53.661552,-26.259791],[-53.765008,-26.028074],[-53.833428,-25.962238],[-53.840352,-25.791396],[-53.88345,-25.735586],[-53.876474,-25.697862],[-53.90996,-25.629236],[-53.967735,-25.653213],[-53.997449,-25.574975],[-54.055378,-25.570738],[-54.082715,-25.550067],[-54.09889,-25.597196],[-54.123126,-25.571771],[-54.116408,-25.494567],[-54.165087,-25.534358],[-54.2148,-25.531464],[-54.190253,-25.580763],[-54.243687,-25.577559],[-54.255624,-25.598746],[-54.299239,-25.552651],[-54.349675,-25.582417],[-54.395409,-25.581073],[-54.447344,-25.68918],[-54.473027,-25.625825],[-54.5323,-25.610632],[-54.545632,-25.574769],[-54.600203,-25.574945],[-54.591469,-25.524746],[-54.61245,-25.465525],[-54.597981,-25.397518],[-54.426621,-25.149472],[-54.462278,-25.03723],[-54.407294,-24.821223],[-54.321305,-24.628366],[-54.334534,-24.496695],[-54.262187,-24.358512],[-54.334637,-24.148912],[-54.301048,-24.089898],[-54.245289,-24.050624],[-54.367607,-23.984685],[-54.443158,-23.899935],[-54.639218,-23.804437],[-54.696838,-23.845158],[-54.891916,-23.920606],[-54.943644,-23.969182],[-55.105572,-23.988509],[-55.165439,-24.016827],[-55.367184,-23.989646],[-55.420669,-23.954506],[-55.445319,-23.735449],[-55.466971,-23.673231],[-55.530533,-23.603468],[-55.542471,-23.465802],[-55.513868,-23.379399],[-55.562159,-23.307879],[-55.535236,-23.229124],[-55.560867,-23.145925],[-55.599392,-23.117089],[-55.600684,-23.044535],[-55.637814,-23.000714],[-55.659001,-22.818296],[-55.618332,-22.725692],[-55.62368,-22.638669],[-55.723932,-22.569629],[-55.760235,-22.391965],[-55.86103,-22.289543],[-55.874388,-22.317345],[-55.998567,-22.277244],[-56.214264,-22.275383],[-56.347331,-22.180402],[-56.407637,-22.075809],[-56.5113,-22.091415],[-56.584965,-22.190531],[-56.654703,-22.23735],[-56.648811,-22.263498],[-56.715371,-22.215439],[-56.743534,-22.250372],[-56.808285,-22.247995],[-56.85606,-22.29316],[-56.879547,-22.289956],[-56.90368,-22.236936],[-56.91479,-22.262878],[-56.960524,-22.254816],[-56.964554,-22.234869],[-57.085064,-22.238073],[-57.154155,-22.207997],[-57.199527,-22.212855],[-57.21379,-22.188154],[-57.271667,-22.213785],[-57.384994,-22.213268],[-57.463955,-22.180402],[-57.614075,-22.176991],[-57.663685,-22.100614],[-57.773652,-22.107745],[-57.775409,-22.123971],[-57.843881,-22.143712],[-57.871372,-22.121181],[-57.939999,-22.11839],[-57.986249,-22.074465],[-57.962633,-21.966978],[-57.925374,-21.904967],[-57.955915,-21.85112],[-57.93571,-21.812053],[-57.939017,-21.755312],[-57.895609,-21.688442],[-57.934831,-21.640693],[-57.912093,-21.564006],[-57.939792,-21.548193],[-57.949145,-21.508298],[-57.855559,-21.330738],[-57.90429,-21.274928],[-57.84786,-21.216223],[-57.833959,-21.173849],[-57.852459,-21.037836],[-57.817577,-20.953604],[-57.836026,-20.938514],[-57.847033,-20.955981],[-57.914832,-20.905648],[-57.908683,-20.881567],[-57.85711,-20.849734],[-57.859642,-20.831647],[-57.940412,-20.793613],[-57.86021,-20.730258],[-57.918088,-20.669797],[-57.947182,-20.675068],[-57.95638,-20.709898],[-57.980616,-20.692741],[-57.973123,-20.651193],[-58.01002,-20.500091],[-57.989401,-20.433119],[-58.082987,-20.376171],[-58.09508,-20.272198],[-58.156316,-20.261656],[-58.155283,-20.226413],[-58.118541,-20.214424],[-58.158797,-20.165125],[-58.103555,-20.144041],[-57.959171,-20.026218],[-57.895609,-20.024151],[-57.859745,-19.980123],[-58.116939,-19.758018],[-58.124639,-19.729906],[-57.789,-19.059249],[-57.715826,-19.044573],[-57.731794,-18.921996],[-57.782334,-18.910421],[-57.56674,-18.256094],[-57.466798,-18.239557],[-57.465661,-18.21775],[-57.551082,-18.183643],[-57.730089,-17.846093],[-57.698773,-17.843096],[-57.696809,-17.825112],[-57.732983,-17.768475],[-57.724456,-17.736642],[-57.7859,-17.677525],[-57.800731,-17.533451],[-57.836749,-17.511023],[-57.943564,-17.517844],[-58.010175,-17.49676],[-58.204065,-17.377388],[-58.231557,-17.329742],[-58.38116,-17.267214],[-58.399144,-17.237448],[-58.406275,-17.110117],[-58.466272,-16.887289],[-58.452939,-16.841296],[-58.480276,-16.683683],[-58.455885,-16.619088],[-58.342661,-16.473154],[-58.36359,-16.43667],[-58.334548,-16.386647],[-58.339561,-16.289289],[-58.392943,-16.279367],[-58.421623,-16.318434],[-58.464721,-16.33125],[-60.16069,-16.264794],[-60.17981,-16.222006],[-60.246395,-15.478279],[-60.582241,-15.098871],[-60.269805,-15.083368],[-60.291716,-14.630062],[-60.369204,-14.542832],[-60.338431,-14.5326],[-60.391348,-14.357107],[-60.464341,-14.278352],[-60.473513,-14.117225],[-60.419434,-14.076917],[-60.387188,-13.98328],[-60.448812,-13.896773],[-60.472635,-13.797865],[-60.575135,-13.765619],[-60.896743,-13.552918],[-61.022007,-13.535245],[-61.047225,-13.464552],[-61.118719,-13.484499],[-61.149105,-13.519845],[-61.248556,-13.524393],[-61.347724,-13.493697],[-61.503425,-13.548164],[-61.597114,-13.5061],[-61.83635,-13.540619],[-61.872317,-13.456077],[-62.003265,-13.360475],[-62.109408,-13.248958],[-62.114679,-13.150204],[-62.172454,-13.117855],[-62.173952,-13.140799],[-62.211521,-13.120335],[-62.335028,-13.14514],[-62.424118,-13.126536],[-62.472125,-13.068452],[-62.554601,-13.066798],[-62.641676,-13.030005],[-62.651339,-12.992487],[-62.686634,-12.964996],[-62.768645,-12.990627],[-62.770453,-13.010471],[-62.789832,-13.000652],[-62.831431,-12.944945],[-62.865073,-12.93554],[-62.928893,-12.846036],[-62.955145,-12.857509],[-62.988011,-12.843866],[-63.014728,-12.77772],[-63.051108,-12.742167],[-63.04346,-12.719119],[-63.075034,-12.652663],[-63.136684,-12.63375],[-63.235955,-12.698552],[-63.317913,-12.701963],[-63.431446,-12.636954],[-63.485758,-12.557475],[-63.542189,-12.547967],[-63.657738,-12.475413],[-63.801398,-12.454949],[-63.862893,-12.469212],[-63.921236,-12.544349],[-63.972447,-12.523886],[-64.022832,-12.537838],[-64.044458,-12.509106],[-64.104455,-12.507142],[-64.119828,-12.489676],[-64.144788,-12.520372],[-64.215223,-12.473759],[-64.287544,-12.497117],[-64.297699,-12.465698],[-64.395729,-12.457326],[-64.452521,-12.390354],[-64.48978,-12.373611],[-64.468153,-12.272635],[-64.489392,-12.239459],[-64.66486,-12.180961],[-64.688992,-12.153882],[-64.689923,-12.104376],[-64.710283,-12.111921],[-64.716278,-12.146544],[-64.739532,-12.144581],[-64.736793,-12.119776],[-64.7925,-12.032546],[-64.997449,-11.996269],[-65.016337,-11.968467],[-64.998121,-11.908936],[-65.033674,-11.879791],[-65.065559,-11.75308],[-65.113566,-11.722591],[-65.113411,-11.690551],[-65.133978,-11.702644],[-65.151497,-11.77313],[-65.196197,-11.741814],[-65.193354,-11.632364],[-65.167439,-11.615517],[-65.219244,-11.584511],[-65.222655,-11.517435],[-65.257562,-11.495318],[-65.29247,-11.504723],[-65.319548,-11.476404],[-65.354766,-11.382353],[-65.326447,-11.327783],[-65.38727,-11.277553],[-65.360011,-11.218849],[-65.398148,-11.178025],[-65.394738,-11.153427],[-65.341046,-11.106608],[-65.341976,-11.032814],[-65.299601,-10.969665],[-65.327119,-10.850499],[-65.404737,-10.799236],[-65.381069,-10.698054],[-65.386753,-10.669529],[-65.435691,-10.62581],[-65.429232,-10.561421],[-65.44998,-10.468094],[-65.410938,-10.44918],[-65.379235,-10.351408],[-65.327817,-10.314408],[-65.284822,-10.206818],[-65.336834,-9.967246],[-65.29911,-9.841259],[-65.397993,-9.686746],[-65.45184,-9.681372],[-65.583977,-9.837228],[-65.678958,-9.789376],[-65.713116,-9.794233],[-65.709964,-9.755993],[-65.772441,-9.768808],[-65.788564,-9.733048],[-65.806418,-9.784415],[-65.834065,-9.758266],[-65.862461,-9.781831],[-65.946952,-9.771392],[-66.029479,-9.808289],[-66.086995,-9.784518],[-66.118182,-9.806015],[-66.190658,-9.800848],[-66.43271,-9.886114],[-66.64262,-9.907921],[-66.660087,-9.945335],[-66.770623,-9.992567],[-66.902656,-10.09313],[-67.0643,-10.256944],[-67.151736,-10.288983],[-67.184706,-10.326707],[-67.323509,-10.318852],[-67.342836,-10.372492],[-67.418335,-10.381484],[-67.468048,-10.452281],[-67.58463,-10.501787],[-67.684675,-10.610514],[-67.721727,-10.705495],[-67.755782,-10.714177],[-67.862649,-10.65878],[-68.043775,-10.666945],[-68.112091,-10.714074],[-68.29332,-10.978967],[-68.378276,-11.005012],[-68.428196,-11.043666],[-68.536096,-11.061546],[-68.61573,-11.112499],[-68.775926,-11.140611],[-68.791171,-11.08511],[-68.757633,-11.011937],[-68.804659,-10.994677],[-68.884034,-11.016381],[-68.996998,-11.001705],[-69.086889,-10.967185],[-69.39594,-10.935042],[-69.72021,-10.964911],[-69.808318,-10.927187],[-69.956113,-10.919332],[-70.198734,-11.041185],[-70.2894,-11.06475],[-70.391306,-11.059065],[-70.437272,-11.036741],[-70.534114,-10.938143],[-70.641342,-11.0108],[-70.638448,-9.851801],[-70.615091,-9.792269],[-70.56915,-9.779144],[-70.541865,-9.708244],[-70.600802,-9.635276],[-70.624418,-9.565823],[-70.564525,-9.56541],[-70.576153,-9.529133],[-70.54326,-9.493476],[-70.524993,-9.430948],[-70.606383,-9.448828],[-70.680849,-9.527686],[-70.875488,-9.660494],[-70.997212,-9.803535],[-71.144257,-9.863066],[-71.196502,-9.939857],[-71.2997,-9.993394],[-71.339646,-9.979751],[-71.391426,-10.00683],[-72.195666,-10.00559],[-72.162903,-9.877225],[-72.194736,-9.805809],[-72.265223,-9.762194],[-72.277005,-9.724263],[-72.261657,-9.667419],[-72.304135,-9.60086],[-72.312661,-9.532544],[-72.344546,-9.532854],[-72.409503,-9.486345],[-72.535645,-9.481591],[-72.636518,-9.442937],[-72.813303,-9.410897],[-73.214984,-9.409037],[-73.090237,-9.244189],[-73.034375,-9.222588],[-73.027863,-9.183108],[-72.972001,-9.134428],[-72.959392,-9.085646],[-72.976084,-8.985394],[-73.068636,-8.89372],[-73.174573,-8.720707],[-73.289863,-8.670477],[-73.350583,-8.598337],[-73.356422,-8.479791],[-73.540829,-8.359075],[-73.561733,-8.272672],[-73.60328,-8.211591],[-73.60111,-8.136143],[-73.668031,-8.013773],[-73.784949,-7.940393],[-73.794638,-7.874144],[-73.746114,-7.886443],[-73.713713,-7.866289],[-73.712163,-7.788154],[-73.838796,-7.720561],[-74.018475,-7.543518],[-73.971423,-7.523984],[-73.944319,-7.448743],[-73.982895,-7.356449],[-73.902022,-7.373399],[-73.825851,-7.337432],[-73.741256,-7.334435],[-73.713093,-7.304669],[-73.734539,-7.225088],[-73.812337,-7.102924],[-73.759421,-6.887434],[-73.671958,-6.800721],[-73.370685,-6.583886],[-73.233587,-6.564043],[-73.147804,-6.476193],[-73.126979,-6.39134],[-73.177673,-6.202411],[-73.235293,-6.123656],[-73.234776,-6.077561],[-73.140001,-5.878503],[-73.001353,-5.708798],[-72.97691,-5.651747],[-72.960477,-5.559246],[-72.9735,-5.466125],[-72.896657,-5.271615],[-72.917948,-5.132089],[-72.858933,-5.116069],[-72.853972,-5.092505],[-72.772943,-5.081136],[-72.74757,-5.055091],[-72.644786,-5.060569],[-72.614349,-5.009719],[-72.546446,-4.958249],[-72.495131,-4.946984],[-72.476476,-4.90249],[-72.414671,-4.876342],[-72.386094,-4.79397],[-72.331937,-4.763274],[-72.251063,-4.75883],[-72.108023,-4.664262],[-72.071126,-4.605144],[-72.035521,-4.611862],[-71.907208,-4.518431],[-71.800651,-4.502411],[-71.784838,-4.480501],[-71.74019,-4.49559],[-71.699314,-4.481637],[-71.665207,-4.507579],[-71.613428,-4.47926],[-71.617148,-4.500344],[-71.524596,-4.485151],[-71.506147,-4.448565],[-71.477415,-4.440606],[-71.386982,-4.434922],[-71.363262,-4.45921],[-71.315151,-4.439986],[-71.304609,-4.394924],[-71.264818,-4.375494],[-71.214072,-4.410841],[-71.169682,-4.362782],[-71.128496,-4.401849],[-71.081574,-4.364125],[-71.029329,-4.385829],[-71.005454,-4.347589],[-70.968687,-4.385313],[-70.873705,-4.250747],[-70.842751,-4.238138],[-70.832235,-4.179434],[-70.774254,-4.155042],[-70.694052,-4.172302],[-70.646768,-4.115665],[-70.631059,-4.118972],[-70.632531,-4.166825],[-70.585273,-4.194523],[-70.549694,-4.140676],[-70.515975,-4.182328],[-70.429934,-4.134165],[-70.361437,-4.168168],[-70.330612,-4.143157],[-70.311104,-4.170855],[-70.316711,-4.247026],[-70.231316,-4.303664],[-70.205632,-4.342938],[-70.138892,-4.260462],[-70.096621,-4.265733],[-70.075615,-4.31617],[-70.037038,-4.340871],[-69.971822,-4.290951],[-69.399454,-1.182717],[-69.448159,-1.092077],[-69.442863,-1.008361],[-69.532599,-0.93405],[-69.572725,-0.813541],[-69.628381,-0.733442],[-69.584223,-0.644559],[-69.619751,-0.524566],[-69.649517,-0.49201],[-69.746462,-0.453046],[-69.834777,-0.38318],[-69.858108,-0.341425],[-69.933634,-0.314347],[-70.068044,-0.160144],[-70.054246,0.588131],[-70.039415,0.574591],[-69.805321,0.606941],[-69.694682,0.668746],[-69.619157,0.650659],[-69.594119,0.689313],[-69.47808,0.732825],[-69.362557,0.640944],[-69.302148,0.65655],[-69.297057,0.618103],[-69.226183,0.614796],[-69.200603,0.639497],[-69.162337,0.631435],[-69.137455,0.650142],[-69.192258,0.728949],[-69.167763,0.756027],[-69.175385,0.844446],[-69.152389,0.867803],[-69.209983,0.907543],[-69.204324,0.943664],[-69.288815,1.038439],[-69.354961,1.067068],[-69.418161,1.028621],[-69.478261,1.06066],[-69.619906,1.072752],[-69.716024,1.058593],[-69.728065,1.082984],[-69.762559,1.091097],[-69.852192,1.05942],[-69.856171,1.707675],[-69.541952,1.772709],[-69.352403,1.720206],[-68.163302,1.721291],[-68.188779,1.735838],[-68.193533,1.763744],[-68.238957,1.770281],[-68.24831,1.822112],[-68.280246,1.829398],[-68.192189,2.014891],[-68.1771,1.973188],[-68.111109,1.942415],[-68.031786,1.777515],[-67.998248,1.749972],[-67.928846,1.74129],[-67.820843,1.784001],[-67.59295,2.054811],[-67.424639,2.138114],[-67.340614,2.090106],[-67.264753,1.932545],[-67.117165,1.709793],[-67.073601,1.541199],[-67.098199,1.253361],[-67.086107,1.176002],[-66.875061,1.22251],[-66.407079,0.802071],[-66.346204,0.759386],[-66.285071,0.745847],[-66.208745,0.763107],[-66.134382,0.731119],[-66.079192,0.777576],[-65.974082,0.80698],[-65.891761,0.895605],[-65.74544,0.974154],[-65.596043,0.98361],[-65.535814,0.928472],[-65.517004,0.862791],[-65.587336,0.739129],[-65.585217,0.691483],[-65.542661,0.649315],[-65.497832,0.658721],[-65.413884,0.74161],[-65.400009,0.81654],[-65.327196,0.910281],[-65.203044,0.923821],[-65.178988,0.955395],[-65.136769,1.126909],[-65.022486,1.139983],[-64.966469,1.2006],[-64.897404,1.219668],[-64.839293,1.270828],[-64.730876,1.247574],[-64.604217,1.331289],[-64.551197,1.419527],[-64.40901,1.507506],[-64.364594,1.497093],[-64.394773,1.39219],[-64.389579,1.369297],[-64.352941,1.365835],[-64.301523,1.446657],[-64.092957,1.622615],[-64.036629,1.927274],[-63.958339,1.970708],[-63.783208,1.974997],[-63.617533,2.101165],[-63.411758,2.149379],[-63.372639,2.266839],[-63.361115,2.40001],[-63.384834,2.420577],[-63.831319,2.428638],[-64.047972,2.471323],[-64.057817,2.510442],[-64.012186,2.60377],[-63.997562,2.714926],[-64.105953,2.947211],[-64.222923,3.123996],[-64.216308,3.251431],[-64.245609,3.41894],[-64.19786,3.515084],[-64.202976,3.594717],[-64.324157,3.724115],[-64.434538,3.778478],[-64.531431,3.853513],[-64.642897,3.972963],[-64.727104,4.140782],[-64.813042,4.210571],[-64.791622,4.284417],[-64.74594,4.287621],[-64.69987,4.264159],[-64.58967,4.118871],[-64.364981,4.151867],[-64.240596,4.142022],[-64.1467,4.110551],[-64.108149,4.0581],[-64.063811,3.911597],[-64.037663,3.882503],[-63.996425,3.880798],[-63.87514,3.949812],[-63.771012,3.928805],[-63.671587,3.946246],[-63.622804,3.935213],[-63.510666,3.854546],[-63.46886,3.867233],[-63.4254,3.968364],[-63.35171,3.958726],[-63.251199,3.88656],[-62.997054,3.599135],[-62.889412,3.560817],[-62.786318,3.604406],[-62.749576,3.660372],[-62.740429,3.741943],[-62.788798,3.899401],[-62.766216,4.020712],[-62.670666,4.043656],[-62.560957,4.037791],[-62.536979,4.125408],[-62.483701,4.13918],[-62.462978,4.174708],[-62.428097,4.183182],[-62.153592,4.090294],[-62.035046,4.159876],[-61.88813,4.150161],[-61.831027,4.17693],[-61.756355,4.246357],[-61.552156,4.254961],[-61.522364,4.297775],[-61.501874,4.401851],[-61.333228,4.423865],[-61.29305,4.44805],[-61.315581,4.520785],[-61.168587,4.490244],[-60.977281,4.53497],[-60.895813,4.708525],[-60.71815,4.784283],[-60.612626,4.900581],[-60.59193,4.949725],[-60.664303,5.170254],[-60.739854,5.202138],[-60.613556,5.208934],[-60.448967,5.174233],[-60.419796,5.207228],[-60.333083,5.193767],[-60.273732,5.247355],[-60.213426,5.267225],[-60.176555,5.22715],[-60.131725,5.243402],[-60.075734,5.140824],[-59.983104,5.085944],[-60.032455,4.725423],[-60.087697,4.607523],[-60.161543,4.565201],[-60.159992,4.527787],[-60.120925,4.502362],[-60.087775,4.525539],[-60.055606,4.491587],[-59.984551,4.488797],[-59.953132,4.505876],[-59.914555,4.474353],[-59.87293,4.484689],[-59.863241,4.460659],[-59.809626,4.465749],[-59.68674,4.381181],[-59.693613,4.340692],[-59.738468,4.286587],[-59.724489,4.264056],[-59.738468,4.202768],[-59.726737,4.176465],[-59.646174,4.134038],[-59.663253,4.079726],[-59.595376,3.996372],[-59.59628,3.970637],[-59.536826,3.957692],[-59.527654,3.939528],[-59.581785,3.899195],[-59.602507,3.855683],[-59.598606,3.802405],[-59.671805,3.756232],[-59.686223,3.690215],[-59.862879,3.58172],[-59.821357,3.484388],[-59.841356,3.425399],[-59.824044,3.431678],[-59.82177,3.356592],[-59.84319,3.349022],[-59.916674,3.194173],[-59.91161,3.126425],[-59.969229,3.042709],[-59.993724,2.857294],[-60.00008,2.694049],[-59.906778,2.458766],[-59.913444,2.378719],[-59.741698,2.263791],[-59.735393,2.113516],[-59.752963,2.075456],[-59.737098,2.03042],[-59.764539,1.92053],[-59.758751,1.862136],[-59.646458,1.839966],[-59.680849,1.757387],[-59.639662,1.721756],[-59.572716,1.727157],[-59.530729,1.703075],[-59.416834,1.555281],[-59.380169,1.523345],[-59.33857,1.524637],[-59.259918,1.387436],[-58.966499,1.310154],[-58.927484,1.284212],[-58.897873,1.217808],[-58.834001,1.18582],[-58.771938,1.201271],[-58.69773,1.28106],[-58.580528,1.27274],[-58.556964,1.286899],[-58.51893,1.267262],[-58.481103,1.333873],[-58.513659,1.43888],[-58.38638,1.490194],[-58.390255,1.53076],[-58.320492,1.601221],[-58.260548,1.560319],[-58.18727,1.567606],[-58.148616,1.519082],[-58.027229,1.516859],[-57.986973,1.586829],[-57.985009,1.657704],[-57.922222,1.642485],[-57.758821,1.713462],[-57.63857,1.696177],[-57.561159,1.708967],[-57.464782,1.81573],[-57.429487,1.900299],[-57.319416,1.977141],[-57.238439,1.948539],[-57.104494,2.021454],[-57.05597,1.948073],[-57.011167,1.918566],[-56.921921,1.918101],[-56.890709,1.890196],[-56.806476,1.873582],[-56.737643,1.912985],[-56.683951,1.912107],[-56.639561,1.93686],[-56.574862,1.905466],[-56.481819,1.941614],[-56.415182,1.919703],[-56.347951,1.926602],[-56.273796,1.887509],[-56.209768,1.888542],[-56.019651,1.833507],[-55.953815,1.853273],[-55.922034,1.886217],[-55.918262,2.050393],[-56.03133,2.163487],[-56.072929,2.241518],[-56.146775,2.256194],[-56.10378,2.349057],[-56.050243,2.347041],[-56.013346,2.398821],[-55.996913,2.503259],[-55.971023,2.530338],[-55.853769,2.462642],[-55.773568,2.440059],[-55.724294,2.396909],[-55.608306,2.433961],[-55.399585,2.430189],[-55.37106,2.442539],[-55.354523,2.494888],[-55.32052,2.518297],[-55.25192,2.497885],[-55.171951,2.559328],[-55.137793,2.56217],[-55.120894,2.524808],[-54.959095,2.608989],[-54.978577,2.54305],[-54.880289,2.447345],[-54.841919,2.433496],[-54.743036,2.466517],[-54.703194,2.445847],[-54.704124,2.32482],[-54.588162,2.324355],[-54.526409,2.282652],[-54.545787,2.268596],[-54.476644,2.21413],[-54.373911,2.196508],[-54.314019,2.154857],[-54.188548,2.161316],[-54.134908,2.110673],[-54.098424,2.127959],[-54.076669,2.183692],[-54.027989,2.178576],[-53.963911,2.209324],[-53.932905,2.26963],[-53.901227,2.264514],[-53.764801,2.368694],[-53.737361,2.349057],[-53.742167,2.308542],[-53.531792,2.247047],[-53.462133,2.258985],[-53.37852,2.307561],[-53.344104,2.349625],[-53.234188,2.250975],[-53.272222,2.219969],[-53.268501,2.195733],[-53.113368,2.219349],[-53.061227,2.186276],[-52.959683,2.175217],[-52.906714,2.204983],[-52.862738,2.274229],[-52.690603,2.372983],[-52.590403,2.504706],[-52.551904,2.586562],[-52.575778,2.633742],[-52.542964,2.651519],[-52.455269,2.865046],[-52.409277,2.897344],[-52.422196,2.927471],[-52.351554,3.065964],[-52.355327,3.151592],[-52.279466,3.242491],[-52.227918,3.260112],[-52.012764,3.619108],[-51.988424,3.704555],[-51.940081,3.733959],[-51.93866,3.773569],[-51.83541,3.867543],[-51.783191,3.980947],[-51.631744,4.067816],[-51.585347,4.233818],[-51.559682,4.2237],[-51.436838,3.929511],[-51.435414,3.985907],[-51.498158,4.105414],[-51.546702,4.255032],[-51.560048,4.369371],[-51.547683,4.421785],[-51.516498,4.441122],[-51.38923,4.358902],[-51.224435,4.165043],[-51.18693,4.078849],[-51.180231,3.804444],[-51.197487,3.699521],[-51.176137,3.648342],[-51.136383,3.867743],[-51.116363,3.906195],[-51.093152,3.907229],[-51.079905,3.88227],[-51.092742,3.376329],[-51.036004,3.229214],[-51.040627,3.150937],[-51.016779,3.035572],[-50.944201,2.875178],[-50.94454,2.822201],[-50.902803,2.793755],[-50.852247,2.666133],[-50.818959,2.552395],[-50.839467,2.497463],[-50.791615,2.494574],[-50.76299,2.443562],[-50.712618,2.236803],[-50.67927,2.171698],[-50.703196,2.141303],[-50.737294,2.134467],[-50.792551,2.161811],[-50.764556,2.123969],[-50.779693,2.07095],[-50.751576,2.045111],[-50.734731,2.103827],[-50.702056,2.130316],[-50.659983,2.130683],[-50.619555,2.105238],[-50.509185,1.857164],[-50.466542,1.815416],[-50.393381,1.797797],[-50.330556,1.818061],[-50.164598,1.815634],[-49.950597,1.721326],[-49.910159,1.664263],[-49.900789,1.611651],[-49.873551,1.392304],[-49.883026,1.307714],[-49.912919,1.272327],[-49.975328,1.245033],[-50.102193,1.214744],[-50.149741,1.221209],[-50.120239,1.185215],[-49.921522,1.218481],[-49.887563,1.174872],[-49.938873,1.097235],[-49.978831,1.072211],[-50.014272,1.070868],[-50.031565,1.105943],[-50.060902,1.018866],[-50.106109,0.995307],[-50.1704,0.91649],[-50.261586,0.869818],[-50.312489,0.817206],[-50.353424,0.726711],[-50.453359,0.664049],[-50.608957,0.373928],[-50.790639,0.169501],[-50.928944,0.155422],[-50.979848,0.120429],[-51.08141,-0.032525],[-51.201568,-0.049086],[-51.265452,-0.083429],[-51.326975,-0.079522],[-51.25121,-0.127374],[-51.322499,-0.215265],[-51.388417,-0.373712],[-51.443023,-0.428399],[-51.453603,-0.486749],[-51.52184,-0.538263],[-51.58019,-0.52516],[-51.552846,-0.545587],[-51.587636,-0.558689],[-51.532379,-0.551853],[-51.697499,-0.747166],[-51.713735,-0.793227],[-51.715484,-1.02752],[-51.834096,-1.134698],[-51.929351,-1.178318],[-51.916005,-1.309177],[-51.93456,-1.339532],[-51.995351,-1.396417],[-52.065785,-1.405043],[-52.151357,-1.380955],[-52.195383,-1.344985],[-52.238108,-1.346368],[-52.285471,-1.390069],[-52.421986,-1.430352],[-52.475087,-1.484063],[-52.697418,-1.552423],[-52.708119,-1.60003],[-52.343902,-1.552423],[-52.279124,-1.518243],[-52.250396,-1.54225],[-52.231068,-1.602716],[-52.260243,-1.695245],[-52.203969,-1.690199],[-52.141957,-1.622735],[-51.958648,-1.593357],[-51.669545,-1.401625],[-51.462026,-1.32936],[-51.399648,-1.251072],[-51.326975,-1.23089],[-51.347401,-1.257582],[-51.283437,-1.231378],[-51.187489,-1.121677],[-51.003407,-1.013767],[-50.997304,-0.922459],[-50.976674,-0.92018],[-50.935902,-0.956638],[-50.953277,-0.931329],[-50.942738,-0.908787],[-50.839589,-0.912774],[-50.821685,-0.935317],[-50.82665,-1.045343],[-50.901763,-1.121026],[-50.95641,-1.128513],[-50.819936,-1.231703],[-50.82665,-1.370864],[-50.805531,-1.401625],[-50.819203,-1.436293],[-50.766713,-1.540785],[-50.679555,-1.629002],[-50.654693,-1.73797],[-50.691029,-1.765395],[-50.737294,-1.73797],[-50.709508,-1.790948],[-50.717283,-1.822473],[-50.758328,-1.845397],[-50.787567,-1.89737],[-50.879803,-1.851951],[-50.892734,-1.879235],[-50.853422,-1.908323],[-50.844215,-1.955301],[-50.818607,-1.969007],[-50.818441,-1.924616],[-50.702144,-1.909472],[-50.698588,-1.854062],[-50.660044,-1.803004],[-50.610581,-1.814203],[-50.547231,-1.906915],[-50.466664,-1.92783],[-50.484039,-1.977634],[-50.443023,-1.935968],[-50.457509,-1.983819],[-50.415761,-2.073175],[-50.372841,-1.973728],[-50.312539,-1.908774],[-50.231557,-1.895766],[-50.161936,-1.915623],[-50.154775,-1.882745],[-50.110422,-1.849216],[-49.976918,-1.826104],[-49.869293,-1.888767],[-49.894399,-1.963311],[-49.86026,-1.922459],[-49.850168,-1.98268],[-49.887563,-2.087498],[-49.853424,-2.045831],[-49.812489,-2.108005],[-49.846588,-1.901788],[-49.832346,-1.94964],[-49.810455,-1.900567],[-49.760487,-1.896742],[-49.723704,-1.929132],[-49.721303,-1.904067],[-49.702626,-1.922459],[-49.676096,-1.908624],[-49.604644,-1.967869],[-49.592763,-2.011651],[-49.579416,-1.994317],[-49.592926,-1.964044],[-49.654775,-1.895115],[-49.598012,-1.842706],[-49.563344,-1.835219],[-49.537465,-1.860935],[-49.522369,-1.795994],[-49.485219,-1.76393],[-49.457997,-1.778741],[-49.463002,-1.805759],[-49.422027,-1.778985],[-49.454213,-1.856134],[-49.370432,-1.905043],[-49.394114,-1.983819],[-49.381093,-1.991306],[-49.422027,-2.038995],[-49.430491,-2.141209],[-49.503,-2.258396],[-49.506459,-2.319594],[-49.54894,-2.40309],[-49.545766,-2.516534],[-49.617258,-2.615004],[-49.67691,-2.649102],[-49.688954,-2.669041],[-49.663686,-2.677667],[-49.527415,-2.628351],[-49.5183,-2.580255],[-49.442616,-2.492364],[-49.426829,-2.367283],[-49.331614,-2.204767],[-49.300526,-2.090916],[-49.232004,-1.948175],[-49.145569,-1.856758],[-49.123006,-1.768008],[-49.008864,-1.681124],[-48.965589,-1.599719],[-48.856369,-1.559031],[-48.892851,-1.598252],[-48.911607,-1.67298],[-48.946201,-1.704705],[-48.955599,-1.766329],[-49.033269,-1.846568],[-48.929465,-1.787832],[-48.881418,-1.713474],[-48.890736,-1.686456],[-48.845082,-1.641371],[-48.815338,-1.63836],[-48.656946,-1.38338],[-48.535024,-1.581476],[-48.452626,-1.625665],[-48.428334,-1.662286],[-48.43456,-1.590265],[-48.4829,-1.511407],[-48.428049,-1.524184],[-48.355824,-1.500421],[-48.325307,-1.470473],[-48.496571,-1.461358],[-48.482753,-1.2813],[-48.435903,-1.218688],[-48.425387,-1.297312],[-48.334584,-1.313653],[-48.305043,-1.188246],[-48.281361,-1.167087],[-48.250152,-1.189386],[-48.278147,-1.128513],[-48.22289,-1.113539],[-48.274403,-1.113539],[-48.291737,-1.043634],[-48.187489,-1.01865],[-48.140289,-0.9013],[-48.154042,-0.781834],[-48.037913,-0.661716],[-48.017445,-0.695896],[-48.02359,-0.72324],[-47.962148,-0.781834],[-47.946116,-0.740492],[-47.866238,-0.673505],[-47.802444,-0.690334],[-47.825286,-0.639483],[-47.809071,-0.565167],[-47.775045,-0.599292],[-47.770253,-0.63714],[-47.725168,-0.644138],[-47.715728,-0.712986],[-47.743398,-0.74627],[-47.728668,-0.756524],[-47.610585,-0.693943],[-47.5781,-0.635407],[-47.584514,-0.578247],[-47.53844,-0.61078],[-47.487375,-0.728285],[-47.496693,-0.764744],[-47.408599,-0.771091],[-47.393056,-0.812595],[-47.379384,-0.770929],[-47.393056,-0.747166],[-47.448313,-0.695896],[-47.468739,-0.730645],[-47.470041,-0.62184],[-47.448313,-0.60711],[-47.461903,-0.592869],[-47.430165,-0.580011],[-47.39981,-0.592869],[-47.414133,-0.613946],[-47.407338,-0.681573],[-47.393056,-0.648126],[-47.365712,-0.681573],[-47.373158,-0.633884],[-47.324696,-0.65488],[-47.345204,-0.60711],[-47.294016,-0.592869],[-47.279124,-0.599216],[-47.276357,-0.648126],[-47.250803,-0.647068],[-47.255849,-0.676039],[-47.234486,-0.651056],[-47.242787,-0.620212],[-47.19811,-0.651544],[-47.199941,-0.676935],[-47.22232,-0.669122],[-47.249013,-0.695896],[-47.235951,-0.716404],[-47.208241,-0.699151],[-47.17394,-0.709568],[-47.160878,-0.681573],[-47.158437,-0.728774],[-47.194407,-0.761],[-47.155751,-0.764093],[-47.13976,-0.798923],[-47.139556,-0.741388],[-47.126088,-0.730645],[-47.119293,-0.750584],[-47.098988,-0.665623],[-47.077545,-0.665704],[-47.084543,-0.750584],[-47.071523,-0.743748],[-47.059885,-0.789646],[-47.043568,-0.791436],[-47.078359,-0.826267],[-47.0572,-0.86712],[-47.04776,-0.810724],[-47.029897,-0.785252],[-47.016225,-0.791436],[-47.015248,-0.760024],[-46.984609,-0.7492],[-46.969106,-0.695896],[-46.956858,-0.710138],[-46.969106,-0.785252],[-46.946278,-0.776056],[-46.947377,-0.798923],[-46.92809,-0.798923],[-46.941151,-0.826267],[-46.922231,-0.834568],[-46.963002,-0.865004],[-46.964996,-0.893324],[-46.947377,-0.9013],[-46.949127,-0.861505],[-46.89273,-0.846775],[-46.89273,-0.785252],[-46.872874,-0.812595],[-46.84557,-0.798923],[-46.872874,-0.778416],[-46.819203,-0.711684],[-46.796539,-0.764744],[-46.818227,-0.770929],[-46.831288,-0.805108],[-46.824452,-0.833103],[-46.790354,-0.805108],[-46.799672,-0.865167],[-46.782867,-0.9013],[-46.786366,-0.862726],[-46.776682,-0.846775],[-46.759633,-0.861505],[-46.755523,-0.819431],[-46.714589,-0.877699],[-46.749379,-0.942966],[-46.697865,-0.880792],[-46.68871,-0.825779],[-46.656972,-0.863946],[-46.63268,-0.863214],[-46.655913,-0.80182],[-46.613796,-0.813236],[-46.598541,-0.86712],[-46.626454,-0.908787],[-46.608754,-0.911065],[-46.619008,-0.935479],[-46.64623,-0.945408],[-46.667388,-0.922459],[-46.737457,-0.984308],[-46.749379,-1.01865],[-46.68106,-0.963474],[-46.605055,-0.956564],[-46.581591,-0.970356],[-46.561295,-0.92829],[-46.502948,-0.883844],[-46.427629,-0.86855],[-46.421187,-0.894466],[-46.480327,-0.919491],[-46.488497,-0.976139],[-46.462717,-1.031671],[-46.475006,-1.045343],[-46.435658,-1.023858],[-46.406728,-1.039158],[-46.364898,-1.008396],[-46.356516,-1.075291],[-46.346181,-1.033949],[-46.322662,-1.020278],[-46.324818,-1.107354],[-46.301259,-1.079197],[-46.296864,-1.031671],[-46.248443,-1.093683],[-46.283315,-1.029392],[-46.26415,-1.016697],[-46.278979,-0.986261],[-46.250308,-0.930955],[-46.200307,-0.907647],[-46.171783,-0.920994],[-46.17394,-0.956638],[-46.221181,-1.011163],[-46.198598,-1.010512],[-46.214955,-1.024835],[-46.211497,-1.074802],[-46.262115,-1.183201],[-46.221181,-1.141534],[-46.166493,-1.14837],[-46.139231,-1.113539],[-46.146067,-1.176365],[-46.101674,-1.073337],[-46.064687,-1.147638],[-46.095326,-1.196547],[-46.072377,-1.201593],[-46.050445,-1.162693],[-46.050445,-1.210382],[-46.032216,-1.200779],[-46.015736,-1.093683],[-45.990834,-1.104262],[-45.979454,-1.055084],[-45.96109,-1.107354],[-45.981597,-1.141534],[-45.948069,-1.141534],[-45.998891,-1.151788],[-46.002675,-1.192804],[-45.96109,-1.210382],[-45.948069,-1.251397],[-45.867487,-1.063471],[-45.853869,-1.101172],[-45.905873,-1.17254],[-45.905873,-1.210382],[-45.879221,-1.162693],[-45.872792,-1.202244],[-45.899648,-1.257582],[-45.864858,-1.23089],[-45.885365,-1.284845],[-45.862538,-1.273126],[-45.838206,-1.202895],[-45.820546,-1.262791],[-45.840566,-1.279555],[-45.810902,-1.32643],[-45.809804,-1.275079],[-45.782948,-1.278009],[-45.721588,-1.134942],[-45.701039,-1.134698],[-45.696034,-1.160577],[-45.734527,-1.251397],[-45.688568,-1.202189],[-45.675048,-1.25923],[-45.654118,-1.27438],[-45.651054,-1.317441],[-45.675535,-1.366316],[-45.621571,-1.357192],[-45.61026,-1.275649],[-45.579213,-1.281508],[-45.598012,-1.292413],[-45.58373,-1.32643],[-45.543853,-1.270278],[-45.529693,-1.284845],[-45.549387,-1.289727],[-45.550201,-1.312188],[-45.529693,-1.305922],[-45.550201,-1.353774],[-45.515452,-1.312188],[-45.529693,-1.415785],[-45.471344,-1.350193],[-45.460805,-1.312188],[-45.41983,-1.292413],[-45.447133,-1.292413],[-45.415679,-1.287693],[-45.412994,-1.350193],[-45.468251,-1.367446],[-45.481313,-1.463637],[-45.5183,-1.464532],[-45.542714,-1.490981],[-45.50178,-1.469985],[-45.509267,-1.504571],[-45.464508,-1.500584],[-45.460805,-1.546157],[-45.451039,-1.453709],[-45.423329,-1.428888],[-45.432932,-1.463637],[-45.40274,-1.44256],[-45.35558,-1.349542],[-45.360219,-1.320245],[-45.326161,-1.312921],[-45.296295,-1.415785],[-45.309967,-1.40838],[-45.322377,-1.436782],[-45.391957,-1.484145],[-45.350942,-1.476739],[-45.371449,-1.535333],[-45.40095,-1.560154],[-45.391957,-1.580336],[-45.385732,-1.546157],[-45.340199,-1.583185],[-45.364613,-1.703871],[-45.323638,-1.744806],[-45.284413,-1.732192],[-45.276479,-1.703871],[-45.221262,-1.672784],[-45.25536,-1.607599],[-45.247467,-1.579278],[-45.204172,-1.52516],[-45.179677,-1.525649],[-45.163197,-1.482843],[-45.138661,-1.504571],[-45.091379,-1.464125],[-45.081207,-1.481134],[-45.104563,-1.484145],[-45.078928,-1.483575],[-45.062978,-1.428888],[-45.056752,-1.476739],[-45.006744,-1.490655],[-44.998036,-1.524021],[-45.021962,-1.518243],[-44.967356,-1.546157],[-45.020375,-1.578709],[-45.021962,-1.600844],[-45.008941,-1.582696],[-44.967356,-1.594008],[-44.953847,-1.501723],[-44.868031,-1.421319],[-44.851308,-1.484145],[-44.913075,-1.547947],[-44.912099,-1.600844],[-44.953725,-1.600844],[-44.915273,-1.647231],[-44.933827,-1.65545],[-44.911936,-1.653578],[-44.885365,-1.600844],[-44.847401,-1.64129],[-44.83019,-1.634942],[-44.850697,-1.616143],[-44.837026,-1.566095],[-44.810374,-1.628106],[-44.802887,-1.600844],[-44.791819,-1.618422],[-44.810374,-1.652032],[-44.782379,-1.682794],[-44.802887,-1.703871],[-44.773183,-1.724298],[-44.821929,-1.75921],[-44.773997,-1.740655],[-44.775543,-1.703871],[-44.707875,-1.717462],[-44.720611,-1.749607],[-44.810374,-1.813165],[-44.730458,-1.785821],[-44.707875,-1.813165],[-44.679351,-1.81113],[-44.652699,-1.717462],[-44.598012,-1.744806],[-44.625234,-1.76336],[-44.659535,-1.839776],[-44.621002,-1.826104],[-44.598012,-1.847263],[-44.573232,-1.813165],[-44.570139,-1.860935],[-44.542836,-1.826104],[-44.530181,-1.833754],[-44.521718,-1.847263],[-44.590647,-1.901788],[-44.521718,-1.895115],[-44.488149,-1.987481],[-44.509592,-2.015558],[-44.563303,-2.011651],[-44.617299,-2.038995],[-44.541005,-2.029229],[-44.494374,-2.045831],[-44.6079,-2.153741],[-44.645253,-2.155694],[-44.588612,-2.16546],[-44.655426,-2.231134],[-44.707875,-2.237563],[-44.693593,-2.265558],[-44.751373,-2.252048],[-44.801178,-2.28574],[-44.824045,-2.279229],[-44.804311,-2.291436],[-44.717844,-2.265558],[-44.70051,-2.299737],[-44.665639,-2.270929],[-44.661855,-2.296482],[-44.720937,-2.402114],[-44.663971,-2.356703],[-44.652699,-2.429457],[-44.64977,-2.30877],[-44.631581,-2.271742],[-44.497304,-2.147882],[-44.461659,-2.144627],[-44.398793,-2.197361],[-44.363596,-2.333917],[-44.395375,-2.402114],[-44.473948,-2.402114],[-44.51065,-2.36712],[-44.551422,-2.391046],[-44.570139,-2.416436],[-44.507436,-2.389825],[-44.521596,-2.500095],[-44.565175,-2.521173],[-44.59435,-2.566583],[-44.655995,-2.593194],[-44.659535,-2.608168],[-44.561431,-2.535252],[-44.540395,-2.538263],[-44.631581,-2.696954],[-44.650136,-2.854669],[-44.686147,-2.916681],[-44.693593,-2.994887],[-44.684316,-3.012628],[-44.624745,-3.025974],[-44.622222,-3.051039],[-44.707875,-3.135837],[-44.720937,-3.176853],[-44.781565,-3.196954],[-44.787099,-3.233331],[-44.761301,-3.286065],[-44.79601,-3.300226],[-44.761586,-3.305597],[-44.761301,-3.238214],[-44.742787,-3.207452],[-44.659983,-3.184666],[-44.613596,-3.111993],[-44.573232,-3.101658],[-44.529164,-3.032159],[-44.473948,-3.001723],[-44.432973,-2.950291],[-44.364654,-2.628676],[-44.350982,-2.662774],[-44.368072,-2.549574],[-44.326487,-2.525079],[-44.28893,-2.580255],[-44.292633,-2.481052],[-44.220082,-2.470392],[-44.072987,-2.399509],[-44.034413,-2.415216],[-44.02892,-2.443048],[-44.092152,-2.443455],[-44.097157,-2.45672],[-44.063629,-2.462986],[-44.056223,-2.505141],[-44.0419,-2.470392],[-44.032704,-2.513279],[-44.049387,-2.552911],[-44.12442,-2.594496],[-44.106557,-2.602309],[-44.137196,-2.67018],[-44.179677,-2.690118],[-44.213857,-2.669041],[-44.200185,-2.696954],[-44.3131,-2.76214],[-44.3485,-2.810235],[-44.329945,-2.827325],[-44.312489,-2.778741],[-44.296376,-2.834161],[-44.255442,-2.765313],[-44.220082,-2.793145],[-44.218373,-2.767755],[-44.186513,-2.759047],[-44.174713,-2.807061],[-44.218861,-2.84824],[-44.200185,-2.86891],[-44.151763,-2.834161],[-44.106028,-2.749607],[-44.104604,-2.765313],[-44.082875,-2.752211],[-44.07665,-2.778904],[-44.069814,-2.765313],[-44.082875,-2.806817],[-44.068105,-2.79518],[-44.060374,-2.717706],[-44.022939,-2.648858],[-43.975901,-2.610284],[-43.94636,-2.628676],[-43.958363,-2.600681],[-43.923248,-2.546808],[-43.878041,-2.634942],[-43.879465,-2.571222],[-43.746409,-2.529229],[-43.72411,-2.477227],[-43.706532,-2.513849],[-43.721059,-2.560317],[-43.69929,-2.560317],[-43.693105,-2.539321],[-43.658315,-2.546157],[-43.682444,-2.504653],[-43.644643,-2.477227],[-43.665761,-2.511977],[-43.635732,-2.498305],[-43.61734,-2.525079],[-43.542226,-2.525079],[-43.563059,-2.509535],[-43.539133,-2.491143],[-43.555898,-2.45672],[-43.537343,-2.435968],[-43.494496,-2.546157],[-43.466542,-2.518243],[-43.45287,-2.552911],[-43.444203,-2.530857],[-43.465403,-2.486017],[-43.418772,-2.484633],[-43.459788,-2.443048],[-43.411936,-2.45672],[-43.48705,-2.395278],[-43.467373,-2.345767],[-43.426298,-2.33785],[-43.311766,-2.346467],[-43.199395,-2.379511],[-42.819163,-2.546157],[-42.700022,-2.563572],[-42.580881,-2.672052],[-42.527455,-2.683282],[-42.487131,-2.669041],[-42.489491,-2.69964],[-42.514394,-2.696954],[-42.507639,-2.721856],[-42.452992,-2.752211],[-42.418121,-2.731134],[-42.378407,-2.75628],[-42.264272,-2.759047],[-42.267405,-2.814223],[-42.238637,-2.804783],[-42.23941,-2.834161],[-42.205922,-2.799981],[-42.082387,-2.799981],[-42.082387,-2.827325],[-42.01594,-2.811293],[-41.943918,-2.83766],[-41.940419,-2.773696],[-41.958892,-2.778904],[-42.015314,-2.741134],[-42.010404,-2.727189],[-41.838565,-2.72948],[-41.821265,-2.733567],[-41.842844,-2.765313],[-41.808705,-2.744806],[-41.657826,-2.86891],[-41.68517,-2.854669],[-41.678334,-2.86891],[-41.698842,-2.862074],[-41.686147,-2.875909],[-41.65099,-2.86891],[-41.62328,-2.895603],[-41.516957,-2.906996],[-41.465443,-2.888767],[-41.448557,-2.905938],[-41.451772,-2.943455],[-41.422109,-2.908787],[-41.343088,-2.920343],[-41.337514,-2.954522],[-41.300933,-2.977634],[-41.294749,-2.9638],[-41.244537,-3.015232],[-41.264027,-2.928399],[-41.287262,-2.903009],[-41.315256,-2.903009],[-41.256907,-2.875177],[-41.137766,-2.885837],[-41.082509,-2.916681],[-41.103017,-2.875177],[-40.900014,-2.875177],[-40.848988,-2.859308],[-40.828603,-2.882501],[-40.752919,-2.840997],[-40.581614,-2.827325],[-40.499623,-2.78631],[-40.188059,-2.820489],[-40.143422,-2.848403],[-40.12092,-2.828383],[-39.985707,-2.848403],[-39.860911,-2.915704],[-39.743031,-3.003676],[-39.731842,-3.032159],[-39.704579,-3.039646],[-39.697906,-3.017185],[-39.618886,-3.039646],[-39.485463,-3.145766],[-39.358266,-3.183526],[-39.272572,-3.232029],[-39.165273,-3.322849],[-39.115549,-3.334405],[-39.080556,-3.377048],[-38.985178,-3.395929],[-38.916331,-3.50506],[-38.807485,-3.547296],[-38.659657,-3.676446],[-38.526194,-3.718032],[-38.494374,-3.721287],[-38.477406,-3.697442],[-38.378041,-3.869724],[-38.251332,-3.961847],[-38.029612,-4.2374],[-37.854237,-4.375909],[-37.768625,-4.396417],[-37.710805,-4.515395],[-37.607249,-4.608087],[-37.537343,-4.638116],[-37.488026,-4.629978],[-37.292551,-4.71795],[-37.182932,-4.910903],[-37.134918,-4.93141],[-36.898752,-4.938246],[-36.790883,-5.051202],[-36.544423,-5.127618],[-36.52538,-5.105564],[-36.579986,-5.080987],[-36.422353,-5.080987],[-36.281361,-5.104587],[-36.257232,-5.09588],[-36.291982,-5.089044],[-36.131215,-5.09588],[-35.997182,-5.04754],[-35.510569,-5.143731],[-35.390045,-5.244561],[-35.353505,-5.345798],[-35.262278,-5.483331],[-35.223134,-5.582615],[-35.171539,-5.844334],[-35.105051,-5.995538],[-35.092844,-6.185805],[-35.120717,-6.164727],[-35.150868,-6.215997],[-35.134267,-6.224298],[-35.095937,-6.192071],[-35.038197,-6.236505],[-35.024241,-6.342869],[-34.989166,-6.377618],[-34.972279,-6.433364],[-34.96996,-6.617283],[-34.93517,-6.705987],[-34.942738,-6.766209],[-34.904164,-6.887302],[-34.860097,-6.914646],[-34.894195,-7.082778],[-34.921498,-7.082778],[-34.914662,-7.130548],[-34.859364,-7.071466],[-34.839589,-6.972914],[-34.824208,-7.003351],[-34.827952,-7.13006],[-34.793609,-7.176202],[-34.804799,-7.514093],[-34.819163,-7.548272],[-34.928944,-7.555759],[-34.835386,-7.562727],[-34.805304,-7.622716],[-34.830304,-7.680888],[-34.839589,-7.643813],[-34.845815,-7.671808],[-34.873769,-7.617771],[-34.864368,-7.70523],[-34.907216,-7.733819],[-34.865876,-7.71754],[-34.893525,-7.804927],[-34.848038,-7.822838],[-34.845815,-7.884698],[-34.832753,-7.857354],[-34.811635,-7.93255],[-34.851186,-8.068617],[-34.928944,-8.034926],[-34.887359,-8.103774],[-34.880605,-8.089532],[-34.938873,-8.272068],[-34.938588,-8.347101],[-35.08023,-8.681085],[-35.086008,-8.740655],[-35.127349,-8.806248],[-35.14745,-8.911879],[-35.305084,-9.193048],[-35.392161,-9.305759],[-35.482045,-9.367852],[-35.58259,-9.532892],[-35.657541,-9.577081],[-35.696156,-9.672947],[-35.778066,-9.700128],[-35.746246,-9.641778],[-35.799916,-9.584731],[-35.812164,-9.597833],[-35.794911,-9.679132],[-35.858144,-9.734552],[-35.905426,-9.62477],[-35.941884,-9.599786],[-35.963043,-9.610772],[-35.908437,-9.659275],[-35.873647,-9.755466],[-35.798573,-9.720636],[-35.810618,-9.744806],[-35.86205,-9.794041],[-35.88268,-9.855645],[-35.949371,-9.913181],[-36.036285,-10.064142],[-36.090321,-10.093438],[-36.280507,-10.279962],[-36.291982,-10.351983],[-36.40807,-10.50213],[-36.576568,-10.55047],[-36.903066,-10.772882],[-37.039662,-10.949151],[-37.050445,-10.999607],[-37.138295,-11.125909],[-37.162221,-11.071384],[-37.175689,-11.085707],[-37.200063,-11.04339],[-37.275136,-11.022719],[-37.258412,-11.071384],[-37.19636,-11.091729],[-37.216786,-11.106134],[-37.165639,-11.108819],[-37.149159,-11.187433],[-37.264638,-11.277439],[-37.330068,-11.420668],[-37.388092,-11.426935],[-37.384429,-11.401951],[-37.402455,-11.399672],[-37.358306,-11.315851],[-37.272084,-11.249444],[-37.299387,-11.194757],[-37.305572,-11.242608],[-37.344106,-11.184259],[-37.319203,-11.269952],[-37.347157,-11.249444],[-37.336293,-11.290134],[-37.37975,-11.317153],[-37.415395,-11.406427],[-37.429555,-11.405043],[-37.443349,-11.351251],[-37.451772,-11.370538],[-37.470082,-11.358657],[-37.453725,-11.403578],[-37.395579,-11.437433],[-37.431386,-11.492852],[-37.491851,-11.51629],[-37.415395,-11.503188],[-37.360829,-11.454848],[-37.434722,-11.569268],[-37.654652,-12.049737],[-38.050893,-12.641046],[-38.320424,-12.935235],[-38.48644,-13.013767],[-38.532704,-13.016534],[-38.507924,-12.931817],[-38.486195,-12.915948],[-38.477406,-12.935235],[-38.4912,-12.882013],[-38.475657,-12.851658],[-38.504058,-12.804132],[-38.508901,-12.722914],[-38.62621,-12.702407],[-38.64859,-12.63836],[-38.694569,-12.614028],[-38.690989,-12.571466],[-38.750966,-12.712823],[-38.738149,-12.736586],[-38.80663,-12.835138],[-38.844879,-12.825942],[-38.864003,-12.795099],[-38.882721,-12.722101],[-38.848012,-12.674493],[-38.861684,-12.654067],[-38.923695,-12.736586],[-38.853993,-12.851251],[-38.724477,-12.873224],[-38.786855,-13.008071],[-38.895009,-13.080987],[-38.88976,-13.118422],[-38.806996,-13.143813],[-38.947621,-13.246759],[-38.970855,-13.325616],[-38.954579,-13.372491],[-39.039784,-13.366632],[-39.039784,-13.332452],[-39.062489,-13.399998],[-39.060292,-13.47031],[-39.086008,-13.514093],[-39.084218,-13.57879],[-39.115549,-13.599379],[-39.077382,-13.59002],[-39.0808,-13.541111],[-39.059682,-13.494806],[-39.01183,-13.497003],[-38.992991,-13.541111],[-39.001943,-13.588067],[-38.967844,-13.674005],[-38.992014,-13.733087],[-38.97997,-13.83587],[-39.029897,-13.815362],[-39.091624,-13.71266],[-39.132558,-13.709242],[-39.148752,-13.736912],[-39.115549,-13.723565],[-39.115549,-13.757582],[-39.071604,-13.779555],[-39.032135,-13.84059],[-38.994456,-13.863458],[-39.008778,-13.880548],[-39.067128,-13.867446],[-39.074534,-13.89422],[-39.06371,-13.935805],[-38.996693,-13.98561],[-38.979563,-14.06113],[-39.027903,-14.078302],[-39.054067,-14.059259],[-39.071034,-14.076349],[-39.074534,-14.140558],[-39.039784,-14.175388],[-39.063385,-14.109959],[-38.957265,-14.066095],[-38.971425,-13.986261],[-38.95287,-13.962579],[-38.98998,-13.930841],[-38.963857,-13.897068],[-38.929921,-13.897638],[-38.923695,-14.004083],[-38.989247,-14.212335],[-38.985178,-14.312595],[-39.067128,-14.674981],[-39.033599,-14.79225],[-39.054067,-14.812188],[-39.022694,-14.815851],[-39.00182,-15.232029],[-38.923899,-15.71559],[-38.861684,-15.854262],[-38.944203,-16.066583],[-38.957265,-16.183282],[-39.00536,-16.275079],[-39.006907,-16.359308],[-39.054067,-16.436456],[-39.135976,-16.800226],[-39.121571,-16.892022],[-39.208608,-17.162205],[-39.217356,-17.295099],[-39.186269,-17.452081],[-39.188385,-17.578383],[-39.137115,-17.67962],[-39.258901,-17.820733],[-39.275054,-17.866876],[-39.382395,-17.903253],[-39.450185,-17.948012],[-39.624989,-18.192641],[-39.659413,-18.273614],[-39.72468,-18.518731],[-39.744862,-18.681736],[-39.701405,-19.376153],[-39.786204,-19.601983],[-39.834869,-19.657159],[-39.950999,-19.705173],[-40.026845,-19.764418],[-40.097401,-19.930597],[-40.157053,-19.958917],[-40.131988,-19.971856],[-40.146474,-20.023045],[-40.178619,-20.04339],[-40.165924,-20.10589],[-40.232777,-20.266778],[-40.244374,-20.27752],[-40.266184,-20.260512],[-40.286733,-20.28102],[-40.300404,-20.23268],[-40.369293,-20.23268],[-40.350901,-20.256524],[-40.376129,-20.266778],[-40.365971,-20.323231],[-40.323948,-20.324838],[-40.325392,-20.337532],[-40.28246,-20.314223],[-40.259511,-20.321466],[-40.30248,-20.370864],[-40.348744,-20.500095],[-40.418324,-20.61533],[-40.475331,-20.637791],[-40.583424,-20.801972],[-40.609399,-20.807289],[-40.628438,-20.839218],[-40.652089,-20.808038],[-40.758463,-20.864194],[-40.801109,-20.930996],[-40.814613,-21.036612],[-40.95181,-21.238104],[-40.963503,-21.364503],[-41.05724,-21.483819],[-41.071868,-21.523339],[-41.018544,-21.608087],[-41.024729,-21.71919],[-40.967275,-21.947524],[-40.995269,-22.014255],[-41.243695,-22.145213],[-41.465728,-22.202569],[-41.666493,-22.281834],[-41.770823,-22.354181],[-41.784495,-22.388604],[-41.84968,-22.433038],[-41.911977,-22.507989],[-41.966298,-22.535414],[-41.996205,-22.609308],[-41.993031,-22.699884],[-41.93456,-22.768731],[-41.870107,-22.734063],[-41.869781,-22.75213],[-41.890614,-22.782403],[-41.909576,-22.776625],[-41.989613,-22.826349],[-41.996897,-22.875258],[-42.019928,-22.88128],[-42.03307,-22.91253],[-42.022694,-22.944513],[-42.007314,-22.933282],[-42.002919,-22.947686],[-42.013539,-22.981703],[-42.058217,-22.95379],[-42.531728,-22.934177],[-42.668609,-22.946954],[-42.695668,-22.966892],[-43.031402,-22.974298],[-43.130767,-22.91961],[-43.091908,-22.917087],[-43.126536,-22.88242],[-43.034535,-22.775567],[-43.061431,-22.765802],[-43.025136,-22.735528],[-43.028391,-22.67254],[-43.075551,-22.665704],[-43.103424,-22.693617],[-43.151845,-22.695977],[-43.270172,-22.747003],[-43.271067,-22.788995],[-43.24059,-22.843927],[-43.220123,-22.829685],[-43.199615,-22.857029],[-43.213287,-22.864435],[-43.162099,-22.895685],[-43.152211,-22.951104],[-43.170766,-22.969822],[-43.220123,-22.995294],[-43.447581,-23.018162],[-43.560374,-23.067478],[-43.620758,-23.042576],[-44.003733,-23.091078],[-44.001454,-23.049249],[-43.905385,-23.055597],[-43.891713,-23.021417],[-43.832021,-23.047621],[-43.751129,-23.049412],[-43.603749,-23.007745],[-43.706695,-22.974298],[-43.734039,-22.939548],[-43.802968,-22.929864],[-43.80899,-22.909763],[-43.864369,-22.905938],[-43.850168,-22.892267],[-44.004709,-22.939548],[-44.030751,-22.971368],[-44.049387,-22.974298],[-44.039174,-22.944106],[-44.056223,-22.939548],[-44.115102,-23.022393],[-44.186391,-23.049005],[-44.196929,-23.033624],[-44.242991,-23.042576],[-44.250478,-22.996189],[-44.298736,-23.012872],[-44.302602,-22.995294],[-44.329945,-23.015232],[-44.352651,-22.999282],[-44.311838,-22.970147],[-44.325917,-22.921645],[-44.357818,-22.91961],[-44.37149,-22.961196],[-44.411366,-22.937433],[-44.435658,-22.996759],[-44.604237,-23.055597],[-44.598012,-23.03574],[-44.6551,-23.043145],[-44.70051,-23.10768],[-44.707997,-23.214614],[-44.645253,-23.186619],[-44.62678,-23.195245],[-44.680002,-23.24863],[-44.624745,-23.234959],[-44.651357,-23.284763],[-44.600575,-23.234308],[-44.556508,-23.227472],[-44.576324,-23.24863],[-44.510569,-23.27337],[-44.50121,-23.296482],[-44.523793,-23.290704],[-44.583811,-23.353204],[-44.674428,-23.338067],[-44.826975,-23.385431],[-44.868031,-23.357843],[-44.898508,-23.364679],[-44.891998,-23.340997],[-44.919301,-23.34881],[-44.981028,-23.399347],[-45.04308,-23.405532],[-45.050771,-23.428155],[-45.008372,-23.46087],[-45.05016,-23.473321],[-45.070424,-23.515395],[-45.091786,-23.491876],[-45.09024,-23.515395],[-45.147776,-23.4874],[-45.145497,-23.529067],[-45.200347,-23.523696],[-45.213735,-23.542739],[-45.200673,-23.572035],[-45.251943,-23.59059],[-45.28954,-23.570082],[-45.367787,-23.616632],[-45.412994,-23.617852],[-45.433502,-23.664727],[-45.423085,-23.710626],[-45.399403,-23.72088],[-45.393056,-23.783461],[-45.426666,-23.830743],[-45.509267,-23.837579],[-45.574086,-23.796645],[-45.618479,-23.802911],[-45.717519,-23.770766],[-45.864369,-23.756443],[-45.989003,-23.789809],[-46.026926,-23.828546],[-46.146067,-23.844415],[-46.179596,-23.890313],[-46.235422,-23.912693],[-46.197377,-23.915704],[-46.145497,-23.870782],[-46.111928,-23.864923],[-46.159739,-23.92018],[-46.166493,-23.981622],[-46.186635,-23.995375],[-46.221099,-23.981703],[-46.287668,-24.021173],[-46.317372,-24.016371],[-46.276357,-23.981622],[-46.299469,-23.925063],[-46.385406,-23.873468],[-46.40982,-23.933852],[-46.453928,-23.926446],[-46.412953,-23.981622],[-46.37682,-23.985121],[-46.376047,-24.024509],[-46.406728,-24.008966],[-46.593414,-24.089532],[-46.936635,-24.27337],[-46.988922,-24.33115],[-47.01537,-24.422947],[-47.049794,-24.42783],[-47.051015,-24.406183],[-47.072092,-24.4485],[-47.181386,-24.53338],[-47.442047,-24.680434],[-47.531321,-24.688165],[-47.63386,-24.755629],[-47.825551,-24.894138],[-47.960561,-25.0499],[-48.009999,-25.044203],[-47.962148,-25.023126],[-47.972727,-25.009373],[-48.016916,-25.010837],[-48.034901,-25.048761],[-48.051584,-25.036798],[-48.03246,-25.063246],[-47.949696,-25.080011],[-47.887074,-25.057306],[-47.951772,-25.201349],[-48.020009,-25.226332],[-48.091542,-25.325291],[-48.168284,-25.369236],[-48.209055,-25.457615],[-48.250152,-25.42783],[-48.222157,-25.339125],[-48.127309,-25.279962],[-48.140289,-25.269627],[-48.250152,-25.318048],[-48.284332,-25.289972],[-48.297434,-25.341241],[-48.332753,-25.358331],[-48.325307,-25.228611],[-48.372629,-25.27158],[-48.35261,-25.29339],[-48.367421,-25.304783],[-48.43456,-25.242283],[-48.43456,-25.262791],[-48.455678,-25.248468],[-48.428334,-25.324151],[-48.496571,-25.338474],[-48.445668,-25.347426],[-48.43456,-25.358331],[-48.457428,-25.379653],[-48.43456,-25.37949],[-48.414052,-25.410089],[-48.472727,-25.475681],[-48.517079,-25.447035],[-48.575063,-25.462009],[-48.635365,-25.444594],[-48.743031,-25.352146],[-48.718821,-25.422621],[-48.683583,-25.46266],[-48.72936,-25.468194],[-48.710846,-25.496352],[-48.620107,-25.496189],[-48.654286,-25.516534],[-48.606435,-25.543878],[-48.524037,-25.514825],[-48.469309,-25.543878],[-48.503407,-25.571873],[-48.482493,-25.579848],[-48.455678,-25.550714],[-48.386708,-25.543878],[-48.361195,-25.570977],[-48.432729,-25.622491],[-48.541005,-25.845473],[-48.586008,-25.81756],[-48.578521,-25.797133],[-48.620107,-25.81756],[-48.583241,-25.854669],[-48.651235,-25.844496],[-48.769439,-25.867364],[-48.765777,-25.886651],[-48.563466,-25.865818],[-48.558583,-25.901788],[-48.61266,-26.040623],[-48.582631,-26.157159],[-48.592519,-26.183852],[-48.634918,-26.194513],[-48.667877,-26.236017],[-48.733795,-26.224705],[-48.796457,-26.068455],[-48.756215,-26.249444],[-48.77774,-26.263279],[-48.757314,-26.291192],[-48.798248,-26.304864],[-48.737701,-26.319106],[-48.721791,-26.344822],[-48.650787,-26.37656],[-48.635854,-26.418552],[-48.6079,-26.4367],[-48.664459,-26.556085],[-48.683339,-26.662367],[-48.678944,-26.731052],[-48.626943,-26.770929],[-48.577952,-26.776544],[-48.628774,-26.864841],[-48.620107,-26.982599],[-48.575185,-27.016209],[-48.607167,-27.104425],[-48.579498,-27.158461],[-48.551381,-27.158136],[-48.516225,-27.120782],[-48.476145,-27.153985],[-48.496571,-27.175063],[-48.492909,-27.215997],[-48.524566,-27.221287],[-48.512603,-27.198175],[-48.54186,-27.182387],[-48.619985,-27.246677],[-48.609853,-27.305352],[-48.560943,-27.324965],[-48.551869,-27.387302],[-48.565541,-27.367446],[-48.581939,-27.416681],[-48.636952,-27.446954],[-48.64745,-27.479587],[-48.609853,-27.558689],[-48.579091,-27.576349],[-48.586008,-27.613214],[-48.594553,-27.60117],[-48.64745,-27.647393],[-48.606435,-27.750421],[-48.629221,-27.767511],[-48.572336,-27.825453],[-48.588246,-27.853611],[-48.565541,-27.860284],[-48.606435,-27.932306],[-48.616567,-27.990818],[-48.598988,-28.041599],[-48.653717,-28.190199],[-48.635894,-28.230157],[-48.688385,-28.278009],[-48.696401,-28.342055],[-48.731068,-28.384454],[-48.76122,-28.4874],[-48.780873,-28.487481],[-48.803456,-28.452325],[-48.79483,-28.370538],[-48.850575,-28.323663],[-48.874013,-28.346287],[-48.859731,-28.39129],[-48.874013,-28.418878],[-48.839223,-28.428888],[-48.854888,-28.475274],[-48.789174,-28.521417],[-48.749867,-28.511407],[-48.756093,-28.528416],[-48.815338,-28.610447],[-48.940582,-28.64544],[-49.342763,-28.923517],[-49.552317,-29.127374],[-49.810658,-29.443129],[-49.997426,-29.764581],[-50.045318,-29.814548],[-50.315663,-30.461521],[-50.721425,-31.044529],[-51.151845,-31.481541],[-51.563344,-31.777439],[-51.863515,-31.931736],[-52.077382,-32.16725],[-52.084462,-32.146905],[-52.035756,-32.027927],[-52.05663,-31.988377],[-52.012196,-31.950616],[-52.087961,-31.858575],[-52.08727,-31.827813],[-52.048451,-31.808282],[-51.92276,-31.868748],[-51.836334,-31.854913],[-51.81371,-31.828383],[-51.834096,-31.80047],[-51.704498,-31.792739],[-51.666168,-31.769708],[-51.512563,-31.615981],[-51.498687,-31.574884],[-51.447621,-31.612726],[-51.46349,-31.557224],[-51.422515,-31.485121],[-51.413482,-31.517836],[-51.377797,-31.526951],[-51.244985,-31.464044],[-51.179596,-31.358982],[-51.158559,-31.286391],[-51.154775,-31.212091],[-51.176137,-31.149347],[-51.161855,-31.077732],[-51.013987,-31.062758],[-51.003163,-31.132908],[-50.975942,-31.130955],[-50.935902,-31.087823],[-50.98766,-31.045587],[-50.95641,-30.922784],[-50.978424,-30.893324],[-50.913889,-30.893324],[-50.819569,-30.831313],[-50.760121,-30.815118],[-50.692616,-30.726495],[-50.679433,-30.641697],[-50.689524,-30.464044],[-50.725657,-30.363051],[-50.689931,-30.353204],[-50.645131,-30.392185],[-50.649892,-30.438572],[-50.607533,-30.485121],[-50.565012,-30.450128],[-50.572825,-30.409438],[-50.537262,-30.320408],[-50.539866,-30.267511],[-50.614817,-30.186212],[-50.675852,-30.217706],[-50.653432,-30.25156],[-50.671986,-30.288995],[-50.779124,-30.293227],[-50.799387,-30.3235],[-50.912994,-30.316664],[-50.932851,-30.380629],[-50.915395,-30.436212],[-50.936391,-30.431573],[-51.034088,-30.375665],[-51.040273,-30.34352],[-51.011627,-30.296157],[-51.023101,-30.263767],[-51.052602,-30.265395],[-51.057607,-30.241876],[-51.079457,-30.237888],[-51.122548,-30.256036],[-51.176137,-30.224542],[-51.180491,-30.200372],[-51.233022,-30.189874],[-51.217112,-30.156345],[-51.25121,-30.107843],[-51.237538,-30.039646],[-51.259348,-30.046808],[-51.262074,-30.013767],[-51.283518,-30.00742],[-51.306467,-30.070245],[-51.292144,-30.083917],[-51.306467,-30.186944],[-51.326975,-30.224542],[-51.28246,-30.221368],[-51.264882,-30.244887],[-51.292144,-30.271661],[-51.237538,-30.313246],[-51.204091,-30.285333],[-51.187734,-30.360121],[-51.090647,-30.351983],[-51.114817,-30.401056],[-51.200429,-30.399835],[-51.250478,-30.462335],[-51.290191,-30.624444],[-51.269683,-30.781834],[-51.297678,-30.795343],[-51.313954,-30.773207],[-51.289459,-30.767348],[-51.291168,-30.739923],[-51.322499,-30.642185],[-51.377105,-30.642267],[-51.381581,-30.7763],[-51.361887,-30.879164],[-51.455434,-30.889418],[-51.485707,-30.967055],[-51.470815,-31.053318],[-51.443023,-31.080987],[-51.623606,-31.135349],[-51.650868,-31.205499],[-51.637522,-31.256524],[-51.818959,-31.272231],[-51.856923,-31.311212],[-51.92276,-31.306899],[-51.963531,-31.332289],[-51.94286,-31.359308],[-51.998525,-31.409356],[-52.00475,-31.539727],[-51.984853,-31.573907],[-52.007924,-31.646173],[-52.040151,-31.570245],[-52.083323,-31.558689],[-52.089955,-31.606134],[-52.046295,-31.608087],[-52.041249,-31.622654],[-52.063344,-31.66546],[-52.218617,-31.740655],[-52.210194,-31.80047],[-52.248443,-31.861993],[-52.235707,-31.879653],[-52.210194,-31.868748],[-52.13386,-31.930841],[-52.23766,-31.966404],[-52.258616,-32.053643],[-52.211171,-32.056736],[-52.238108,-32.080987],[-52.213979,-32.086114],[-52.154408,-32.065118],[-52.124094,-32.029474],[-52.08141,-32.031996],[-52.168935,-32.100681],[-52.139719,-32.119073],[-52.08727,-32.067315],[-52.101552,-32.122654],[-52.091176,-32.166111],[-52.253407,-32.282485],[-52.375315,-32.498712],[-52.470855,-32.800958],[-52.644887,-33.136977],[-52.819488,-33.322524],[-53.266347,-33.67669],[-53.379095,-33.740676],[-53.411283,-33.74228],[-53.456707,-33.687503],[-53.511535,-33.690294],[-53.539647,-33.649263],[-53.514016,-33.394911],[-53.536857,-33.170842],[-53.48332,-33.067283],[-53.327309,-32.973645],[-53.298835,-32.889102],[-53.126856,-32.754847],[-53.110836,-32.722394],[-53.201477,-32.637232],[-53.415624,-32.564161],[-53.5613,-32.449543],[-53.643879,-32.355595],[-53.658555,-32.254309],[-53.721445,-32.162428],[-53.757308,-32.055045],[-53.858077,-32.021197],[-53.905826,-31.959288],[-54.008714,-31.926526],[-54.049745,-31.887148],[-54.088451,-31.878156],[-54.146277,-31.909886],[-54.274228,-31.823379],[-54.463725,-31.671864],[-54.495041,-31.565617],[-54.604543,-31.459784],[-54.849903,-31.425057],[-54.969637,-31.340825],[-55.029375,-31.268788],[-55.087253,-31.326769],[-55.244349,-31.244603],[-55.2937,-31.153653],[-55.338039,-31.125644],[-55.368579,-31.037381],[-55.591873,-30.848348],[-55.649673,-30.860958],[-55.652748,-30.938989],[-55.731891,-30.945397],[-55.763594,-31.008442],[-55.854596,-31.074588],[-56.011357,-31.082133],[-56.015517,-30.934338],[-55.988955,-30.85579],[-56.011357,-30.798222],[-56.076857,-30.752334],[-56.215091,-30.581905],[-56.385985,-30.475761],[-56.424639,-30.423568],[-56.575017,-30.302439],[-56.631345,-30.284662],[-56.641783,-30.233916],[-56.831281,-30.102037],[-57.077106,-30.106068],[-57.129557,-30.149993],[-57.183714,-30.267505],[-57.245054,-30.293344],[-57.270376,-30.275154],[-57.296472,-30.293344],[-57.353833,-30.27195],[-57.399257,-30.299131],[-57.44313,-30.269469],[-57.535992,-30.27443],[-57.567463,-30.256343],[-57.602793,-30.190517]]],[[[-38.944203,-13.394627],[-38.906239,-13.388849],[-38.896352,-13.453546],[-38.934397,-13.556248],[-38.893275,-13.639286],[-38.902013,-13.671812],[-38.949489,-13.658024],[-38.979056,-13.599695],[-38.967844,-13.498305],[-39.045888,-13.458185],[-39.032582,-13.392511],[-38.944203,-13.394627]]],[[[-38.614613,-12.924981],[-38.587473,-12.986912],[-38.786529,-13.133884],[-38.791249,-13.058364],[-38.66926,-12.961847],[-38.697133,-12.880548],[-38.640777,-12.892755],[-38.614613,-12.924981]]],[[[-44.497792,-2.806817],[-44.514882,-2.834161],[-44.480784,-2.793145],[-44.497304,-2.949314],[-44.538197,-2.969985],[-44.598012,-3.060154],[-44.603424,-3.022149],[-44.563303,-2.919854],[-44.585683,-2.84588],[-44.576324,-2.799981],[-44.547678,-2.744073],[-44.480784,-2.70436],[-44.497792,-2.806817]]],[[[-42.041412,-2.70436],[-42.027821,-2.744806],[-42.085194,-2.758722],[-42.102895,-2.744806],[-42.082387,-2.738539],[-42.105336,-2.724298],[-42.102895,-2.70436],[-42.186025,-2.676446],[-42.091379,-2.678399],[-42.041412,-2.70436]]],[[[-43.627309,-2.252048],[-43.607021,-2.256329],[-43.599993,-2.283722],[-43.626299,-2.316304],[-43.634805,-2.399895],[-43.7329,-2.419875],[-43.736608,-2.334071],[-43.715403,-2.289239],[-43.627309,-2.252048]]],[[[-49.287953,-1.758477],[-49.28189,-1.785821],[-49.367421,-1.895115],[-49.442494,-1.867771],[-49.452992,-1.850193],[-49.411488,-1.775567],[-49.352162,-1.722426],[-49.319,-1.717462],[-49.287953,-1.758477]]],[[[-44.892242,-1.271905],[-44.876454,-1.296157],[-44.885365,-1.32643],[-44.919545,-1.305922],[-44.898508,-1.332696],[-44.934682,-1.366632],[-44.961171,-1.367446],[-44.963857,-1.390558],[-45.01891,-1.377699],[-45.021962,-1.323419],[-45.003285,-1.317478],[-44.995269,-1.353774],[-44.974355,-1.260349],[-44.892242,-1.271905]]],[[[-48.338979,-1.066502],[-48.297353,-1.128513],[-48.334096,-1.205011],[-48.379872,-1.217218],[-48.393544,-1.189386],[-48.402333,-1.202895],[-48.462066,-1.164483],[-48.421498,-1.079522],[-48.338979,-1.066502]]],[[[-48.194936,-0.819431],[-48.155873,-0.866306],[-48.181264,-0.86712],[-48.156728,-0.887791],[-48.201894,-1.011489],[-48.237701,-1.027927],[-48.307118,-1.020685],[-48.312652,-0.953302],[-48.24356,-0.841729],[-48.194936,-0.819431]]],[[[-47.948557,-0.64129],[-47.914622,-0.641697],[-47.887074,-0.669122],[-47.962148,-0.730645],[-47.982655,-0.676039],[-47.969065,-0.633884],[-47.948557,-0.64129]]],[[[-50.819203,-0.620212],[-50.813059,-0.669122],[-50.843129,-0.715997],[-50.934316,-0.731703],[-50.976186,-0.769789],[-51.100413,-0.826267],[-51.108022,-0.755955],[-51.066274,-0.676039],[-51.03893,-0.681573],[-50.95641,-0.60711],[-50.860829,-0.565606],[-50.87442,-0.613946],[-50.840932,-0.558689],[-50.819203,-0.620212]]],[[[-47.660512,-0.579197],[-47.640777,-0.608494],[-47.643422,-0.692966],[-47.701527,-0.709568],[-47.71562,-0.636555],[-47.751536,-0.62225],[-47.761379,-0.575771],[-47.734682,-0.54173],[-47.703752,-0.577714],[-47.660512,-0.579197]]],[[[-51.186025,-0.613946],[-51.162913,-0.620538],[-51.149973,-0.658949],[-51.230702,-0.839288],[-51.275624,-1.02516],[-51.310292,-1.00213],[-51.331451,-1.009942],[-51.434804,-1.1867],[-51.740834,-1.420017],[-51.892486,-1.483657],[-51.930287,-1.470798],[-51.954091,-1.422459],[-51.902943,-1.340102],[-51.884267,-1.25628],[-51.796498,-1.189386],[-51.781606,-1.153904],[-51.683949,-1.096938],[-51.668365,-1.05755],[-51.690053,-1.01865],[-51.675771,-0.846775],[-51.534047,-0.634698],[-51.424794,-0.553806],[-51.347401,-0.531996],[-51.381581,-0.65488],[-51.347401,-0.613946],[-51.353668,-0.580173],[-51.299631,-0.592869],[-51.329213,-0.53867],[-51.308339,-0.518731],[-51.237538,-0.538263],[-51.186025,-0.613946]]],[[[-51.165273,-0.140313],[-51.120269,-0.14544],[-51.166737,-0.305597],[-51.278554,-0.401056],[-51.3756,-0.460545],[-51.4051,-0.459649],[-51.402008,-0.435724],[-51.330434,-0.366143],[-51.264272,-0.219496],[-51.165273,-0.140313]]],[[[-48.462514,-0.576104],[-48.496571,-0.676039],[-48.496571,-0.743748],[-48.572336,-0.681573],[-48.523549,-0.77337],[-48.537506,-0.798923],[-48.527659,-0.872654],[-48.560129,-0.914321],[-48.633168,-0.949151],[-48.630727,-0.968927],[-48.664784,-1.001235],[-48.628774,-1.009698],[-48.654286,-1.045343],[-48.628285,-1.047784],[-48.642812,-1.083591],[-48.818715,-1.202895],[-48.921132,-1.141534],[-48.84203,-1.213311],[-48.844553,-1.249282],[-48.867177,-1.251397],[-48.796254,-1.268487],[-48.832997,-1.415785],[-48.942209,-1.295831],[-48.990061,-1.292413],[-48.946034,-1.309015],[-48.983266,-1.332696],[-48.990061,-1.374282],[-48.945058,-1.346368],[-48.921132,-1.387872],[-48.839223,-1.449965],[-48.887563,-1.466729],[-48.91808,-1.504571],[-48.944447,-1.490981],[-48.956166,-1.508722],[-49.065785,-1.531915],[-49.10676,-1.504571],[-49.151438,-1.401625],[-49.197743,-1.38836],[-49.209096,-1.394708],[-49.184397,-1.453383],[-49.204091,-1.529067],[-49.181874,-1.566095],[-49.229604,-1.5735],[-49.195465,-1.600844],[-49.168202,-1.586602],[-49.222768,-1.621189],[-49.293729,-1.617531],[-49.353179,-1.5735],[-49.394114,-1.528904],[-49.387318,-1.484145],[-49.414631,-1.541702],[-49.354233,-1.614408],[-49.358306,-1.637587],[-49.443025,-1.635422],[-49.483332,-1.602074],[-49.496571,-1.497735],[-49.531321,-1.497735],[-49.507558,-1.522638],[-49.503977,-1.586602],[-49.524403,-1.580336],[-49.514068,-1.608087],[-49.556549,-1.64544],[-49.54426,-1.698337],[-49.558705,-1.724216],[-49.603261,-1.717462],[-49.669057,-1.772149],[-49.688344,-1.769301],[-49.751047,-1.641778],[-49.744211,-1.580336],[-49.764027,-1.645196],[-49.729644,-1.752618],[-49.776438,-1.807224],[-49.823557,-1.816583],[-49.925404,-1.761651],[-50.002309,-1.745538],[-50.032338,-1.71559],[-50.028188,-1.65545],[-50.054799,-1.664727],[-50.059885,-1.717869],[-50.155019,-1.778985],[-50.224517,-1.739028],[-50.23766,-1.62127],[-50.278554,-1.597426],[-50.249623,-1.563084],[-50.258168,-1.484145],[-50.276845,-1.514581],[-50.258168,-1.559828],[-50.292226,-1.597426],[-50.242584,-1.641534],[-50.264963,-1.744806],[-50.306508,-1.65545],[-50.284779,-1.75506],[-50.316558,-1.778497],[-50.366689,-1.772149],[-50.296986,-1.803481],[-50.405181,-1.830987],[-50.559722,-1.799493],[-50.603871,-1.772149],[-50.600087,-1.749282],[-50.566558,-1.730564],[-50.58788,-1.684503],[-50.74234,-1.531183],[-50.803212,-1.434991],[-50.785715,-1.394708],[-50.813059,-1.336358],[-50.778228,-1.17254],[-50.805816,-1.102309],[-50.792551,-1.086196],[-50.559722,-1.183201],[-50.616689,-1.119887],[-50.539296,-1.107354],[-50.522206,-1.086602],[-50.552358,-1.073337],[-50.545522,-1.05283],[-50.476633,-1.039158],[-50.528472,-1.025323],[-50.663808,-1.094903],[-50.755767,-1.082208],[-50.792551,-1.01865],[-50.798166,-0.91131],[-50.778228,-0.819431],[-50.757639,-0.806817],[-50.737294,-0.826267],[-50.74059,-0.802016],[-50.787343,-0.763279],[-50.779897,-0.660577],[-50.737294,-0.551853],[-50.684071,-0.639825],[-50.607533,-0.676039],[-50.548451,-0.67783],[-50.560374,-0.659275],[-50.682688,-0.623793],[-50.723622,-0.479913],[-50.69636,-0.36004],[-50.654693,-0.263849],[-50.583363,-0.192153],[-50.466664,-0.154555],[-50.411488,-0.164483],[-50.368153,-0.105645],[-50.095774,-0.132257],[-49.653472,-0.241143],[-49.459584,-0.223403],[-49.387318,-0.257582],[-49.408437,-0.217462],[-49.38683,-0.184747],[-49.326487,-0.154555],[-49.206044,-0.140313],[-49.120351,-0.162042],[-49.010607,-0.159889],[-48.979605,-0.186191],[-48.893612,-0.152886],[-48.880489,-0.163647],[-48.891957,-0.215916],[-48.816518,-0.207615],[-48.702016,-0.237237],[-48.623525,-0.223403],[-48.427235,-0.259942],[-48.368886,-0.297947],[-48.369781,-0.36061],[-48.454701,-0.48561],[-48.462514,-0.576104]]],[[[-50.973744,-0.291192],[-51.012807,-0.273614],[-51.038686,-0.200291],[-51.00475,-0.188735],[-51.032786,-0.168227],[-50.947266,-0.011974],[-50.766004,0.046367],[-50.655263,-0.023777],[-50.628896,-0.104099],[-50.675852,-0.154555],[-50.781239,-0.210056],[-50.923411,-0.330499],[-50.964955,-0.314223],[-50.973744,-0.291192]]],[[[-49.832346,-0.103123],[-49.823476,-0.070367],[-49.740468,-0.000339],[-49.628082,0.057603],[-49.496571,0.085598],[-49.4829,0.063788],[-49.442047,0.07567],[-49.391265,0.051093],[-49.370513,-0.000339],[-49.347524,-0.009698],[-49.359975,-0.058445],[-49.381093,-0.052179],[-49.463368,-0.128025],[-49.716217,-0.147719],[-49.832346,-0.103123]]],[[[-50.634267,0.071275],[-50.648549,0.150458],[-50.610585,0.183417],[-50.490224,0.159362],[-50.446497,0.125851],[-50.437729,-0.000033],[-50.487457,-0.017429],[-50.559722,-0.003839],[-50.634267,0.071275]]],[[[-50.090784,0.305945],[-50.220461,0.246212],[-50.199371,0.28852],[-50.113324,0.338182],[-50.093321,0.339013],[-50.090784,0.305945]]],[[[-50.036888,0.299741],[-49.859554,0.301224],[-49.650227,0.386373],[-49.560157,0.385757],[-49.530356,0.35378],[-49.52895,0.300815],[-49.692372,0.205024],[-49.764027,0.133368],[-49.829701,0.011298],[-49.867055,-0.010675],[-50.004506,-0.052789],[-50.097279,0.030911],[-50.190094,0.041327],[-50.297597,0.01203],[-50.345123,0.047431],[-50.340077,0.133368],[-50.366689,0.091783],[-50.383656,0.129869],[-50.377797,0.208319],[-50.254416,0.229771],[-50.107289,0.222154],[-50.036888,0.299741]]],[[[-50.378021,0.24499],[-50.413975,0.226343],[-50.41902,0.167944],[-50.493153,0.185492],[-50.516754,0.208645],[-50.505971,0.266181],[-50.470367,0.269924],[-50.432525,0.413967],[-50.408315,0.420722],[-50.430776,0.548],[-50.366689,0.61994],[-50.34732,0.571275],[-50.353098,0.400214],[-50.31697,0.308751],[-50.349919,0.252736],[-50.378021,0.24499]]],[[[-50.312123,0.413967],[-50.315053,0.49726],[-50.258168,0.585191],[-50.167592,0.605414],[-50.120351,0.571601],[-50.134023,0.612494],[-50.065663,0.647284],[-50.031361,0.584866],[-50.02477,0.541164],[-50.042714,0.510321],[-50.249595,0.361016],[-50.281446,0.356552],[-50.312123,0.413967]]],[[[-50.202416,0.749692],[-50.275274,0.745622],[-50.283364,0.769186],[-50.274952,0.809114],[-50.225476,0.8592],[-50.111666,0.918253],[-50.015723,0.892493],[-50.103383,0.755683],[-50.202416,0.749692]]],[[[-50.062585,0.923252],[-50.099347,0.938643],[-50.100317,0.959063],[-49.92638,1.069857],[-49.916208,1.056563],[-49.964019,0.973822],[-50.062585,0.923252]]],[[[-50.454358,2.110941],[-50.399578,2.115108],[-50.314027,1.968266],[-50.338951,1.912668],[-50.419119,1.862978],[-50.458608,1.881008],[-50.497632,1.98456],[-50.523813,2.001482],[-50.50423,2.095692],[-50.454358,2.110941]]],[[[-50.543521,2.146197],[-50.553523,2.156309],[-50.513631,2.187286],[-50.463348,2.186938],[-50.415158,2.126931],[-50.497932,2.107398],[-50.543521,2.146197]]],[[[-29.338246,-20.584161],[-29.344309,-20.550958],[-29.316884,-20.56878],[-29.338246,-20.584161]]],[[[-28.88329,-20.518731],[-28.881418,-20.512384],[-28.877838,-20.514255],[-28.88329,-20.518731]]],[[[-48.43456,-27.404718],[-48.426584,-27.38893],[-48.379872,-27.435724],[-48.414052,-27.534112],[-48.407216,-27.579197],[-48.496571,-27.702732],[-48.486073,-27.774347],[-48.563791,-27.817315],[-48.544423,-27.681573],[-48.559071,-27.674493],[-48.523915,-27.633722],[-48.547109,-27.577244],[-48.504262,-27.55641],[-48.537506,-27.47617],[-48.517079,-27.428318],[-48.43456,-27.404718]]],[[[-48.544423,-26.341892],[-48.575429,-26.376235],[-48.583241,-26.421075],[-48.611318,-26.412774],[-48.643137,-26.359063],[-48.703277,-26.311944],[-48.630035,-26.239679],[-48.558095,-26.205499],[-48.565541,-26.181329],[-48.547597,-26.16725],[-48.516347,-26.184015],[-48.489125,-26.236017],[-48.544423,-26.341892]]],[[[-47.517161,-24.700942],[-47.448313,-24.6867],[-47.822743,-24.941664],[-47.900136,-25.036798],[-47.879628,-24.964776],[-47.831858,-24.913263],[-47.517161,-24.700942]]],[[[-46.327952,-23.926446],[-46.29186,-23.990899],[-46.341379,-23.969903],[-46.399892,-23.974786],[-46.4204,-23.947442],[-46.393666,-23.947442],[-46.393666,-23.92018],[-46.327952,-23.926446]]],[[[-45.213735,-23.906508],[-45.226471,-23.909275],[-45.218251,-23.949477],[-45.241689,-23.96795],[-45.290435,-23.911879],[-45.421864,-23.935235],[-45.452952,-23.891371],[-45.355377,-23.800063],[-45.308461,-23.721368],[-45.228098,-23.772393],[-45.234853,-23.844415],[-45.265736,-23.839288],[-45.271108,-23.86891],[-45.254994,-23.898207],[-45.221262,-23.892267],[-45.213735,-23.906508]]],[[[-44.100901,-23.149021],[-44.082265,-23.169529],[-44.107737,-23.17962],[-44.15925,-23.165785],[-44.2412,-23.193455],[-44.292633,-23.172784],[-44.327707,-23.221287],[-44.337392,-23.17962],[-44.367096,-23.165216],[-44.270863,-23.115167],[-44.235097,-23.06878],[-44.186513,-23.090997],[-44.207021,-23.104587],[-44.186513,-23.117608],[-44.141835,-23.13128],[-44.113026,-23.114679],[-44.100901,-23.149021]]],[[[-32.403391,-3.837823],[-32.386586,-3.841241],[-32.399729,-3.861993],[-32.462799,-3.878351],[-32.403391,-3.837823]]],[[[-29.40803,0.884833],[-29.356191,0.882758],[-29.349029,0.852607],[-29.369374,0.833564],[-29.410268,0.834866],[-29.426381,0.858547],[-29.40803,0.884833]]],[[[-48.322324,-25.383708],[-48.255379,-25.348212],[-48.268162,-25.426864],[-48.255883,-25.465745],[-48.291107,-25.489117],[-48.323867,-25.467522],[-48.339525,-25.425535],[-48.322324,-25.383708]]],[[[-34.85275,-7.697379],[-34.830196,-7.703828],[-34.822331,-7.738797],[-34.845373,-7.813504],[-34.884229,-7.804026],[-34.85275,-7.697379]]],[[[-42.228703,-2.693311],[-42.105776,-2.772749],[-42.249767,-2.736441],[-42.258436,-2.69621],[-42.250775,-2.681833],[-42.228703,-2.693311]]],[[[-43.832879,-2.454079],[-43.848708,-2.42398],[-43.823499,-2.40771],[-43.808182,-2.421034],[-43.813622,-2.454573],[-43.775106,-2.428925],[-43.756834,-2.447669],[-43.770658,-2.496004],[-43.809175,-2.512778],[-43.838326,-2.507358],[-43.832879,-2.454079]]],[[[-43.564764,-2.361293],[-43.542039,-2.371153],[-43.573656,-2.423468],[-43.611692,-2.385001],[-43.564764,-2.361293]]],[[[-49.479514,-1.655372],[-49.422844,-1.674181],[-49.424018,-1.696843],[-49.508609,-1.744872],[-49.529545,-1.717057],[-49.525482,-1.672855],[-49.479514,-1.655372]]]]}}]}
