{"type":"FeatureCollection","features":[{"type":"Feature","properties":{"name":"The Bahamas","ISO3166-1-Alpha-3":"BHS","ISO3166-1-Alpha-2":"BS"},"geometry":{"type":"MultiPolygon","coordinates":[[[[-72.999572,21.451708],[-73.053046,21.424904],[-73.076234,21.506796],[-72.991526,21.561998],[-72.910438,21.50485],[-72.933429,21.473452],[-72.999572,21.451708]]],[[[-73.13915,22.363349],[-73.166005,22.374213],[-73.131703,22.45954],[-73.106068,22.433498],[-73.039906,22.439032],[-72.963735,22.39765],[-72.939931,22.396877],[-72.953603,22.418606],[-72.820465,22.383775],[-72.746165,22.331285],[-72.779449,22.288235],[-72.897572,22.36225],[-72.988352,22.370185],[-73.07372,22.342231],[-73.13915,22.363349]]],[[[-73.468736,22.587662],[-73.558853,22.611723],[-73.501186,22.61093],[-73.468736,22.587662]]],[[[-73.647071,21.061555],[-73.667833,21.115223],[-73.633445,21.099702],[-73.552887,21.130204],[-73.514604,21.186867],[-73.433339,21.193264],[-73.389882,21.233303],[-73.343834,21.165413],[-73.255152,21.13506],[-73.160961,21.169863],[-73.053049,21.329291],[-73.033762,21.340399],[-73.004628,21.314439],[-73.03393,21.156731],[-73.097594,21.0814],[-73.129821,20.993663],[-73.225564,20.952463],[-73.26891,20.958726],[-73.317291,20.937649],[-73.310658,20.950507],[-73.346922,20.963827],[-73.398957,20.935761],[-73.492614,20.924457],[-73.600819,20.946519],[-73.651612,20.913781],[-73.676141,20.935162],[-73.703209,21.019766],[-73.653335,21.039886],[-73.647071,21.061555]]],[[[-74.283762,22.67182],[-74.317535,22.602484],[-74.385569,22.541449],[-74.376698,22.584377],[-74.283762,22.67182]]],[[[-73.995717,22.657538],[-74.016225,22.684882],[-73.97525,22.67182],[-73.934316,22.698472],[-73.954742,22.720201],[-73.851715,22.733303],[-73.879709,22.67182],[-73.899526,22.698472],[-73.858632,22.657172],[-73.831207,22.541449],[-73.848378,22.537584],[-73.865387,22.480048],[-74.013783,22.330064],[-74.119374,22.296861],[-74.194163,22.216864],[-74.276967,22.171536],[-74.27245,22.225735],[-74.222524,22.225531],[-74.183909,22.254096],[-74.193715,22.273912],[-74.167063,22.288235],[-74.181304,22.301907],[-74.103342,22.332424],[-74.079172,22.35517],[-74.083852,22.390611],[-74.013336,22.405829],[-73.986928,22.457506],[-73.880198,22.502916],[-73.885894,22.575588],[-74.031239,22.623684],[-73.995717,22.657538]]],[[[-74.286855,22.733303],[-74.351959,22.822659],[-74.344553,22.836249],[-74.310414,22.843166],[-74.228505,22.815823],[-74.167063,22.746894],[-74.090688,22.733303],[-74.098134,22.746894],[-74.016225,22.720201],[-74.090688,22.657538],[-74.104075,22.6883],[-74.148427,22.677802],[-74.222279,22.695624],[-74.248931,22.720201],[-74.27831,22.693183],[-74.286855,22.733303]]],[[[-73.666168,23.089545],[-73.797353,23.073798],[-73.816965,23.103827],[-73.666168,23.089545]]],[[[-75.653554,23.459459],[-75.576975,23.445868],[-75.523834,23.404853],[-75.637318,23.435492],[-75.653554,23.459459]]],[[[-75.798207,23.538642],[-75.744944,23.482733],[-75.661041,23.452623],[-75.675364,23.438544],[-75.793772,23.470526],[-75.812734,23.47956],[-75.804433,23.500434],[-75.859242,23.537543],[-75.873362,23.528388],[-75.945465,23.588039],[-76.03718,23.596625],[-76.003041,23.614],[-76.031484,23.668524],[-75.98998,23.685981],[-75.957183,23.654853],[-75.90807,23.645006],[-75.921742,23.631415],[-75.856313,23.567288],[-75.798207,23.538642]]],[[[-74.85912,22.980292],[-74.833404,22.91413],[-74.839955,22.859931],[-74.865346,22.904527],[-74.878977,22.897773],[-74.924428,23.011705],[-74.978017,23.072943],[-75.104888,23.099555],[-75.229644,23.171454],[-75.201731,23.206244],[-75.15331,23.165229],[-75.187408,23.171454],[-75.170277,23.14997],[-75.068471,23.116645],[-75.139638,23.202826],[-75.112945,23.281317],[-75.131663,23.35578],[-75.146474,23.370754],[-75.160756,23.357001],[-75.194895,23.432115],[-75.226877,23.447252],[-75.276845,23.582953],[-75.311594,23.576809],[-75.310455,23.63939],[-75.33141,23.623969],[-75.311594,23.645006],[-75.35261,23.623969],[-75.33141,23.685981],[-75.194895,23.514106],[-75.182729,23.446438],[-75.094065,23.305325],[-75.059967,23.141669],[-74.909657,23.067328],[-74.844838,23.000149],[-74.85912,22.980292]]],[[[-74.900054,23.706488],[-74.812367,23.719672],[-74.777211,23.699652],[-74.793691,23.671332],[-74.824941,23.664944],[-74.818715,23.651068],[-74.872792,23.672349],[-74.94164,23.658677],[-74.938629,23.694322],[-74.900054,23.706488]]],[[[-76.325185,23.974026],[-76.401479,24.117377],[-76.37678,24.101386],[-76.325185,23.974026]]],[[[-74.468658,24.021796],[-74.492299,23.960395],[-74.558095,23.953559],[-74.529652,24.011054],[-74.529693,24.100409],[-74.464833,24.143948],[-74.427113,24.083238],[-74.475494,23.980211],[-74.468658,24.021796]]],[[[-77.880686,24.186265],[-77.962554,24.152167],[-77.976226,24.186835],[-77.850006,24.251451],[-77.798695,24.254584],[-77.853912,24.234687],[-77.880686,24.186265]]],[[[-77.92162,24.26203],[-77.942616,24.253119],[-77.935862,24.22724],[-77.990468,24.22724],[-78.016916,24.24844],[-77.9322,24.275702],[-77.92162,24.26203]]],[[[-76.463002,24.213609],[-76.493153,24.218817],[-76.544911,24.295559],[-76.463002,24.213609]]],[[[-77.524973,23.933051],[-77.517486,23.864163],[-77.534576,23.828559],[-77.572743,23.829413],[-77.545481,23.788398],[-77.565907,23.740668],[-77.59732,23.730618],[-77.668324,23.761135],[-77.651112,23.741929],[-77.668324,23.72016],[-77.714589,23.748725],[-77.778188,23.746812],[-77.744049,23.761135],[-77.749094,23.778266],[-77.67516,23.761135],[-77.658925,23.79206],[-77.576161,23.847113],[-77.594065,23.853461],[-77.696278,23.782213],[-77.720204,23.784817],[-77.764556,23.823188],[-77.665598,23.863471],[-77.660878,23.88467],[-77.694814,23.864691],[-77.798695,23.856676],[-77.833485,24.021796],[-77.866526,24.047553],[-77.860097,24.06273],[-77.942047,24.096869],[-77.909088,24.105292],[-77.911,24.13581],[-77.853912,24.165839],[-77.83967,24.206732],[-77.79247,24.213609],[-77.755727,24.259263],[-77.67516,24.302965],[-77.631215,24.249091],[-77.702463,24.190253],[-77.757721,24.172593],[-77.732533,24.15705],[-77.758534,24.140774],[-77.70226,24.112738],[-77.744049,24.035468],[-77.709584,24.043687],[-77.647857,24.137885],[-77.63915,24.206488],[-77.607533,24.218248],[-77.549469,24.125922],[-77.545481,24.004381],[-77.524973,23.970364],[-77.545481,23.942694],[-77.597076,23.930365],[-77.600697,23.905097],[-77.524973,23.933051]]],[[[-77.76769,24.326606],[-77.786855,24.314602],[-77.804433,24.327216],[-77.719228,24.371731],[-77.682444,24.352769],[-77.690338,24.338446],[-77.737538,24.349677],[-77.76769,24.326606]]],[[[-75.314687,24.217353],[-75.290435,24.144721],[-75.379872,24.158393],[-75.483144,24.125718],[-75.509918,24.142076],[-75.521311,24.162584],[-75.414662,24.213121],[-75.410064,24.272895],[-75.48058,24.309394],[-75.58849,24.512641],[-75.647369,24.528957],[-75.65274,24.588365],[-75.756581,24.660305],[-75.732167,24.698635],[-75.626332,24.645006],[-75.61262,24.562445],[-75.532216,24.444892],[-75.314687,24.217353]]],[[[-77.47997,24.99136],[-77.561879,25.018866],[-77.52717,25.054389],[-77.456044,25.076972],[-77.339996,25.083808],[-77.263824,25.058092],[-77.379506,25.001532],[-77.435618,25.014879],[-77.47997,24.99136]]],[[[-78.353586,24.659247],[-78.327463,24.710639],[-78.311431,24.71011],[-78.293324,24.65884],[-78.333119,24.60399],[-78.326324,24.585395],[-78.277252,24.601264],[-78.271637,24.631334],[-78.252187,24.622789],[-78.254262,24.566148],[-78.237701,24.556871],[-78.230702,24.610826],[-78.196523,24.60399],[-78.264027,24.739325],[-78.278472,24.734361],[-78.264801,24.672309],[-78.304067,24.728217],[-78.292144,24.775336],[-78.239613,24.826361],[-78.243723,24.85102],[-78.208119,24.861802],[-78.17394,24.919623],[-78.189687,24.946682],[-78.157704,25.00019],[-78.214345,25.184638],[-78.202748,25.206732],[-78.149566,25.19953],[-78.090443,25.159491],[-78.045155,25.183092],[-77.976877,25.138414],[-77.994293,25.10517],[-77.96996,25.076972],[-77.98058,25.001899],[-77.934193,24.976223],[-77.829172,24.778225],[-77.737213,24.700181],[-77.75357,24.602037],[-77.718739,24.499823],[-77.751088,24.458482],[-77.86384,24.415432],[-77.87206,24.373765],[-78.012766,24.314154],[-78.027455,24.272854],[-78.05191,24.288723],[-78.080149,24.379462],[-78.134145,24.403957],[-78.134429,24.501614],[-78.180043,24.464911],[-78.22643,24.465481],[-78.351633,24.530463],[-78.430531,24.601793],[-78.442983,24.624498],[-78.389801,24.646715],[-78.378407,24.66942],[-78.353586,24.659247]]],[[[-76.161285,25.165717],[-76.112904,25.114895],[-76.126576,25.005316],[-76.157948,24.962144],[-76.136952,24.902167],[-76.146148,24.834215],[-76.174957,24.785875],[-76.161285,24.645006],[-76.194488,24.658393],[-76.23644,24.754828],[-76.336334,24.814927],[-76.21935,24.810045],[-76.182444,24.848782],[-76.175771,24.894517],[-76.205963,24.864081],[-76.210927,24.901028],[-76.196604,24.963446],[-76.154449,25.005316],[-76.147043,25.083808],[-76.164947,25.129828],[-76.263743,25.193671],[-76.371571,25.322496],[-76.489613,25.351304],[-76.630523,25.433254],[-76.712758,25.446926],[-76.784495,25.426418],[-76.745513,25.489244],[-76.736684,25.563625],[-76.675201,25.556789],[-76.688873,25.48786],[-76.673166,25.506659],[-76.64391,25.467353],[-76.460927,25.35456],[-76.351633,25.338609],[-76.161285,25.165717]]],[[[-77.819203,25.707587],[-77.880483,25.768988],[-77.880686,25.789537],[-77.819203,25.707587]]],[[[-77.537994,26.306586],[-77.572743,26.268704],[-77.579579,26.337592],[-77.537994,26.306586]]],[[[-78.590077,26.5362],[-78.686132,26.491911],[-78.766839,26.508104],[-78.997874,26.701321],[-78.835805,26.614569],[-78.80606,26.577826],[-78.714289,26.57052],[-78.637979,26.609731],[-78.573633,26.684159],[-78.641591,26.714993],[-78.607411,26.755927],[-78.593821,26.810533],[-78.520257,26.728995],[-78.319984,26.686527],[-78.287082,26.685492],[-78.25293,26.712942],[-78.202641,26.697159],[-77.971669,26.72956],[-77.915395,26.776435],[-77.920806,26.716946],[-77.90217,26.662421],[-77.929067,26.639228],[-77.975413,26.66177],[-78.293386,26.6213],[-78.521474,26.57038],[-78.590077,26.5362]]],[[[-77.812367,26.906806],[-77.962554,26.893052],[-77.868153,26.928412],[-77.629791,26.904202],[-77.606842,26.920396],[-77.511301,26.869534],[-77.327952,26.709133],[-77.2506,26.68769],[-77.305247,26.674018],[-77.269887,26.625067],[-77.155263,26.58808],[-77.049794,26.516343],[-77.058827,26.423245],[-77.017201,26.385972],[-77.031565,26.355292],[-77.01476,26.31566],[-77.058827,26.290432],[-77.051991,26.309638],[-77.084462,26.306138],[-77.164947,26.245429],[-77.192209,26.068996],[-77.190745,25.916327],[-77.226674,25.885077],[-77.253041,25.89761],[-77.315053,25.990953],[-77.388173,26.005439],[-77.408274,26.029731],[-77.373931,26.035468],[-77.34789,26.070624],[-77.223297,26.145819],[-77.256418,26.203925],[-77.230133,26.258734],[-77.250356,26.313056],[-77.218617,26.355292],[-77.230133,26.447455],[-77.196197,26.462877],[-77.186431,26.505927],[-77.157948,26.53144],[-77.160715,26.564195],[-77.329742,26.60456],[-77.370107,26.697903],[-77.426991,26.695136],[-77.444692,26.755072],[-77.534413,26.863186],[-77.638051,26.859931],[-77.812367,26.906806]]],[[[-79.514027,23.495673],[-79.517568,23.494045],[-79.53661,23.506496],[-79.514027,23.495673]]],[[[-79.563344,23.546698],[-79.552887,23.533759],[-79.59435,23.574652],[-79.563344,23.546698]]],[[[-79.268707,25.53856],[-79.26651,25.537828],[-79.262115,25.528062],[-79.268707,25.53856]]],[[[-79.28893,25.559149],[-79.288442,25.562974],[-79.279408,25.551663],[-79.28893,25.559149]]],[[[-75.722076,22.202582],[-75.714711,22.182929],[-75.734364,22.175035],[-75.749745,22.204535],[-75.733022,22.199774],[-75.739491,22.222846],[-75.722076,22.202582]]],[[[-75.745961,22.236029],[-75.753407,22.237372],[-75.747548,22.261461],[-75.745961,22.236029]]],[[[-75.811676,22.371568],[-75.805491,22.347602],[-75.819569,22.388414],[-75.811676,22.371568]]],[[[-73.618177,22.60125],[-73.593794,22.601993],[-73.625498,22.574258],[-73.618177,22.60125]]],[[[-75.109039,23.84691],[-75.105784,23.831448],[-75.117421,23.815131],[-75.109039,23.84691]]],[[[-77.869211,24.346829],[-77.832834,24.349555],[-77.867299,24.319485],[-77.883697,24.327338],[-77.869211,24.346829]]],[[[-76.774322,24.538642],[-76.772572,24.51911],[-76.789296,24.5185],[-76.792388,24.54914],[-76.774322,24.538642]]],[[[-77.864125,25.407904],[-77.906728,25.409084],[-77.836822,25.434516],[-77.864125,25.407904]]],[[[-79.250071,25.774726],[-79.24592,25.734565],[-79.266957,25.732489],[-79.265533,25.761623],[-79.293853,25.720689],[-79.258046,25.699042],[-79.300649,25.697943],[-79.280344,25.757229],[-79.250071,25.774726]]],[[[-77.244252,26.478461],[-77.254547,26.438137],[-77.278228,26.465806],[-77.244252,26.478461]]],[[[-77.853831,26.600775],[-77.834625,26.610541],[-77.868398,26.56387],[-77.893137,26.602607],[-77.853831,26.600775]]],[[[-76.770186,25.551304],[-76.745895,25.545036],[-76.787424,25.541901],[-76.770186,25.551304]]],[[[-76.828954,25.531715],[-76.809364,25.529364],[-76.87205,25.506641],[-76.828954,25.531715]]]]}}]}
