{"type":"FeatureCollection","features":[{"type":"Feature","properties":{"name":"Botswana","ISO3166-1-Alpha-3":"BWA","ISO3166-1-Alpha-2":"BW"},"geometry":{"type":"Polygon","coordinates":[[[25.259781,-17.794107],[25.21937,-17.879786],[25.255026,-18.001122],[25.296368,-18.068612],[25.387525,-18.138995],[25.508499,-18.399134],[25.669523,-18.566049],[25.761921,-18.630335],[25.779491,-18.738752],[25.815251,-18.813993],[25.940721,-18.921273],[25.9678,-19.000958],[25.948576,-19.103277],[26.034359,-19.243734],[26.155488,-19.537153],[26.194452,-19.5602],[26.30349,-19.577254],[26.333462,-19.613014],[26.312171,-19.651358],[26.385242,-19.679056],[26.431854,-19.73652],[26.549263,-19.784063],[26.595565,-19.855583],[26.673803,-19.883385],[26.713904,-19.927413],[26.811882,-19.94643],[26.925054,-20.000897],[27.02665,-20.010095],[27.097343,-20.068903],[27.201781,-20.092984],[27.266015,-20.234164],[27.283998,-20.35147],[27.268392,-20.49575],[27.340739,-20.473013],[27.590853,-20.473323],[27.698133,-20.509083],[27.682475,-20.637344],[27.709605,-20.756716],[27.676016,-20.866684],[27.666611,-21.071219],[27.884995,-21.310171],[27.950211,-21.438329],[27.953208,-21.510469],[27.990415,-21.551913],[28.032893,-21.577855],[28.321919,-21.603486],[28.464598,-21.660331],[28.553998,-21.636559],[28.6157,-21.647101],[28.860853,-21.757379],[29.038723,-21.797893],[29.057637,-21.829209],[29.013815,-21.940417],[29.040532,-22.020929],[29.10797,-22.069194],[29.239331,-22.072605],[29.350074,-22.186707],[29.222071,-22.182159],[29.168844,-22.213992],[29.038723,-22.223914],[28.960227,-22.310213],[28.967926,-22.38039],[28.930409,-22.440851],[28.84659,-22.449946],[28.816825,-22.492941],[28.522476,-22.584822],[28.376851,-22.575003],[28.301817,-22.603839],[28.250554,-22.655619],[28.196191,-22.671638],[28.159707,-22.718147],[28.154953,-22.771994],[28.047156,-22.8369],[28.037441,-22.911417],[27.937498,-22.963817],[27.946077,-23.029032],[27.930057,-23.057041],[27.815749,-23.104687],[27.82226,-23.12298],[27.774201,-23.125151],[27.78929,-23.163805],[27.753634,-23.220752],[27.725728,-23.221682],[27.698443,-23.193467],[27.647129,-23.227573],[27.608009,-23.216721],[27.548892,-23.360795],[27.45267,-23.38529],[27.425178,-23.412678],[27.410502,-23.389321],[27.361203,-23.422497],[27.349989,-23.391491],[27.295574,-23.451746],[27.202505,-23.492053],[27.191497,-23.503836],[27.205657,-23.523059],[27.171447,-23.515618],[27.157184,-23.536702],[27.127419,-23.525023],[27.13672,-23.570188],[27.113363,-23.564297],[27.075225,-23.611219],[27.061531,-23.604398],[27.070058,-23.656074],[27.037605,-23.665686],[27.013834,-23.638504],[26.96717,-23.718706],[26.839168,-24.265598],[26.692923,-24.326576],[26.62347,-24.39944],[26.531176,-24.458661],[26.469474,-24.571419],[26.404362,-24.632811],[26.278788,-24.62847],[26.013585,-24.704537],[25.966043,-24.73358],[25.868374,-24.748152],[25.876746,-24.886025],[25.835198,-25.016353],[25.695465,-25.309979],[25.663529,-25.439996],[25.587254,-25.61952],[25.458425,-25.711194],[25.386491,-25.743544],[25.177822,-25.763284],[25.013284,-25.743027],[24.908381,-25.804109],[24.828903,-25.826019],[24.664985,-25.823332],[24.456729,-25.743027],[24.338907,-25.751812],[24.183464,-25.625928],[24.005697,-25.65466],[24.008694,-25.633163],[23.988024,-25.61952],[23.924772,-25.629236],[23.742664,-25.469969],[23.68675,-25.454362],[23.45927,-25.282177],[23.381446,-25.292615],[23.216081,-25.26719],[23.071697,-25.325998],[23.030666,-25.299437],[22.844631,-25.481131],[22.814039,-25.566604],[22.833366,-25.606084],[22.810835,-25.625308],[22.810214,-25.677398],[22.740451,-25.77703],[22.765463,-25.826536],[22.708825,-25.891028],[22.727222,-25.943945],[22.710479,-25.996862],[22.661593,-26.020943],[22.665004,-26.051432],[22.545114,-26.207391],[22.450857,-26.210079],[22.342853,-26.317359],[22.248285,-26.346918],[22.197435,-26.404072],[22.146172,-26.519207],[22.057702,-26.617599],[21.998998,-26.650258],[21.780613,-26.678164],[21.76232,-26.804461],[21.664548,-26.863062],[21.42663,-26.822651],[21.122462,-26.865336],[20.990377,-26.838567],[20.907695,-26.800017],[20.851884,-26.806528],[20.690757,-26.891794],[20.61469,-26.753198],[20.608902,-26.686122],[20.632363,-26.595275],[20.605284,-26.547732],[20.605284,-26.493265],[20.622544,-26.427533],[20.753286,-26.276224],[20.841446,-26.131324],[20.803929,-26.071276],[20.79411,-25.893922],[20.755766,-25.818991],[20.726517,-25.827363],[20.737783,-25.798941],[20.716699,-25.732588],[20.662852,-25.685253],[20.67081,-25.642258],[20.637944,-25.620347],[20.67143,-25.591202],[20.618514,-25.528466],[20.620374,-25.500561],[20.656547,-25.467798],[20.606628,-25.462011],[20.612002,-25.431005],[20.542239,-25.382222],[20.51051,-25.312252],[20.516401,-25.283624],[20.485498,-25.26316],[20.481674,-25.2305],[20.434442,-25.199804],[20.444777,-25.168385],[20.364886,-25.0332],[20.235695,-24.936048],[20.107847,-24.880341],[19.981447,-24.752493],[19.978346,-22.000671],[20.97198,-22.000671],[20.984796,-21.963981],[20.975081,-18.319346],[21.475722,-18.299502],[22.981367,-18.020036],[23.292769,-17.998952],[23.3338,-18.04329],[23.395812,-18.191395],[23.429401,-18.188501],[23.501542,-18.23749],[23.560763,-18.348491],[23.546604,-18.369472],[23.57916,-18.467864],[23.609856,-18.477682],[23.715792,-18.419081],[23.912886,-18.235733],[23.915987,-18.201213],[24.101609,-18.108816],[24.218294,-18.012595],[24.296429,-18.026237],[24.350586,-17.95606],[24.421589,-17.956474],[24.505615,-18.060344],[24.564423,-18.052799],[24.730717,-17.891878],[24.953339,-17.788422],[24.983312,-17.820462],[25.047494,-17.807129],[25.057002,-17.827696],[25.120874,-17.813537],[25.153947,-17.781808],[25.259781,-17.794107]]]}}]}
