{"type":"FeatureCollection","features":[{"type":"Feature","properties":{"name":"Belarus","ISO3166-1-Alpha-3":"BLR","ISO3166-1-Alpha-2":"BY"},"geometry":{"type":"Polygon","coordinates":[[[23.606238,51.517399],[23.56035,51.555304],[23.573992,51.555304],[23.5434,51.592743],[23.532444,51.658967],[23.56035,51.671963],[23.546087,51.689637],[23.56035,51.754542],[23.628666,51.809759],[23.594559,51.843297],[23.621845,51.877429],[23.628666,51.946339],[23.676415,51.994088],[23.637451,52.084471],[23.579366,52.121548],[23.512497,52.124442],[23.487693,52.181622],[23.391368,52.182501],[23.395812,52.19958],[23.189726,52.240533],[23.19448,52.271462],[23.165645,52.289393],[23.392298,52.509638],[23.569031,52.585887],[23.736153,52.614903],[23.868961,52.670042],[23.908752,52.699859],[23.922498,52.742596],[23.901104,52.923257],[23.91795,52.9508],[23.911336,53.00506],[23.859349,53.067976],[23.893663,53.151951],[23.800645,53.242462],[23.590942,53.611251],[23.564794,53.742405],[23.52986,53.78416],[23.485625,53.939293],[23.627116,53.89821],[23.787209,53.927924],[23.828344,53.920069],[23.919811,53.947768],[24.045385,53.930869],[24.169615,53.95893],[24.229146,53.932368],[24.257051,53.894024],[24.377871,53.886841],[24.528663,53.958361],[24.666845,53.993863],[24.705603,53.964201],[24.806372,53.975311],[24.821358,54.019908],[24.782497,54.092875],[24.818154,54.110135],[24.821565,54.134526],[24.902283,54.149771],[25.071989,54.132201],[25.156531,54.175712],[25.206244,54.256793],[25.369748,54.247904],[25.459355,54.298909],[25.553975,54.231265],[25.501678,54.221756],[25.528963,54.195659],[25.485762,54.175402],[25.516044,54.144758],[25.653503,54.128739],[25.763057,54.156437],[25.789206,54.236225],[25.719236,54.281546],[25.695981,54.320975],[25.564,54.303146],[25.528653,54.320975],[25.529997,54.346141],[25.612576,54.421796],[25.630869,54.508354],[25.740423,54.568505],[25.739906,54.607727],[25.708384,54.663021],[25.7212,54.766736],[25.778457,54.805286],[25.782695,54.869675],[25.870234,54.938818],[26.138642,54.968946],[26.224631,55.054884],[26.233003,55.111624],[26.264422,55.140098],[26.428753,55.128212],[26.473402,55.145679],[26.600939,55.120823],[26.656956,55.215339],[26.80072,55.27332],[26.768629,55.300243],[26.525388,55.308098],[26.450044,55.327063],[26.49924,55.428091],[26.543268,55.459613],[26.532106,55.516251],[26.595565,55.56803],[26.607657,55.616451],[26.594531,55.666991],[26.615615,55.687971],[26.743049,55.682856],[26.822838,55.70611],[26.981071,55.826878],[27.151448,55.832459],[27.263018,55.787216],[27.349627,55.831219],[27.438821,55.79874],[27.592713,55.794244],[27.64501,55.922841],[27.744435,55.959738],[27.781229,56.016375],[27.880654,56.063866],[27.92706,56.109367],[28.110976,56.156806],[28.310912,56.042679],[28.389771,56.088567],[28.611462,56.088464],[28.680606,56.027382],[28.706392,55.959841],[28.73192,55.946793],[28.830881,55.937672],[28.833051,55.960978],[28.859716,55.976455],[29.030765,56.024178],[29.395601,55.947723],[29.444435,55.906925],[29.384128,55.879949],[29.343614,55.786984],[29.363406,55.751482],[29.480867,55.681099],[29.684162,55.770602],[29.805705,55.771455],[29.907817,55.843208],[29.988226,55.846799],[30.106255,55.821917],[30.200254,55.857987],[30.468817,55.793521],[30.480702,55.753962],[30.587466,55.718306],[30.596354,55.665286],[30.693713,55.65216],[30.742185,55.594385],[30.847657,55.611025],[30.886156,55.600483],[30.919745,55.534492],[30.899385,55.499146],[30.919435,55.492325],[30.881298,55.451448],[30.918298,55.387783],[30.811225,55.323084],[30.794275,55.285515],[30.959795,55.162577],[30.984031,55.1309],[30.970285,55.101444],[31.005632,55.022999],[30.913234,55.024601],[30.936075,54.973235],[30.917368,54.953959],[30.814842,54.928018],[30.826108,54.877478],[30.768127,54.829936],[30.770607,54.786011],[30.98062,54.705654],[30.999017,54.671341],[31.10516,54.668292],[31.167947,54.621577],[31.064646,54.492282],[31.20903,54.448047],[31.284788,54.347381],[31.324682,54.229249],[31.506376,54.143931],[31.73675,54.094167],[31.77127,54.048537],[31.822636,54.053446],[31.84651,53.992313],[31.837932,53.962134],[31.81013,53.882604],[31.744656,53.794857],[31.873175,53.777132],[32.083602,53.809637],[32.290411,53.760854],[32.371801,53.714397],[32.442133,53.713932],[32.490192,53.677138],[32.399087,53.635384],[32.429421,53.56159],[32.576802,53.486039],[32.650286,53.487641],[32.646772,53.457978],[32.701239,53.462113],[32.719532,53.439478],[32.704443,53.366408],[32.717465,53.334937],[32.579954,53.324369],[32.595922,53.308272],[32.569154,53.298841],[32.454845,53.300443],[32.455982,53.277783],[32.479133,53.274915],[32.423633,53.204402],[32.267983,53.124769],[32.215687,53.125518],[32.201114,53.097561],[32.117295,53.081102],[31.796281,53.112392],[31.756283,53.186574],[31.614018,53.209751],[31.416356,53.199984],[31.378529,53.182026],[31.363698,53.088776],[31.319204,53.076374],[31.247064,53.014388],[31.322615,52.977129],[31.387934,52.887987],[31.505136,52.848894],[31.560843,52.787063],[31.570248,52.725258],[31.480641,52.68247],[31.628643,52.54806],[31.559293,52.540541],[31.575933,52.524728],[31.55056,52.511886],[31.587922,52.482612],[31.582857,52.402772],[31.608075,52.372463],[31.602753,52.340915],[31.567354,52.311382],[31.631433,52.26477],[31.699439,52.251463],[31.682386,52.201931],[31.762588,52.149841],[31.764345,52.100568],[31.383076,52.117492],[31.304425,52.097493],[31.228977,52.03822],[31.096324,52.079613],[30.918815,52.059175],[30.91127,52.022562],[30.940519,52.020082],[30.941243,51.993804],[30.896904,51.998326],[30.858044,51.957631],[30.80306,51.939131],[30.810605,51.918382],[30.788177,51.900606],[30.741668,51.897919],[30.734537,51.873734],[30.661983,51.819422],[30.670562,51.790535],[30.618162,51.761338],[30.64617,51.754542],[30.624983,51.706096],[30.570309,51.69992],[30.556615,51.62362],[30.515119,51.603673],[30.543127,51.582589],[30.52256,51.562719],[30.584004,51.542256],[30.562868,51.521766],[30.618162,51.467144],[30.586019,51.451848],[30.587879,51.427353],[30.618162,51.418723],[30.64555,51.36746],[30.632424,51.364101],[30.638315,51.33586],[30.579921,51.303665],[30.550672,51.236796],[30.355129,51.305267],[30.317095,51.340588],[30.320195,51.402083],[30.14863,51.48443],[29.886268,51.464793],[29.828649,51.429963],[29.737905,51.439497],[29.699975,51.483706],[29.637756,51.490889],[29.5682,51.449626],[29.505465,51.437456],[29.466294,51.385056],[29.402732,51.39614],[29.319946,51.365574],[29.227756,51.45562],[29.226515,51.519053],[29.160421,51.603311],[29.063218,51.630596],[28.980846,51.569463],[28.863643,51.558921],[28.799875,51.532618],[28.752229,51.483706],[28.751609,51.428748],[28.728768,51.401256],[28.703963,51.442623],[28.663552,51.433993],[28.637301,51.449626],[28.603918,51.553547],[28.461239,51.571659],[28.333857,51.52838],[28.310912,51.57445],[28.257789,51.601761],[28.245128,51.640622],[28.21004,51.651965],[28.070824,51.557629],[27.954758,51.560782],[27.87559,51.60804],[27.831252,51.612923],[27.799522,51.585199],[27.792546,51.517296],[27.714256,51.463707],[27.66413,51.492853],[27.705161,51.568352],[27.692655,51.589229],[27.477268,51.623672],[27.409004,51.59171],[27.267462,51.587498],[27.254026,51.595379],[27.277487,51.651138],[27.189017,51.663773],[27.177855,51.747075],[27.151086,51.756764],[26.854774,51.749349],[26.665741,51.801387],[26.4456,51.805599],[26.407773,51.850609],[26.175332,51.856707],[26.080764,51.900657],[25.767915,51.928511],[25.351971,51.921483],[25.138031,51.948949],[25.002742,51.910476],[24.721829,51.882338],[24.39079,51.880013],[24.311518,51.827561],[24.244132,51.718214],[23.981306,51.586],[23.941308,51.581917],[23.884878,51.619874],[23.749692,51.644472],[23.628976,51.629046],[23.594353,51.604965],[23.628666,51.531223],[23.606238,51.517399]]]}}]}
