{"type":"FeatureCollection","features":[{"type":"Feature","properties":{"name":"Belize","ISO3166-1-Alpha-3":"BLZ","ISO3166-1-Alpha-2":"BZ"},"geometry":{"type":"MultiPolygon","coordinates":[[[[-89.19314,16.392626],[-89.149205,17.036271],[-89.153933,17.941077],[-89.132565,17.970274],[-89.049444,17.999213],[-88.871367,17.89095],[-88.856406,17.928312],[-88.80535,17.965003],[-88.776876,18.023759],[-88.726647,18.066728],[-88.696623,18.178065],[-88.616989,18.235426],[-88.607713,18.283381],[-88.554797,18.352214],[-88.527822,18.454146],[-88.489245,18.484506],[-88.303822,18.48135],[-88.28661,18.462795],[-88.390981,18.370592],[-88.365387,18.354071],[-88.317494,18.374823],[-88.357981,18.303697],[-88.275746,18.358222],[-88.194651,18.340644],[-88.09675,18.375434],[-88.099029,18.348375],[-88.146474,18.309272],[-88.09496,18.333808],[-88.083567,18.21011],[-88.094797,18.102769],[-88.208323,17.881985],[-88.214345,17.773098],[-88.287709,17.604234],[-88.283315,17.580268],[-88.218577,17.527289],[-88.167307,17.51203],[-88.179351,17.492621],[-88.24234,17.487494],[-88.286285,17.339667],[-88.300526,17.177924],[-88.279408,17.091457],[-88.228179,17.044867],[-88.215077,16.967108],[-88.283315,16.891343],[-88.248606,16.813137],[-88.282379,16.803412],[-88.301625,16.771715],[-88.306223,16.652899],[-88.348053,16.567328],[-88.344838,16.524563],[-88.362864,16.505845],[-88.334543,16.635077],[-88.311269,16.662299],[-88.337636,16.649237],[-88.386383,16.559272],[-88.365875,16.551825],[-88.393178,16.551825],[-88.372792,16.538153],[-88.386383,16.490383],[-88.444447,16.4289],[-88.447825,16.394761],[-88.47057,16.388617],[-88.53661,16.271308],[-88.57136,16.263821],[-88.578196,16.243964],[-88.578196,16.285549],[-88.605946,16.260647],[-88.646637,16.286607],[-88.65392,16.257636],[-88.740061,16.23017],[-88.745717,16.154853],[-88.847483,16.065172],[-88.856272,16.028266],[-88.927642,15.983873],[-88.913971,15.893948],[-88.951878,15.879652],[-89.040323,15.901718],[-89.177446,15.900271],[-89.228244,15.880841],[-89.236512,15.893915],[-89.19314,16.392626]]],[[[-87.838287,17.388495],[-87.825795,17.399156],[-87.814198,17.381293],[-87.803578,17.292304],[-87.810414,17.305976],[-87.824615,17.292304],[-87.838287,17.388495]]],[[[-87.827748,17.545559],[-87.789215,17.531968],[-87.78718,17.496894],[-87.831288,17.423733],[-87.865631,17.429511],[-87.900054,17.391791],[-87.926503,17.278632],[-87.940745,17.292304],[-87.909535,17.426256],[-87.858795,17.470404],[-87.821278,17.463609],[-87.803944,17.491929],[-87.810414,17.525621],[-87.838287,17.51203],[-87.827748,17.545559]]],[[[-88.07726,17.641791],[-88.053619,17.606269],[-88.050608,17.552965],[-88.07726,17.641791]]],[[[-88.160471,17.682766],[-88.071116,17.73428],[-88.103668,17.68183],[-88.167307,17.669094],[-88.160471,17.682766]]],[[[-87.913442,18.025946],[-87.93456,17.942939],[-88.009023,17.902493],[-87.945912,17.951809],[-87.952301,18.007758],[-87.904856,18.153225],[-87.857289,18.169664],[-87.848988,18.133775],[-87.89977,18.039008],[-87.913442,18.046454],[-87.933909,18.01911],[-87.926503,17.997992],[-87.913442,18.025946]]],[[[-88.095611,17.517401],[-88.067698,17.490546],[-88.077056,17.461086],[-88.117299,17.512885],[-88.095611,17.517401]]],[[[-87.969065,18.090888],[-87.962514,18.079983],[-87.984364,18.077582],[-87.969065,18.090888]]],[[[-87.939524,18.118638],[-87.95051,18.087592],[-87.95523,18.100816],[-87.939524,18.118638]]],[[[-87.878407,18.208238],[-87.878285,18.187323],[-87.883697,18.201077],[-87.878407,18.208238]]]]}}]}
