{"type":"FeatureCollection","features":[{"type":"Feature","properties":{"name":"Democratic Republic of the Congo","ISO3166-1-Alpha-3":"COD","ISO3166-1-Alpha-2":"CD"},"geometry":{"type":"MultiPolygon","coordinates":[[[[18.626387,3.476869],[18.593004,3.709775],[18.646541,4.045982],[18.619669,4.169566],[18.545048,4.289016],[18.541948,4.327851],[18.576468,4.372757],[18.654086,4.357229],[18.753304,4.400611],[18.828235,4.559981],[19.011583,4.765033],[19.08331,4.90934],[19.133023,4.946934],[19.195655,4.950345],[19.236996,5.010781],[19.373112,5.087546],[19.408975,5.130386],[19.568759,5.15519],[19.605552,5.138292],[19.71955,5.135967],[19.82466,5.096977],[19.890909,5.002125],[20.003977,4.974478],[20.171719,4.87836],[20.236625,4.806349],[20.338944,4.771906],[20.395478,4.677106],[20.456456,4.621502],[20.452322,4.528924],[20.580273,4.415003],[20.767859,4.42278],[20.871521,4.453373],[21.076057,4.395469],[21.113574,4.340847],[21.210932,4.291574],[21.288344,4.33338],[21.37485,4.278164],[21.538147,4.244652],[21.634162,4.294209],[21.737308,4.293382],[21.86774,4.241551],[22.001478,4.244652],[22.127879,4.203078],[22.207254,4.150316],[22.303269,4.128716],[22.422641,4.134787],[22.510491,4.19127],[22.546148,4.237184],[22.539327,4.278164],[22.568575,4.331546],[22.613741,4.374359],[22.589039,4.421953],[22.59245,4.473707],[22.689498,4.491665],[22.73115,4.587266],[22.723605,4.62884],[22.78603,4.724648],[22.853829,4.711264],[22.895584,4.765395],[22.882872,4.800742],[22.898374,4.823583],[22.977439,4.834306],[23.017334,4.750512],[23.099396,4.711652],[23.168746,4.73811],[23.264864,4.635067],[23.414519,4.590832],[23.448315,4.659407],[23.506089,4.676434],[23.588048,4.73395],[23.816665,4.820611],[23.948336,4.817692],[23.950817,4.867792],[23.977998,4.854149],[24.08962,4.920218],[24.152768,4.902596],[24.209612,4.956184],[24.246199,4.954066],[24.259222,4.929881],[24.296635,5.003262],[24.368466,5.012434],[24.398645,5.036024],[24.361231,5.062948],[24.396371,5.122298],[24.430684,5.067418],[24.436679,5.100594],[24.459623,5.107441],[24.513676,5.087236],[24.553467,5.039099],[24.601216,5.026103],[24.615479,4.985097],[24.670773,4.957218],[24.654236,4.929416],[24.730614,4.917505],[24.789422,4.919856],[24.819498,4.94448],[24.848333,4.936728],[24.958094,4.99135],[25.076123,4.951844],[25.129453,5.018635],[25.227535,5.009566],[25.307633,5.032278],[25.349284,5.141677],[25.307736,5.185292],[25.343393,5.271927],[25.376466,5.293011],[25.36365,5.310556],[25.481989,5.356858],[25.504469,5.342285],[25.540849,5.354429],[25.543743,5.37528],[25.58126,5.374919],[25.600483,5.34045],[25.622911,5.34076],[25.609165,5.320297],[25.691124,5.299807],[25.743731,5.250611],[25.792306,5.262832],[25.826103,5.194697],[25.872405,5.217099],[25.910852,5.170099],[25.912506,5.190382],[25.958601,5.197384],[25.971934,5.227667],[26.026917,5.189969],[26.095234,5.211053],[26.088412,5.244591],[26.112494,5.238389],[26.12996,5.258879],[26.157349,5.232472],[26.198276,5.238389],[26.226182,5.183147],[26.246646,5.189969],[26.272484,5.159066],[26.362711,5.135967],[26.390616,5.149015],[26.462653,5.059641],[26.502547,5.047471],[26.598355,5.080621],[26.629671,5.067056],[26.739432,5.094393],[26.808368,5.039099],[26.832656,5.053388],[26.867073,5.037549],[26.961641,5.151185],[27.073675,5.203327],[27.301878,5.131988],[27.342754,5.100594],[27.441301,5.070725],[27.43634,5.013158],[27.501349,4.96329],[27.514578,4.92244],[27.552716,4.900529],[27.640979,4.890943],[27.671882,4.855906],[27.685938,4.797899],[27.744229,4.787848],[27.766863,4.735449],[27.772444,4.595819],[27.849132,4.553212],[27.914037,4.54931],[27.92923,4.569981],[28.014031,4.550033],[28.011241,4.480141],[28.04974,4.419137],[28.101726,4.442133],[28.177587,4.347229],[28.303161,4.352242],[28.381502,4.275296],[28.425427,4.290824],[28.496844,4.369011],[28.557306,4.373533],[28.570535,4.405107],[28.638644,4.432082],[28.695178,4.532593],[28.755433,4.553987],[28.783648,4.530371],[28.789953,4.48859],[28.903641,4.478591],[28.98622,4.495928],[29.173495,4.348004],[29.221296,4.340692],[29.242845,4.387356],[29.303927,4.387149],[29.33886,4.449549],[29.390226,4.493758],[29.44273,4.583442],[29.457612,4.669535],[29.618533,4.641578],[29.715323,4.57967],[29.74514,4.583907],[29.796713,4.556028],[29.777696,4.523859],[29.787825,4.368804],[29.814852,4.346764],[29.882703,4.344025],[29.930348,4.308653],[29.924147,4.245582],[29.989363,4.21778],[30.0429,4.133108],[30.122688,4.102464],[30.189351,3.95609],[30.33792,3.927875],[30.456828,3.867595],[30.525247,3.867543],[30.562868,3.694866],[30.543024,3.612907],[30.592427,3.603528],[30.693351,3.63195],[30.746939,3.674867],[30.779082,3.602598],[30.837683,3.562678],[30.839543,3.490202],[30.896388,3.519967],[30.91003,3.393412],[30.804197,3.246005],[30.743839,3.055474],[30.843988,2.932794],[30.853393,2.853367],[30.828691,2.786084],[30.801613,2.769083],[30.73526,2.593073],[30.737017,2.519537],[30.710559,2.445123],[30.80492,2.434374],[30.819803,2.37598],[30.87179,2.332055],[30.900573,2.345956],[30.930907,2.405591],[30.968011,2.405436],[31.041288,2.331228],[31.035501,2.30694],[31.055241,2.290249],[31.112602,2.282084],[31.177559,2.30291],[31.190116,2.221519],[31.280447,2.15341],[31.271455,2.102999],[31.025837,1.778239],[30.681724,1.500349],[30.478274,1.238634],[30.43161,1.207008],[30.364947,1.202047],[30.323813,1.155848],[30.277976,1.171609],[30.238857,1.136004],[30.215292,1.077093],[30.220977,1.017097],[30.154831,0.90868],[30.038352,0.878914],[29.947298,0.824602],[29.926834,0.774889],[29.919496,0.618103],[29.940477,0.498317],[29.839605,0.358481],[29.797127,0.164797],[29.761263,0.172135],[29.703075,0.072503],[29.714341,-0.007492],[29.629385,-0.442401],[29.653053,-0.565597],[29.618843,-0.599394],[29.630573,-0.622028],[29.60303,-0.7229],[29.610781,-0.863977],[29.554661,-0.928573],[29.54846,-1.002573],[29.57006,-1.077918],[29.557038,-1.181787],[29.587113,-1.310565],[29.577915,-1.38839],[29.498747,-1.431074],[29.437407,-1.506212],[29.342787,-1.516547],[29.303823,-1.587861],[29.233337,-1.658657],[29.130501,-1.843349],[29.156339,-2.108656],[29.134841,-2.197746],[29.075413,-2.263892],[28.993661,-2.277741],[28.945447,-2.354222],[28.866331,-2.391946],[28.878216,-2.489718],[28.857236,-2.518346],[28.89806,-2.576327],[28.891342,-2.652705],[29.000121,-2.703658],[29.028595,-2.744896],[28.995522,-2.758435],[28.994902,-2.813626],[29.049058,-2.827475],[29.08978,-2.926074],[29.138407,-2.950361],[29.156752,-3.004828],[29.234629,-3.046583],[29.242328,-3.110765],[29.214113,-3.166472],[29.216904,-3.233135],[29.240881,-3.266311],[29.213079,-3.291943],[29.206672,-3.334524],[29.225172,-3.588565],[29.206568,-3.781939],[29.215043,-3.899864],[29.33948,-4.093237],[29.37276,-4.208166],[29.410897,-4.502308],[29.401337,-4.586851],[29.321032,-4.836345],[29.32377,-4.920164],[29.377824,-5.087544],[29.455649,-5.229964],[29.49637,-5.391711],[29.612435,-5.704354],[29.60303,-5.781661],[29.49606,-5.938654],[29.476113,-6.002113],[29.537711,-6.312378],[29.633932,-6.446944],[29.707003,-6.619336],[29.873091,-6.754212],[30.012721,-6.825215],[30.090855,-6.890018],[30.29446,-7.149433],[30.369598,-7.31025],[30.441635,-7.596331],[30.654955,-7.92737],[30.752107,-8.194124],[28.889172,-8.483099],[28.935474,-8.590792],[28.930461,-8.679883],[28.893099,-8.765769],[28.765407,-8.934027],[28.59906,-9.096395],[28.372304,-9.235094],[28.35246,-9.271991],[28.368532,-9.308578],[28.460464,-9.335036],[28.515964,-9.378341],[28.519685,-9.445624],[28.562783,-9.484898],[28.5741,-9.539158],[28.617767,-9.543292],[28.583557,-9.563756],[28.621798,-9.638274],[28.631255,-9.715582],[28.698486,-9.791959],[28.668462,-9.821622],[28.627947,-9.929419],[28.628516,-10.102741],[28.569915,-10.219633],[28.623865,-10.276374],[28.620868,-10.373319],[28.646086,-10.438431],[28.634924,-10.51946],[28.672337,-10.564315],[28.665516,-10.608964],[28.699622,-10.643174],[28.665878,-10.697434],[28.623245,-10.716864],[28.554412,-10.834996],[28.547177,-10.913751],[28.476794,-11.077979],[28.487336,-11.153427],[28.473693,-11.22567],[28.436176,-11.289129],[28.439587,-11.348247],[28.357008,-11.446949],[28.360315,-11.533558],[28.40548,-11.605182],[28.452506,-11.780779],[28.488886,-11.808684],[28.507851,-11.872763],[28.540562,-11.872039],[28.569191,-11.91369],[28.592652,-11.900461],[28.623865,-11.947797],[28.686032,-11.984074],[28.751092,-11.992238],[28.759877,-12.035233],[28.821475,-12.075748],[28.859509,-12.14179],[28.944672,-12.206076],[29.035106,-12.378882],[29.100218,-12.374024],[29.11107,-12.393454],[29.173392,-12.367616],[29.254989,-12.366169],[29.304857,-12.404823],[29.499677,-12.453089],[29.524688,-12.429214],[29.523448,-12.392524],[29.480453,-12.380535],[29.446554,-12.33506],[29.474252,-12.242662],[29.576727,-12.188092],[29.631865,-12.215997],[29.734908,-12.164838],[29.799297,-12.154089],[29.797643,-13.424244],[29.782244,-13.455663],[29.702869,-13.457627],[29.617396,-13.421247],[29.601686,-13.374428],[29.625147,-13.364196],[29.626594,-13.326369],[29.669176,-13.281204],[29.657497,-13.26012],[29.629075,-13.261463],[29.574401,-13.225393],[29.527996,-13.234075],[29.449551,-13.300324],[29.308267,-13.353654],[29.184141,-13.436853],[29.122129,-13.38435],[28.993971,-13.395925],[28.93413,-13.309626],[28.903434,-13.162296],[28.85367,-13.137078],[28.825816,-13.092843],[28.830881,-13.051812],[28.707994,-12.889755],[28.667893,-12.849344],[28.621178,-12.839422],[28.583971,-12.888721],[28.542836,-12.885621],[28.539425,-12.833841],[28.474003,-12.736482],[28.511624,-12.694418],[28.512295,-12.668373],[28.42274,-12.521302],[28.322488,-12.4411],[28.237532,-12.437069],[28.185752,-12.402446],[28.131285,-12.429214],[28.08767,-12.377538],[27.958686,-12.367823],[27.933881,-12.303331],[27.856676,-12.262403],[27.831407,-12.259922],[27.756734,-12.304261],[27.638189,-12.293615],[27.52047,-12.179617],[27.467553,-12.001644],[27.420734,-11.921959],[27.234182,-11.809097],[27.180129,-11.569629],[27.023756,-11.59557],[27.010268,-11.609833],[27.021482,-11.69789],[26.981071,-11.749049],[26.947688,-11.909143],[26.874204,-11.964333],[26.759379,-11.968674],[26.717418,-12.013012],[26.489111,-11.960819],[26.414594,-11.91183],[26.298012,-11.941182],[26.16665,-11.902425],[25.981132,-11.903045],[25.850701,-11.793801],[25.725644,-11.800519],[25.621464,-11.728895],[25.575679,-11.727345],[25.561003,-11.753287],[25.49558,-11.776541],[25.474135,-11.756181],[25.481163,-11.715253],[25.386388,-11.64983],[25.344943,-11.642182],[25.300398,-11.535005],[25.316728,-11.472994],[25.279004,-11.396306],[25.306496,-11.333054],[25.284689,-11.307319],[25.324893,-11.283651],[25.31032,-11.194768],[25.184023,-11.246651],[24.942901,-11.268562],[24.826732,-11.317551],[24.712527,-11.326026],[24.593258,-11.399613],[24.564733,-11.444675],[24.490939,-11.461522],[24.446497,-11.463589],[24.370223,-11.410155],[24.293948,-11.3992],[24.285473,-11.381216],[24.33994,-11.358065],[24.392237,-11.279104],[24.396578,-11.217402],[24.361748,-11.164692],[24.381798,-11.12056],[24.370533,-11.1002],[24.293845,-11.05028],[24.124243,-11.043252],[24.114218,-10.919229],[24.00146,-10.873444],[23.948646,-10.881505],[23.927976,-10.945377],[23.867411,-11.016381],[23.833718,-11.028473],[23.455963,-10.960984],[23.373281,-10.975143],[23.196754,-11.071881],[23.014336,-11.102474],[22.931137,-11.096789],[22.853106,-11.053071],[22.727739,-11.096789],[22.53757,-11.037155],[22.500983,-11.042426],[22.469357,-11.122421],[22.440315,-11.146915],[22.340269,-11.180195],[22.281771,-11.236729],[22.23764,-11.249545],[22.25552,-11.166552],[22.243841,-11.078289],[22.196092,-10.992299],[22.165499,-10.85236],[22.223997,-10.797066],[22.319495,-10.761306],[22.305956,-10.550673],[22.271849,-10.481736],[22.313397,-10.368565],[22.20281,-10.130647],[22.209734,-10.098194],[22.159918,-9.931486],[22.090982,-9.877122],[22.055842,-9.875365],[21.998378,-9.809116],[21.984425,-9.748758],[21.95652,-9.76178],[21.878902,-9.657084],[21.854097,-9.61781],[21.819887,-9.447691],[21.791982,-9.406143],[21.851617,-9.233751],[21.839731,-9.092364],[21.859885,-8.846384],[21.935953,-8.583144],[21.916212,-8.57684],[21.943911,-8.455917],[21.899882,-8.348843],[21.920553,-8.329],[21.873217,-8.264094],[21.857301,-8.156917],[21.79963,-8.040852],[21.753948,-7.99734],[21.770485,-7.806758],[21.854097,-7.585996],[21.860918,-7.469827],[21.83291,-7.390762],[21.842418,-7.369885],[21.784954,-7.283379],[20.520535,-7.286376],[20.524463,-7.143129],[20.611486,-6.915959],[20.319514,-6.918543],[20.294296,-7.001949],[19.521836,-7.001949],[19.54261,-7.052282],[19.487213,-7.153877],[19.476361,-7.315935],[19.513155,-7.479439],[19.443908,-7.575247],[19.355645,-7.57411],[19.38138,-7.703921],[19.330944,-7.898638],[19.355542,-8.001991],[18.773768,-8.001991],[18.738525,-7.932331],[18.516523,-7.932228],[18.507635,-7.997547],[18.366558,-8.016771],[18.192719,-7.996927],[18.120372,-8.022455],[18.09288,-8.056355],[18.098151,-8.109271],[17.981879,-8.105344],[17.930822,-8.062142],[17.867984,-8.044469],[17.789539,-8.081779],[17.713265,-8.068344],[17.600197,-8.098523],[17.536531,-8.075992],[17.536531,-8.015117],[17.434109,-7.915795],[17.452402,-7.883962],[17.426357,-7.875487],[17.420569,-7.843861],[17.3907,-7.83921],[17.400002,-7.823397],[17.380985,-7.823191],[17.375404,-7.792288],[17.315976,-7.753634],[17.32042,-7.713637],[17.303781,-7.692449],[17.288898,-7.699477],[17.286417,-7.625167],[17.217791,-7.585996],[17.148545,-7.472618],[17.176553,-7.428176],[17.103999,-7.416084],[17.093354,-7.352315],[16.996099,-7.297951],[16.989071,-7.254853],[16.945663,-7.204624],[16.929126,-7.060653],[16.961166,-7.069231],[16.973155,-7.014765],[16.928713,-6.968669],[16.914967,-6.864076],[16.832905,-6.827799],[16.768103,-6.708323],[16.730792,-6.56983],[16.747329,-6.521978],[16.721697,-6.491799],[16.727795,-6.465961],[16.706091,-6.465031],[16.720974,-6.42834],[16.692965,-6.398368],[16.693585,-6.359817],[16.720974,-6.342351],[16.726762,-6.189182],[16.695859,-6.140916],[16.61111,-6.089756],[16.632194,-6.065262],[16.601188,-6.050586],[16.580724,-5.955398],[16.597364,-5.924702],[16.552922,-5.902378],[16.497318,-5.882844],[16.396136,-5.894109],[16.315727,-5.854629],[14.703733,-5.881397],[14.576609,-5.904651],[14.482144,-5.885531],[14.241849,-5.889562],[14.140149,-5.863517],[14.02119,-5.872509],[13.943572,-5.841606],[13.641523,-5.865791],[13.380454,-5.856386],[13.342524,-5.890595],[13.170665,-5.849867],[13.067227,-5.862629],[12.896169,-5.814548],[12.822439,-5.829767],[12.76648,-5.86531],[12.71754,-5.931329],[12.722607,-5.979263],[12.449498,-6.051928],[12.431854,-6.034414],[12.457204,-6.013552],[12.457194,-5.981772],[12.414201,-5.97854],[12.396563,-6.005963],[12.376231,-5.958673],[12.249278,-5.82879],[12.210541,-5.763442],[12.258972,-5.736703],[12.508983,-5.726264],[12.530687,-5.162681],[12.524072,-5.129091],[12.444697,-5.093538],[12.444387,-5.055091],[12.550427,-5.024188],[12.587738,-5.000314],[12.606961,-4.94223],[12.678895,-4.924298],[12.696982,-4.875619],[12.766228,-4.825182],[12.802918,-4.739813],[13.065331,-4.663952],[13.087966,-4.579513],[13.112357,-4.576929],[13.18212,-4.686069],[13.35875,-4.794797],[13.39265,-4.885334],[13.493522,-4.799654],[13.482257,-4.77485],[13.526182,-4.754282],[13.570727,-4.785908],[13.591397,-4.779397],[13.613101,-4.739193],[13.67532,-4.731751],[13.681934,-4.695371],[13.712475,-4.685656],[13.699091,-4.642661],[13.721777,-4.561012],[13.714956,-4.453009],[13.810454,-4.426654],[13.867091,-4.489286],[13.944502,-4.498071],[14.021087,-4.415388],[14.184694,-4.377458],[14.279986,-4.312759],[14.387059,-4.277102],[14.392744,-4.352756],[14.469742,-4.429341],[14.424576,-4.502308],[14.350783,-4.559049],[14.365769,-4.627262],[14.410934,-4.701056],[14.400702,-4.886264],[14.519868,-4.841305],[14.623324,-4.899493],[14.672727,-4.899907],[14.831167,-4.815054],[14.931005,-4.646899],[15.022783,-4.54706],[15.09792,-4.499931],[15.20396,-4.339011],[15.458932,-4.21385],[15.533759,-4.057994],[15.711216,-3.992158],[15.844231,-3.965597],[15.912134,-3.917434],[15.991096,-3.738944],[16.115533,-3.544227],[16.225603,-3.313233],[16.193357,-3.238406],[16.177028,-2.882459],[16.225603,-2.635239],[16.174857,-2.303062],[16.194598,-2.182036],[16.231288,-2.129016],[16.513958,-1.887377],[16.604185,-1.754052],[16.636224,-1.62083],[16.833215,-1.269017],[17.022557,-1.097038],[17.308018,-1.014976],[17.411474,-0.918341],[17.749541,-0.523429],[17.716365,-0.195801],[17.757086,-0.009456],[17.854031,0.241072],[17.945498,0.377291],[17.949943,0.491496],[17.893202,0.607664],[17.907671,0.740473],[17.86664,1.016632],[17.956247,1.171661],[18.012264,1.421956],[18.071382,1.551457],[18.072416,2.160024],[18.111173,2.265289],[18.199126,2.389106],[18.233026,2.502587],[18.313745,2.575968],[18.393223,2.713686],[18.528409,3.064775],[18.613055,3.128182],[18.642407,3.323829],[18.626387,3.476869]]],[[[12.90529,-5.869488],[12.99459,-5.868244],[12.807373,-5.95397],[12.761119,-5.958406],[12.745128,-5.940199],[12.828161,-5.871794],[12.90529,-5.869488]]]]}}]}
