{"type":"FeatureCollection","features":[{"type":"Feature","properties":{"name":"Central African Republic","ISO3166-1-Alpha-3":"CAF","ISO3166-1-Alpha-2":"CF"},"geometry":{"type":"Polygon","coordinates":[[[22.861064,10.919154],[22.863234,10.891817],[23.005551,10.686817],[23.109421,10.614495],[23.291219,10.439726],[23.644789,9.863068],[23.674038,9.69034],[23.606135,9.537171],[23.619984,9.447719],[23.646339,9.425033],[23.621845,9.34062],[23.63218,9.277574],[23.549498,9.185254],[23.474257,9.170682],[23.435706,9.018934],[23.451416,8.974182],[23.478081,8.958912],[23.505469,8.961082],[23.542573,8.997281],[23.567481,8.974828],[23.553632,8.883154],[23.482318,8.783393],[23.505262,8.710736],[23.540506,8.704793],[23.59642,8.734145],[23.72127,8.702002],[23.803436,8.72213],[24.114011,8.681642],[24.217674,8.691512],[24.235761,8.682003],[24.211266,8.627071],[24.25054,8.579632],[24.193179,8.532426],[24.137162,8.438866],[24.121556,8.372307],[24.152872,8.317891],[24.206615,8.283268],[24.332085,8.245725],[24.431097,8.271408],[24.51285,8.207149],[24.614859,8.217148],[24.800171,8.180277],[24.917993,8.087027],[24.952616,7.996567],[25.059173,7.896108],[25.173171,7.888564],[25.216889,7.864069],[25.269909,7.760768],[25.279418,7.659482],[25.252546,7.62243],[25.165213,7.5799],[25.190431,7.501197],[25.316211,7.417223],[25.360033,7.335574],[25.481163,7.266173],[25.516768,7.269945],[25.592422,7.211241],[25.786209,7.142666],[25.800781,7.104942],[25.877469,7.087734],[25.888735,7.05187],[25.960461,7.024482],[25.969453,7.003553],[26.026091,6.99668],[26.035806,6.922266],[26.045418,6.899683],[26.073633,6.895136],[26.091203,6.830334],[26.147634,6.804702],[26.236207,6.72003],[26.378007,6.65329],[26.379867,6.619778],[26.27021,6.465653],[26.289124,6.459426],[26.28964,6.387208],[26.375837,6.312587],[26.452008,6.28029],[26.455625,6.230474],[26.508955,6.205462],[26.500067,6.167971],[26.42927,6.113091],[26.424826,6.072447],[26.48105,6.104951],[26.543578,6.030847],[26.602179,6.010616],[26.705016,6.009789],[26.776329,5.981884],[26.805061,5.957183],[26.81891,5.894628],[26.894255,5.889667],[26.916475,5.849644],[26.981071,5.859204],[27.036055,5.785126],[27.072745,5.791224],[27.123801,5.768745],[27.218369,5.645315],[27.217336,5.585397],[27.247515,5.592605],[27.261054,5.577593],[27.218059,5.42551],[27.264465,5.260145],[27.441301,5.070725],[27.073675,5.203327],[26.961641,5.151185],[26.867073,5.037549],[26.832656,5.053388],[26.808368,5.039099],[26.739432,5.094393],[26.629671,5.067056],[26.598355,5.080621],[26.502547,5.047471],[26.462653,5.059641],[26.390616,5.149015],[26.362711,5.135967],[26.272484,5.159066],[26.246646,5.189969],[26.226182,5.183147],[26.198276,5.238389],[26.157349,5.232472],[26.12996,5.258879],[26.112494,5.238389],[26.088412,5.244591],[26.095234,5.211053],[26.026917,5.189969],[25.971934,5.227667],[25.958601,5.197384],[25.912506,5.190382],[25.910852,5.170099],[25.872405,5.217099],[25.826103,5.194697],[25.792306,5.262832],[25.743731,5.250611],[25.691124,5.299807],[25.609165,5.320297],[25.622911,5.34076],[25.600483,5.34045],[25.58126,5.374919],[25.543743,5.37528],[25.540849,5.354429],[25.504469,5.342285],[25.481989,5.356858],[25.36365,5.310556],[25.376466,5.293011],[25.343393,5.271927],[25.307736,5.185292],[25.349284,5.141677],[25.307633,5.032278],[25.227535,5.009566],[25.129453,5.018635],[25.076123,4.951844],[24.958094,4.99135],[24.848333,4.936728],[24.819498,4.94448],[24.789422,4.919856],[24.730614,4.917505],[24.654236,4.929416],[24.670773,4.957218],[24.615479,4.985097],[24.601216,5.026103],[24.553467,5.039099],[24.513676,5.087236],[24.459623,5.107441],[24.436679,5.100594],[24.430684,5.067418],[24.396371,5.122298],[24.361231,5.062948],[24.398645,5.036024],[24.368466,5.012434],[24.296635,5.003262],[24.259222,4.929881],[24.246199,4.954066],[24.209612,4.956184],[24.152768,4.902596],[24.08962,4.920218],[23.977998,4.854149],[23.950817,4.867792],[23.948336,4.817692],[23.816665,4.820611],[23.588048,4.73395],[23.506089,4.676434],[23.448315,4.659407],[23.414519,4.590832],[23.264864,4.635067],[23.168746,4.73811],[23.099396,4.711652],[23.017334,4.750512],[22.977439,4.834306],[22.898374,4.823583],[22.882872,4.800742],[22.895584,4.765395],[22.853829,4.711264],[22.78603,4.724648],[22.723605,4.62884],[22.73115,4.587266],[22.689498,4.491665],[22.59245,4.473707],[22.589039,4.421953],[22.613741,4.374359],[22.568575,4.331546],[22.539327,4.278164],[22.546148,4.237184],[22.510491,4.19127],[22.422641,4.134787],[22.303269,4.128716],[22.207254,4.150316],[22.127879,4.203078],[22.001478,4.244652],[21.86774,4.241551],[21.737308,4.293382],[21.634162,4.294209],[21.538147,4.244652],[21.37485,4.278164],[21.288344,4.33338],[21.210932,4.291574],[21.113574,4.340847],[21.076057,4.395469],[20.871521,4.453373],[20.767859,4.42278],[20.580273,4.415003],[20.452322,4.528924],[20.456456,4.621502],[20.395478,4.677106],[20.338944,4.771906],[20.236625,4.806349],[20.171719,4.87836],[20.003977,4.974478],[19.890909,5.002125],[19.82466,5.096977],[19.71955,5.135967],[19.605552,5.138292],[19.568759,5.15519],[19.408975,5.130386],[19.373112,5.087546],[19.236996,5.010781],[19.195655,4.950345],[19.133023,4.946934],[19.08331,4.90934],[19.011583,4.765033],[18.828235,4.559981],[18.753304,4.400611],[18.654086,4.357229],[18.576468,4.372757],[18.541948,4.327851],[18.545048,4.289016],[18.619669,4.169566],[18.646541,4.045982],[18.593004,3.709775],[18.626387,3.476869],[18.570267,3.489607],[18.472081,3.632053],[18.379891,3.574382],[18.248529,3.574899],[18.220004,3.503947],[18.181556,3.477386],[18.146727,3.494904],[18.116444,3.552007],[18.082028,3.563453],[17.969476,3.537511],[17.919247,3.565597],[17.842146,3.540147],[17.793156,3.617506],[17.586761,3.632234],[17.458913,3.708276],[17.375714,3.663447],[17.334373,3.618514],[17.259442,3.625904],[17.197224,3.58172],[17.061418,3.56614],[17.009225,3.538131],[16.867838,3.561541],[16.833008,3.522861],[16.709398,3.543712],[16.639428,3.528597],[16.567701,3.464389],[16.511477,3.227246],[16.465485,3.156501],[16.490807,3.067824],[16.445538,2.95765],[16.479128,2.836314],[16.196665,2.236454],[16.179715,2.246996],[16.186536,2.277692],[16.120907,2.389571],[16.090315,2.510494],[16.111502,2.5862],[16.090315,2.661906],[16.110468,2.701438],[16.059309,2.711825],[16.059929,2.786188],[16.095172,2.836779],[16.055381,2.93977],[16.026236,2.978992],[15.977763,2.980956],[15.950065,3.061003],[15.913995,3.097952],[15.78563,3.107977],[15.171301,3.758971],[15.084898,3.885836],[15.025987,4.026086],[15.111253,4.019937],[15.189801,4.063112],[15.091202,4.121791],[15.063814,4.293434],[14.993947,4.413298],[14.779697,4.545047],[14.717272,4.622019],[14.686989,4.908875],[14.659498,4.997035],[14.658877,5.164544],[14.624461,5.224049],[14.539712,5.261799],[14.519868,5.290583],[14.592835,5.400033],[14.617433,5.495299],[14.590148,5.608289],[14.631075,5.738049],[14.617433,5.864966],[14.584773,5.923412],[14.530616,5.90592],[14.465711,5.920673],[14.387266,6.039038],[14.422509,6.051363],[14.430571,6.088079],[14.534957,6.190088],[14.576402,6.189778],[14.719029,6.257862],[14.772255,6.318323],[14.782177,6.393616],[14.932452,6.710289],[15.034565,6.776771],[15.136161,7.045308],[15.187527,7.088612],[15.186597,7.166334],[15.223908,7.247517],[15.403225,7.386372],[15.432784,7.389731],[15.419451,7.43655],[15.481049,7.523263],[15.668532,7.516287],[15.758345,7.455567],[15.92526,7.488175],[16.042979,7.583931],[16.207207,7.613542],[16.282758,7.660102],[16.370814,7.672504],[16.392208,7.783609],[16.450913,7.792084],[16.491737,7.849238],[16.548685,7.870012],[16.549305,7.794719],[16.613073,7.74821],[16.61421,7.679584],[16.709812,7.627753],[16.782365,7.541143],[16.853886,7.567498],[16.854816,7.611475],[16.880654,7.632869],[17.038991,7.662479],[17.059351,7.696534],[17.101932,7.677724],[17.250864,7.822831],[17.419122,7.898227],[17.466355,7.884119],[17.503665,7.926236],[17.580766,7.940602],[17.639884,7.985043],[17.858785,7.960445],[18.070452,8.019202],[18.508255,8.030674],[18.589283,8.047882],[18.638583,8.177642],[18.813042,8.276421],[19.020472,8.545578],[19.061296,8.625624],[19.124135,8.675079],[19.048687,8.745669],[18.929108,8.796544],[18.902959,8.84481],[18.869783,8.849409],[18.892727,8.897933],[18.917739,8.898812],[19.021919,8.985215],[19.10057,9.015265],[19.168783,9.002216],[19.253429,9.027951],[19.369391,9.000382],[19.420964,9.017435],[19.52132,9.008831],[19.613614,9.031672],[19.640072,9.013999],[19.784663,9.048751],[19.889463,9.046374],[19.914474,9.069267],[19.993022,9.084589],[20.006871,9.11022],[20.024338,9.089756],[20.060512,9.134353],[20.099372,9.13071],[20.109604,9.151174],[20.154563,9.116421],[20.212647,9.144973],[20.256985,9.116421],[20.359408,9.116421],[20.435166,9.138126],[20.481778,9.204659],[20.507203,9.213263],[20.496144,9.270882],[20.533661,9.289641],[20.541826,9.321629],[20.667916,9.302017],[20.654894,9.342971],[20.757937,9.377129],[20.801965,9.42555],[20.82615,9.418083],[20.841446,9.484409],[20.962265,9.606934],[20.983143,9.603678],[20.975804,9.630964],[20.996062,9.648301],[21.019936,9.747933],[21.105202,9.77403],[21.131971,9.849426],[21.195429,9.887305],[21.256924,9.975749],[21.27129,9.987247],[21.339503,9.95991],[21.374333,9.973113],[21.433348,10.046055],[21.513239,10.200515],[21.65628,10.233666],[21.688939,10.288908],[21.718808,10.296634],[21.720462,10.360816],[21.751054,10.41182],[21.705476,10.53202],[21.722632,10.636716],[21.822575,10.678755],[21.863606,10.667929],[21.925617,10.720122],[22.003855,10.743273],[22.018325,10.809884],[22.048607,10.836988],[22.176351,10.816214],[22.200639,10.868666],[22.253039,10.915304],[22.2765,10.908534],[22.318772,10.939359],[22.407035,10.963053],[22.447136,10.99827],[22.682677,10.974137],[22.861064,10.919154]]]}}]}
