{"type":"FeatureCollection","features":[{"type":"Feature","properties":{"name":"Republic of the Congo","ISO3166-1-Alpha-3":"COG","ISO3166-1-Alpha-2":"CG"},"geometry":{"type":"Polygon","coordinates":[[[18.626387,3.476869],[18.642407,3.323829],[18.613055,3.128182],[18.528409,3.064775],[18.393223,2.713686],[18.313745,2.575968],[18.233026,2.502587],[18.199126,2.389106],[18.111173,2.265289],[18.072416,2.160024],[18.071382,1.551457],[18.012264,1.421956],[17.956247,1.171661],[17.86664,1.016632],[17.907671,0.740473],[17.893202,0.607664],[17.949943,0.491496],[17.945498,0.377291],[17.854031,0.241072],[17.757086,-0.009456],[17.716365,-0.195801],[17.749541,-0.523429],[17.411474,-0.918341],[17.308018,-1.014976],[17.022557,-1.097038],[16.833215,-1.269017],[16.636224,-1.62083],[16.604185,-1.754052],[16.513958,-1.887377],[16.231288,-2.129016],[16.194598,-2.182036],[16.174857,-2.303062],[16.225603,-2.635239],[16.177028,-2.882459],[16.193357,-3.238406],[16.225603,-3.313233],[16.115533,-3.544227],[15.991096,-3.738944],[15.912134,-3.917434],[15.844231,-3.965597],[15.711216,-3.992158],[15.533759,-4.057994],[15.458932,-4.21385],[15.20396,-4.339011],[15.09792,-4.499931],[15.022783,-4.54706],[14.931005,-4.646899],[14.831167,-4.815054],[14.672727,-4.899907],[14.623324,-4.899493],[14.519868,-4.841305],[14.400702,-4.886264],[14.410934,-4.701056],[14.365769,-4.627262],[14.350783,-4.559049],[14.424576,-4.502308],[14.469742,-4.429341],[14.392744,-4.352756],[14.387059,-4.277102],[14.279986,-4.312759],[14.184694,-4.377458],[14.021087,-4.415388],[13.944502,-4.498071],[13.867091,-4.489286],[13.810454,-4.426654],[13.714956,-4.453009],[13.721777,-4.561012],[13.699091,-4.642661],[13.712475,-4.685656],[13.681934,-4.695371],[13.67532,-4.731751],[13.613101,-4.739193],[13.591397,-4.779397],[13.570727,-4.785908],[13.526182,-4.754282],[13.482257,-4.77485],[13.493522,-4.799654],[13.39265,-4.885334],[13.35875,-4.794797],[13.18212,-4.686069],[13.112357,-4.576929],[13.071532,-4.60163],[13.073703,-4.635323],[13.027194,-4.612172],[12.902447,-4.480191],[12.869891,-4.411978],[12.761681,-4.391204],[12.623808,-4.559255],[12.387026,-4.605454],[12.374107,-4.683176],[12.321914,-4.778157],[12.235201,-4.803995],[12.192206,-4.763481],[12.130815,-4.912929],[12.009608,-5.019631],[11.82021,-4.7848],[11.824069,-4.77236],[11.848424,-4.786044],[11.850367,-4.752839],[11.776906,-4.667878],[11.820163,-4.637281],[11.806409,-4.577118],[11.401403,-4.221366],[11.364757,-4.162774],[11.358246,-4.111912],[11.114016,-3.936856],[11.212524,-3.697293],[11.334688,-3.608616],[11.413959,-3.587635],[11.482585,-3.509294],[11.532712,-3.516528],[11.569815,-3.54495],[11.64919,-3.673315],[11.687638,-3.69874],[11.838326,-3.710935],[11.879977,-3.687164],[11.905505,-3.643549],[11.824994,-3.571202],[11.884835,-3.413279],[11.954908,-3.335454],[11.944366,-3.303208],[11.821893,-3.254839],[11.687534,-3.17102],[11.706448,-3.04989],[11.75368,-3.042345],[11.778381,-3.027153],[11.778381,-3.005655],[11.636788,-2.833263],[11.588419,-2.835433],[11.530748,-2.866749],[11.537466,-2.797709],[11.624386,-2.632758],[11.576533,-2.502533],[11.566198,-2.329727],[11.655908,-2.345644],[11.756057,-2.415097],[11.806597,-2.374169],[11.938372,-2.329107],[12.000693,-2.390602],[12.062292,-2.414994],[12.45927,-2.329934],[12.447901,-2.30792],[12.475496,-2.212422],[12.470225,-2.156301],[12.499784,-2.09553],[12.440046,-2.045817],[12.426921,-1.88407],[12.486555,-1.924894],[12.523452,-1.863296],[12.58319,-1.826502],[12.632386,-1.825159],[12.804572,-1.919107],[12.876299,-2.104935],[12.895109,-2.109793],[12.882707,-2.140798],[12.907098,-2.195369],[12.945649,-2.18245],[13.008177,-2.276501],[12.969006,-2.372412],[13.025024,-2.338202],[13.135198,-2.37696],[13.176849,-2.361974],[13.361024,-2.428843],[13.438952,-2.425432],[13.458899,-2.441039],[13.557601,-2.340476],[13.603386,-2.320012],[13.617442,-2.279601],[13.701571,-2.194749],[13.743171,-2.09708],[13.782755,-2.138008],[13.863887,-2.321459],[13.906158,-2.359803],[13.847661,-2.423055],[13.8458,-2.466567],[13.884971,-2.488477],[13.967033,-2.470597],[13.985637,-2.5015],[14.045582,-2.4861],[14.090023,-2.498606],[14.14418,-2.390189],[14.234407,-2.354946],[14.226966,-2.323113],[14.151208,-2.259034],[14.148004,-2.224824],[14.195857,-2.201777],[14.204332,-2.152167],[14.233787,-2.134494],[14.245053,-1.974814],[14.397291,-1.906808],[14.406696,-1.735552],[14.448761,-1.686253],[14.402976,-1.670853],[14.364839,-1.612045],[14.430364,-1.554891],[14.463127,-1.54869],[14.438426,-1.502595],[14.456306,-1.440169],[14.487725,-1.40937],[14.426333,-1.331029],[14.46075,-1.278009],[14.465814,-1.224369],[14.428297,-1.169488],[14.434395,-1.135072],[14.391814,-1.023347],[14.412794,-0.921545],[14.457133,-0.856122],[14.44597,-0.775714],[14.492169,-0.663369],[14.489999,-0.600944],[14.454239,-0.539553],[14.320603,-0.444468],[14.193066,-0.440437],[14.159683,-0.455113],[14.138289,-0.336361],[14.095398,-0.276623],[13.921558,-0.237865],[13.883421,-0.264944],[13.831228,-0.205413],[13.8427,-0.152289],[13.921145,-0.052967],[13.91298,-0.016587],[13.932927,0.022067],[13.894893,0.043668],[13.871225,0.196423],[13.945226,0.350419],[14.059121,0.435272],[14.045582,0.497283],[14.075967,0.539451],[14.231823,0.542552],[14.328768,0.621204],[14.33838,0.693912],[14.447624,0.81623],[14.437599,0.875142],[14.468088,0.913227],[14.400805,0.970329],[14.346442,1.087118],[14.28288,1.130113],[14.252184,1.330824],[14.14449,1.391622],[14.049509,1.376403],[14.00083,1.413016],[13.794744,1.434436],[13.75485,1.374336],[13.642247,1.357386],[13.543442,1.283489],[13.37694,1.294444],[13.25023,1.221787],[13.184911,1.22251],[13.150184,1.256617],[13.251263,1.337646],[13.239481,1.427976],[13.184911,1.496886],[13.182637,1.536548],[13.164447,1.53784],[13.129617,1.592462],[13.149977,1.636284],[13.150184,1.756302],[13.191008,1.828727],[13.162173,1.899833],[13.210232,1.956316],[13.206925,1.993575],[13.281132,2.044967],[13.294568,2.161058],[14.266963,2.152428],[14.320293,2.17067],[14.383649,2.162091],[14.432948,2.132119],[14.54705,2.166536],[14.562139,2.208807],[14.644821,2.154185],[14.636346,2.13832],[14.720476,2.099589],[14.720889,2.127597],[14.747864,2.113205],[14.727297,2.099589],[14.761403,2.099589],[14.764814,2.065456],[14.841192,2.075921],[14.857005,2.115944],[14.907338,2.058894],[14.892455,2.00639],[14.953846,2.005822],[14.980718,2.033107],[15.074873,1.979364],[15.117764,2.01701],[15.138538,2.011506],[15.151664,2.040988],[15.212642,2.039618],[15.295428,1.981534],[15.301629,1.943578],[15.337389,1.92146],[15.48291,1.97585],[15.706772,1.931976],[15.76465,1.908722],[15.80289,1.859965],[15.875651,1.823766],[15.889913,1.793277],[15.92588,1.804749],[15.94376,1.781624],[16.013833,1.771314],[16.021998,1.72279],[16.069851,1.654551],[16.114809,1.719069],[16.145092,1.714315],[16.159044,1.734805],[16.101373,1.932803],[16.06489,1.97895],[16.085767,2.149172],[16.12039,2.203329],[16.159251,2.18209],[16.207723,2.22307],[16.196665,2.236454],[16.479128,2.836314],[16.445538,2.95765],[16.490807,3.067824],[16.465485,3.156501],[16.511477,3.227246],[16.551682,3.419767],[16.598501,3.501674],[16.686351,3.542214],[16.833008,3.522861],[16.852645,3.532809],[16.853162,3.560094],[16.942252,3.553092],[16.968607,3.533481],[17.061418,3.56614],[17.197224,3.58172],[17.259442,3.625904],[17.334373,3.618514],[17.375714,3.663447],[17.458913,3.708276],[17.586761,3.632234],[17.793156,3.617506],[17.842146,3.540147],[17.919247,3.565597],[17.969476,3.537511],[18.082028,3.563453],[18.116444,3.552007],[18.146727,3.494904],[18.181556,3.477386],[18.220004,3.503947],[18.248529,3.574899],[18.379891,3.574382],[18.472081,3.632053],[18.570267,3.489607],[18.626387,3.476869]]]}}]}
