{"type":"FeatureCollection","features":[{"type":"Feature","properties":{"name":"Ivory Coast","ISO3166-1-Alpha-3":"CIV","ISO3166-1-Alpha-2":"CI"},"geometry":{"type":"MultiPolygon","coordinates":[[[[-7.989663,10.161991],[-7.929046,10.160957],[-7.829001,10.211652],[-7.778254,10.27834],[-7.764405,10.312912],[-7.777583,10.329862],[-7.735337,10.347096],[-7.736035,10.378282],[-7.679036,10.405929],[-7.664411,10.437142],[-7.556382,10.417272],[-7.501475,10.458639],[-7.46618,10.429494],[-7.444425,10.334202],[-7.372336,10.34477],[-7.363396,10.252192],[-7.106357,10.207259],[-7.040522,10.140054],[-7.015769,10.140881],[-6.95939,10.185503],[-6.997113,10.25276],[-6.96125,10.344874],[-6.862755,10.34384],[-6.782088,10.373037],[-6.700336,10.34167],[-6.668916,10.361022],[-6.647781,10.432698],[-6.683076,10.451689],[-6.697545,10.488301],[-6.669175,10.654157],[-6.633983,10.65302],[-6.598585,10.604909],[-6.537555,10.569692],[-6.445984,10.552251],[-6.402783,10.569123],[-6.399217,10.592481],[-6.435856,10.628706],[-6.427019,10.686093],[-6.341701,10.691442],[-6.25597,10.726478],[-6.246617,10.657619],[-6.204449,10.629611],[-6.238658,10.597985],[-6.231372,10.560235],[-6.261293,10.514088],[-6.190289,10.491144],[-6.200366,10.448769],[-6.180574,10.420218],[-6.206154,10.310819],[-6.240674,10.302576],[-6.240002,10.251933],[-6.105333,10.189276],[-6.015933,10.18987],[-5.963016,10.282733],[-5.904725,10.275291],[-5.904829,10.348284],[-5.87806,10.37606],[-5.806282,10.413474],[-5.594047,10.453937],[-5.505111,10.415567],[-5.474157,10.350325],[-5.437829,10.340016],[-5.402534,10.300561],[-5.327086,10.302576],[-5.296649,10.32304],[-5.217584,10.31994],[-5.168439,10.291337],[-5.135677,10.304282],[-5.111802,10.27865],[-5.117073,10.208034],[-5.084414,10.227439],[-5.090718,10.177933],[-5.06395,10.179044],[-5.070719,10.161009],[-5.039455,10.134344],[-5.070099,10.110159],[-5.042866,10.103338],[-5.048343,10.085355],[-5.015581,10.097111],[-4.963336,10.040319],[-4.960209,10.008486],[-4.981397,10.007737],[-4.952949,9.953373],[-4.966075,9.901025],[-4.928015,9.870949],[-4.898017,9.888907],[-4.83846,9.86945],[-4.817557,9.836455],[-4.798462,9.842527],[-4.775905,9.788008],[-4.810115,9.781781],[-4.796447,9.754496],[-4.769963,9.737365],[-4.738337,9.753153],[-4.681079,9.682072],[-4.604029,9.727159],[-4.57832,9.696515],[-4.552198,9.696464],[-4.539098,9.744703],[-4.509953,9.745065],[-4.515921,9.67569],[-4.50171,9.655019],[-4.409106,9.647733],[-4.371175,9.582956],[-4.365026,9.624168],[-4.315933,9.616623],[-4.303299,9.686723],[-4.267513,9.727263],[-4.283636,9.732017],[-4.196974,9.764961],[-4.150259,9.818291],[-4.053675,9.79762],[-3.994609,9.820771],[-3.984042,9.851157],[-3.910093,9.888493],[-3.804259,9.901386],[-3.755037,9.93588],[-3.679641,9.932211],[-3.661658,9.948929],[-3.606261,9.918181],[-3.389168,9.913246],[-3.348344,9.886995],[-3.317183,9.901335],[-3.301732,9.841132],[-3.277857,9.843457],[-3.21476,9.915623],[-3.200007,9.845369],[-3.136936,9.82953],[-3.094561,9.733851],[-2.989994,9.708427],[-2.910154,9.542726],[-2.810418,9.411106],[-2.763677,9.391883],[-2.689211,9.488724],[-2.672416,9.374028],[-2.714998,9.311061],[-2.659807,9.272898],[-2.661151,9.253907],[-2.755202,9.143138],[-2.774839,9.054978],[-2.660789,9.014903],[-2.63769,8.931471],[-2.619448,8.923617],[-2.595573,8.828067],[-2.617226,8.78918],[-2.598364,8.769466],[-2.506328,8.209267],[-2.558108,8.167694],[-2.610663,8.164852],[-2.610559,8.040001],[-2.690865,8.009745],[-2.771221,7.930732],[-2.790626,7.943289],[-2.801194,7.85022],[-2.840003,7.820247],[-2.941521,7.577161],[-2.990459,7.270668],[-2.972811,7.214961],[-3.032601,7.128352],[-3.040869,7.078329],[-3.109599,7.046393],[-3.224941,6.849402],[-3.243079,6.774756],[-3.210419,6.715999],[-3.262509,6.617142],[-3.183599,6.263908],[-3.139364,6.219286],[-3.087765,5.996689],[-3.022524,5.854502],[-3.029759,5.704252],[-2.964801,5.709782],[-2.974904,5.647279],[-2.945862,5.608289],[-2.877494,5.636815],[-2.806258,5.618495],[-2.785588,5.595034],[-2.730139,5.373162],[-2.742593,5.343138],[-2.789567,5.346858],[-2.79613,5.284976],[-2.778818,5.201001],[-2.75701,5.179866],[-2.766622,5.16103],[-2.843699,5.149115],[-2.846181,5.176988],[-2.946685,5.177069],[-2.943512,5.136786],[-2.977773,5.114976],[-3.062815,5.156643],[-3.13915,5.14232],[-3.205068,5.218655],[-3.172719,5.252183],[-3.159088,5.30744],[-3.127919,5.324897],[-3.127756,5.359605],[-3.146067,5.368842],[-3.262074,5.340888],[-3.246938,5.297593],[-3.282623,5.280178],[-3.289418,5.252183],[-3.240956,5.231676],[-3.320709,5.193508],[-3.30309,5.155707],[-3.275787,5.149115],[-3.312164,5.11994],[-3.710113,5.186103],[-3.721425,5.238511],[-3.748036,5.190131],[-3.827504,5.197577],[-3.98705,5.243964],[-4.001943,5.266506],[-3.96231,5.262437],[-3.932973,5.286933],[-3.902903,5.258979],[-3.899526,5.286933],[-3.77538,5.244778],[-3.782216,5.266506],[-3.728871,5.266506],[-3.715688,5.282294],[-3.758901,5.366197],[-3.804921,5.375963],[-3.814036,5.359809],[-3.735015,5.286933],[-3.743967,5.273993],[-3.796498,5.272691],[-3.866689,5.303616],[-3.878407,5.326646],[-3.891998,5.313625],[-3.906321,5.348375],[-3.920969,5.31623],[-4.009348,5.313625],[-3.940541,5.293158],[-3.989084,5.26911],[-4.125478,5.30744],[-4.160146,5.293402],[-4.200551,5.30744],[-4.241038,5.283922],[-4.255767,5.286933],[-4.248931,5.30744],[-4.274566,5.312405],[-4.321441,5.310981],[-4.351308,5.272691],[-4.392405,5.299994],[-4.423818,5.281562],[-4.426503,5.299994],[-4.463531,5.298245],[-4.481679,5.272691],[-4.453725,5.258979],[-4.543772,5.266506],[-4.563629,5.299994],[-4.557485,5.266506],[-4.612131,5.238511],[-4.651967,5.249172],[-4.687164,5.231676],[-4.714467,5.252183],[-4.667307,5.252183],[-4.687164,5.272691],[-4.673451,5.313625],[-4.702504,5.278306],[-4.749257,5.272691],[-4.722157,5.252265],[-4.803822,5.204413],[-4.808583,5.180487],[-4.74767,5.172349],[-4.742421,5.197577],[-4.704742,5.21133],[-4.55956,5.196967],[-4.536366,5.204413],[-4.571034,5.218004],[-4.530141,5.231676],[-4.522694,5.218004],[-4.412831,5.238511],[-4.40807,5.223619],[-4.385569,5.252183],[-4.305816,5.244574],[-4.183827,5.280178],[-4.060455,5.283352],[-4.029205,5.272691],[-4.070221,5.266506],[-3.995758,5.231676],[-4.620513,5.180732],[-4.892649,5.128648],[-4.982004,5.136135],[-4.968984,5.149115],[-4.99706,5.148749],[-5.009755,5.216051],[-5.112294,5.183295],[-5.157867,5.212226],[-5.321523,5.230211],[-5.338287,5.197577],[-5.297353,5.190131],[-5.338287,5.163479],[-5.338287,5.183295],[-5.359364,5.128648],[-5.40038,5.177069],[-5.40038,5.163479],[-5.41393,5.170315],[-5.398997,5.141995],[-5.308827,5.11815],[-5.269399,5.128648],[-5.338287,5.149115],[-5.28307,5.177069],[-5.18692,5.164252],[-5.180653,5.177069],[-5.228424,5.204413],[-5.181386,5.202338],[-5.120758,5.166978],[-5.033193,5.183295],[-5.002431,5.128648],[-5.495676,5.095282],[-5.550526,5.114976],[-5.57844,5.09455],[-5.550526,5.087714],[-5.630238,5.063218],[-5.851308,5.029975],[-6.412221,4.823879],[-6.441518,4.793931],[-6.583852,4.760403],[-6.62682,4.724595],[-6.903147,4.662014],[-7.058217,4.539008],[-7.232818,4.493313],[-7.456776,4.344062],[-7.540666,4.352845],[-7.573771,4.375393],[-7.572479,4.723356],[-7.579558,4.784283],[-7.606017,4.816193],[-7.6055,4.897428],[-7.574959,4.921561],[-7.549534,4.913887],[-7.575786,5.072069],[-7.546847,5.0977],[-7.515841,5.091809],[-7.488918,5.140669],[-7.475689,5.264228],[-7.439929,5.290169],[-7.418793,5.260455],[-7.389751,5.317144],[-7.396934,5.366444],[-7.429697,5.374298],[-7.449954,5.422771],[-7.408148,5.511784],[-7.419982,5.523127],[-7.393627,5.523979],[-7.41192,5.560359],[-7.384118,5.568964],[-7.449489,5.732364],[-7.446543,5.845949],[-7.478583,5.859876],[-7.494396,5.806184],[-7.527779,5.858842],[-7.559146,5.839851],[-7.584158,5.883699],[-7.680483,5.94093],[-7.717173,5.900752],[-7.786626,5.958165],[-7.800682,5.981729],[-7.786471,6.025111],[-7.809674,6.071207],[-7.861815,6.08149],[-7.846622,6.197478],[-7.91437,6.271737],[-8.033019,6.301761],[-8.170582,6.274011],[-8.29507,6.313363],[-8.302718,6.340648],[-8.352948,6.36106],[-8.411807,6.340028],[-8.423693,6.351991],[-8.405968,6.372248],[-8.419042,6.407646],[-8.405089,6.436327],[-8.418267,6.451209],[-8.467515,6.487073],[-8.497229,6.431366],[-8.556501,6.487021],[-8.61872,6.492835],[-8.351759,6.755351],[-8.316619,6.836276],[-8.333673,6.882578],[-8.319978,6.95999],[-8.286647,6.993786],[-8.302615,7.137602],[-8.387675,7.314955],[-8.425605,7.50192],[-8.44364,7.537112],[-8.485446,7.557989],[-8.414805,7.612921],[-8.390878,7.585791],[-8.303235,7.589305],[-8.228976,7.544295],[-8.098261,7.791877],[-8.131204,7.842416],[-8.128879,7.882569],[-8.079115,7.957655],[-8.069089,8.029278],[-8.011987,8.035557],[-7.962636,8.015171],[-8.021289,8.102659],[-8.003305,8.184049],[-8.085522,8.162035],[-8.182932,8.191672],[-8.265977,8.245984],[-8.235281,8.379515],[-8.254401,8.446514],[-8.200296,8.491834],[-7.970542,8.49695],[-7.898583,8.426283],[-7.848586,8.428634],[-7.845744,8.474316],[-7.823833,8.477856],[-7.77102,8.386518],[-7.720738,8.368534],[-7.662447,8.374865],[-7.689578,8.438659],[-7.679242,8.505089],[-7.696812,8.624849],[-7.803679,8.749054],[-7.958915,8.781997],[-7.96894,8.812848],[-7.931837,8.996558],[-7.827037,9.05782],[-7.746783,9.07645],[-7.847914,9.168563],[-7.929563,9.183885],[-7.865381,9.409918],[-7.91189,9.418651],[-7.991575,9.38532],[-8.054051,9.389092],[-8.157611,9.530866],[-8.123505,9.844852],[-8.128104,9.866246],[-8.150996,9.866143],[-8.14955,9.90534],[-8.173837,9.941875],[-8.140093,9.959703],[-8.15849,9.984921],[-8.127535,10.037115],[-8.03488,10.085794],[-7.989663,10.161991]]],[[[-3.115305,5.107815],[-3.119618,5.091335],[-3.276357,5.118109],[-3.23412,5.163479],[-3.115305,5.107815]]]]}}]}
