{"type":"FeatureCollection","features":[{"type":"Feature","properties":{"name":"Cook Islands","ISO3166-1-Alpha-3":"COK","ISO3166-1-Alpha-2":"CK"},"geometry":{"type":"MultiPolygon","coordinates":[[[[-157.93456,-21.877537],[-157.887074,-21.926365],[-157.927724,-21.938897],[-157.961049,-21.923923],[-157.96406,-21.900486],[-157.93456,-21.877537]]],[[[-157.707997,-19.767185],[-157.721669,-19.85589],[-157.742136,-19.80462],[-157.707997,-19.767185]]],[[[-157.940745,-8.980727],[-157.978627,-8.976007],[-158.00829,-8.952895],[-157.940745,-8.980727]]],[[[-159.797841,-21.18613],[-159.742747,-21.201593],[-159.743235,-21.254327],[-159.846262,-21.233819],[-159.83141,-21.195571],[-159.797841,-21.18613]]],[[[-157.312815,-20.155206],[-157.340321,-20.175714],[-157.348988,-20.143324],[-157.312815,-20.155206]]],[[[-158.078318,-19.994236],[-158.081776,-20.012791],[-158.115102,-20.01572],[-158.135203,-19.976495],[-158.078318,-19.994236]]],[[[-158.2683,-19.832615],[-158.281077,-19.821954],[-158.276357,-19.8235],[-158.2683,-19.832615]]],[[[-158.287668,-19.810642],[-158.293772,-19.816583],[-158.297353,-19.817315],[-158.287668,-19.810642]]],[[[-158.92516,-19.26922],[-158.955556,-19.245294],[-158.9322,-19.264255],[-158.92516,-19.26922]]],[[[-165.824534,-10.881768],[-165.811757,-10.880141],[-165.814036,-10.889093],[-165.824534,-10.881768]]],[[[-160.986236,-10.382094],[-160.996409,-10.371515],[-160.9381,-10.422784],[-160.986236,-10.382094]]],[[[-161.088002,-10.035089],[-161.070058,-10.027439],[-161.075551,-10.036391],[-161.088002,-10.035089]]],[[[-159.785105,-18.830824],[-159.761383,-18.845392],[-159.769683,-18.834324],[-159.793609,-18.887465],[-159.785105,-18.830824]]]]}}]}
