{"type":"FeatureCollection","features":[{"type":"Feature","properties":{"name":"Cameroon","ISO3166-1-Alpha-3":"CMR","ISO3166-1-Alpha-2":"CM"},"geometry":{"type":"Polygon","coordinates":[[[11.322078,2.16576],[9.990997,2.165605],[9.872141,2.211236],[9.810853,2.264876],[9.799571,2.341742],[9.819184,2.376939],[9.822927,2.562934],[9.874278,2.754543],[9.877778,2.881415],[9.903331,2.968329],[9.95574,3.050482],[9.90211,3.251695],[9.929454,3.271552],[9.88795,3.285224],[9.780935,3.436754],[9.6421,3.539049],[9.770763,3.61872],[9.819591,3.627875],[9.787608,3.637112],[9.706879,3.600531],[9.626231,3.600002],[9.6421,3.63467],[9.545909,3.819648],[9.594249,3.758205],[9.624278,3.75019],[9.662608,3.750718],[9.611013,3.770575],[9.589203,3.809638],[9.621104,3.874823],[9.659028,3.84101],[9.679698,3.836086],[9.689789,3.860582],[9.744477,3.819648],[9.738292,3.860582],[9.751964,3.860582],[9.682872,3.890448],[9.67628,3.909003],[9.764415,3.936347],[9.764415,3.957465],[9.664806,3.940375],[9.618907,3.960354],[9.639903,4.008775],[9.754568,4.135688],[9.703461,4.09394],[9.696625,4.114447],[9.628429,4.031928],[9.579356,4.013007],[9.559337,4.016791],[9.559581,4.039374],[9.545909,4.025702],[9.526622,4.035793],[9.498546,4.077216],[9.504242,4.100775],[9.478526,4.111396],[9.450369,4.080308],[9.532481,3.989447],[9.518565,3.970445],[9.490082,3.980658],[9.437999,4.030463],[9.422374,4.008368],[9.456554,3.984076],[9.450369,3.939765],[9.476899,3.915839],[9.41212,3.902167],[9.343516,3.915839],[9.313731,3.930854],[9.302582,3.964993],[9.326182,4.031928],[9.301443,4.026353],[9.250336,3.960842],[9.210704,3.96426],[9.196462,4.018866],[9.123383,4.01789],[8.971202,4.100775],[8.990977,4.217475],[8.918956,4.318061],[8.894786,4.460517],[8.93572,4.55329],[8.900564,4.521633],[8.901622,4.587388],[8.847016,4.639716],[8.835704,4.629625],[8.86671,4.582709],[8.867849,4.544582],[8.798595,4.601142],[8.812836,4.566352],[8.788422,4.541449],[8.724132,4.580471],[8.655121,4.738267],[8.645356,4.684068],[8.68572,4.561225],[8.722667,4.513129],[8.576671,4.491889],[8.570323,4.50967],[8.593761,4.532782],[8.570567,4.53856],[8.54835,4.507799],[8.510265,4.527045],[8.509939,4.568834],[8.525564,4.566352],[8.552094,4.614732],[8.525727,4.604438],[8.513682,4.64232],[8.573253,4.704088],[8.57838,4.804674],[8.612166,4.831877],[8.602245,4.881331],[8.638315,4.916781],[8.748282,5.12421],[8.798925,5.159635],[8.825693,5.295492],[8.815255,5.343499],[8.849775,5.432357],[8.844297,5.492353],[8.903932,5.595086],[8.819286,5.703451],[8.862177,5.752337],[8.845227,5.831041],[8.921708,5.904473],[8.982686,5.895765],[8.993849,5.944083],[9.136165,6.092523],[9.273315,6.202775],[9.341011,6.313983],[9.422866,6.339356],[9.453149,6.397673],[9.548957,6.443174],[9.60301,6.515185],[9.693031,6.531308],[9.788529,6.794754],[9.874622,6.787701],[10.142926,7.007687],[10.210828,6.879168],[10.495979,6.874672],[10.500733,6.912809],[10.537424,6.952135],[10.578661,7.130832],[10.620623,7.043757],[10.831876,6.94521],[10.877454,6.816097],[10.909391,6.784264],[11.002615,6.767262],[11.036721,6.740546],[11.097079,6.449117],[11.140384,6.43028],[11.255519,6.42997],[11.369828,6.455757],[11.41675,6.572003],[11.509767,6.612311],[11.533435,6.645099],[11.568885,6.739099],[11.566611,6.784187],[11.538086,6.8239],[11.561754,6.876067],[11.692495,6.991616],[11.741071,6.997507],[11.80887,7.071921],[11.872226,7.079362],[11.868918,7.127111],[11.780242,7.241058],[11.736627,7.263279],[12.021054,7.576231],[12.018987,7.718858],[12.192103,7.960652],[12.182594,8.093486],[12.236751,8.196994],[12.227036,8.386311],[12.271788,8.427781],[12.331319,8.424293],[12.403873,8.496537],[12.368836,8.609579],[12.42444,8.599786],[12.482524,8.623247],[12.557972,8.605677],[12.660395,8.659318],[12.708867,8.750914],[12.772946,8.759053],[12.794547,8.788612],[12.82824,9.019967],[12.822142,9.09681],[12.898416,9.262433],[12.891285,9.33199],[12.848394,9.359947],[12.855422,9.378111],[12.929009,9.416119],[12.982442,9.474591],[13.195453,9.542209],[13.262942,9.801728],[13.212712,9.870148],[13.246405,9.973475],[13.230179,10.045331],[13.247956,10.079412],[13.359784,10.100547],[13.434921,10.153412],[13.538791,10.62142],[13.744411,10.930497],[13.75485,11.016719],[13.820066,11.069274],[13.873189,11.166503],[13.98233,11.276264],[14.165471,11.238333],[14.232133,11.290294],[14.279159,11.301844],[14.368249,11.383001],[14.593765,11.496431],[14.616193,11.538677],[14.62136,11.629782],[14.541882,11.709829],[14.590665,11.783158],[14.627148,11.950073],[14.604307,12.03043],[14.668283,12.178069],[14.651539,12.193779],[14.610612,12.183547],[14.548497,12.241579],[14.562139,12.255842],[14.51439,12.28938],[14.51439,12.323538],[14.487105,12.337801],[14.188932,12.370409],[14.177356,12.545592],[14.064908,13.077988],[14.418169,13.081141],[14.504675,12.969003],[14.490102,12.873608],[14.549013,12.818211],[14.554801,12.766896],[14.569374,12.769403],[14.575265,12.744908],[14.618363,12.759196],[14.664458,12.715969],[14.709934,12.718243],[14.713654,12.65251],[14.734118,12.680416],[14.768845,12.633235],[14.819178,12.638816],[14.863826,12.495466],[14.849563,12.457019],[14.877469,12.447045],[14.908268,12.326897],[14.898036,12.152799],[14.964802,12.092441],[15.011827,12.108616],[15.049448,12.084586],[15.049448,12.011929],[15.081177,11.971673],[15.048311,11.962785],[15.063401,11.927283],[15.044177,11.877312],[15.079834,11.851216],[15.110943,11.782899],[15.083554,11.748173],[15.097197,11.727657],[15.076113,11.721456],[15.069395,11.660788],[15.135644,11.530822],[15.06061,11.416126],[15.049448,11.337268],[15.06309,11.309931],[15.033325,11.26027],[15.021233,11.182549],[15.035185,10.994627],[15.079007,10.898147],[15.065881,10.793115],[15.149907,10.623125],[15.138228,10.521659],[15.218326,10.487216],[15.278374,10.394276],[15.301422,10.311749],[15.476399,10.132742],[15.681244,9.991278],[15.439398,9.931695],[15.382968,9.930196],[15.155488,9.986523],[15.033015,9.942857],[14.898139,9.960478],[14.772566,9.921747],[14.440493,9.995308],[14.181697,9.978178],[14.119789,9.85201],[13.945949,9.652642],[14.321327,9.243158],[14.349542,9.168356],[14.793856,8.813623],[14.846049,8.810988],[14.89938,8.774323],[14.940101,8.729649],[14.955087,8.676216],[15.051928,8.643789],[15.183703,8.479148],[15.345347,8.13599],[15.440742,7.839419],[15.487871,7.804951],[15.562905,7.792445],[15.548952,7.630801],[15.419451,7.43655],[15.432784,7.389731],[15.403225,7.386372],[15.223908,7.247517],[15.186597,7.166334],[15.187527,7.088612],[15.136161,7.045308],[15.034565,6.776771],[14.932452,6.710289],[14.782177,6.393616],[14.772255,6.318323],[14.719029,6.257862],[14.576402,6.189778],[14.534957,6.190088],[14.430571,6.088079],[14.422509,6.051363],[14.387266,6.039038],[14.465711,5.920673],[14.530616,5.90592],[14.584773,5.923412],[14.617433,5.864966],[14.631075,5.738049],[14.590148,5.608289],[14.617433,5.495299],[14.592835,5.400033],[14.519868,5.290583],[14.539712,5.261799],[14.624461,5.224049],[14.658877,5.164544],[14.659498,4.997035],[14.686989,4.908875],[14.717272,4.622019],[14.779697,4.545047],[14.993947,4.413298],[15.063814,4.293434],[15.091202,4.121791],[15.189801,4.063112],[15.111253,4.019937],[15.025987,4.026086],[15.084898,3.885836],[15.171301,3.758971],[15.78563,3.107977],[15.913995,3.097952],[15.950065,3.061003],[15.977763,2.980956],[16.026236,2.978992],[16.092382,2.863289],[16.056208,2.759833],[16.062616,2.703195],[16.110468,2.701438],[16.090315,2.661906],[16.111502,2.5862],[16.090315,2.510494],[16.120907,2.389571],[16.186536,2.277692],[16.179715,2.246996],[16.207723,2.22307],[16.159251,2.18209],[16.140647,2.199815],[16.104371,2.193562],[16.063753,2.015873],[16.06489,1.97895],[16.135066,1.845315],[16.15584,1.719069],[16.114809,1.719069],[16.069851,1.654551],[16.021998,1.72279],[16.013833,1.771314],[15.94376,1.781624],[15.92588,1.804749],[15.889913,1.793277],[15.875651,1.823766],[15.80289,1.859965],[15.76465,1.908722],[15.706772,1.931976],[15.48291,1.97585],[15.337389,1.92146],[15.301629,1.943578],[15.295428,1.981534],[15.212642,2.039618],[15.151664,2.040988],[15.138538,2.011506],[15.117764,2.01701],[15.074873,1.979364],[14.980718,2.033107],[14.953846,2.005822],[14.892455,2.00639],[14.907338,2.058894],[14.857005,2.115944],[14.841192,2.075921],[14.764814,2.065456],[14.761403,2.099589],[14.727297,2.099589],[14.747864,2.113205],[14.720889,2.127597],[14.720476,2.099589],[14.636346,2.13832],[14.644821,2.154185],[14.562139,2.208807],[14.54705,2.166536],[14.432948,2.132119],[14.383649,2.162091],[14.320293,2.17067],[14.266963,2.152428],[13.294568,2.161058],[13.284646,2.242242],[13.242891,2.27149],[13.163827,2.283169],[13.04094,2.244205],[12.924771,2.264049],[12.867824,2.24498],[12.808189,2.264049],[12.749898,2.236712],[12.47839,2.295882],[12.384856,2.285908],[12.321604,2.314072],[12.202645,2.279552],[11.768149,2.280172],[11.657252,2.322495],[11.351637,2.300584],[11.322078,2.16576]]]}}]}
