{"type":"FeatureCollection","features":[{"type":"Feature","properties":{"name":"China","ISO3166-1-Alpha-3":"CHN","ISO3166-1-Alpha-2":"CN"},"geometry":{"type":"MultiPolygon","coordinates":[[[[78.917694,33.386258],[78.824263,33.461059],[78.781372,33.552785],[78.787263,33.808428],[78.721117,33.994386],[78.730109,34.079265],[78.903225,34.158123],[78.976192,34.217163],[78.988491,34.263129],[78.976192,34.309173],[78.922138,34.372296],[78.801732,34.415006],[78.664583,34.526421],[78.379432,34.578666],[78.296027,34.624658],[78.211381,34.848262],[78.148129,34.94314],[78.130042,35.055432],[78.001161,35.268908],[78.009843,35.347456],[78.055628,35.452876],[78.044259,35.491633],[77.985865,35.494165],[77.883132,35.431068],[77.834246,35.452152],[77.800346,35.495406],[77.760349,35.498093],[77.660613,35.458095],[77.512199,35.478456],[77.383731,35.471996],[77.281102,35.528013],[77.141265,35.525378],[77.039049,35.585013],[76.915026,35.583152],[76.842989,35.641288],[76.763407,35.647076],[76.676694,35.71379],[76.570757,35.751256],[76.55112,35.784018],[76.56528,35.865461],[76.537168,35.902513],[76.500167,35.871507],[76.432058,35.8605],[76.403119,35.830992],[76.166027,35.806239],[76.138122,35.826652],[76.114661,35.941787],[76.08996,35.978115],[75.953017,36.007261],[75.899997,36.063485],[75.901444,36.113611],[75.971517,36.155004],[75.97007,36.202339],[76.014409,36.230399],[75.96883,36.301971],[75.987434,36.421189],[75.976582,36.462633],[75.849768,36.644741],[75.64978,36.754037],[75.570508,36.766749],[75.50798,36.747629],[75.49258,36.720705],[75.431912,36.722928],[75.410518,36.747319],[75.377962,36.894287],[75.31347,36.928755],[75.195131,36.948883],[75.100149,36.994125],[74.924966,36.970871],[74.87236,36.907102],[74.853239,36.958985],[74.792571,37.015158],[74.719191,37.01645],[74.66245,37.054484],[74.542354,37.021669],[74.476622,37.083138],[74.38257,37.126572],[74.368308,37.167061],[74.456674,37.177318],[74.500083,37.23163],[74.59,37.243361],[74.623279,37.230804],[74.721464,37.297776],[74.794018,37.213931],[74.892307,37.231114],[74.951528,37.281291],[75.06842,37.312142],[75.091778,37.378443],[75.164125,37.400638],[74.891893,37.599205],[74.886106,37.653465],[74.965171,37.767463],[74.886106,37.83056],[74.913701,37.880841],[74.890756,37.897714],[74.880421,38.02166],[74.809935,38.053208],[74.790711,38.081449],[74.771074,38.29154],[74.838253,38.379416],[74.835773,38.455173],[74.760325,38.519975],[74.696453,38.52398],[74.64612,38.56111],[74.334201,38.666995],[74.221443,38.649709],[74.123361,38.669475],[74.084397,38.614027],[74.037269,38.598472],[74.058766,38.547028],[74.028897,38.527236],[73.932882,38.529665],[73.816403,38.586586],[73.736408,38.721669],[73.735892,38.800423],[73.680804,38.872977],[73.717185,38.918582],[73.809582,38.932663],[73.826119,38.976898],[73.70933,39.065472],[73.673776,39.142625],[73.607837,39.207324],[73.602256,39.235772],[73.643804,39.351294],[73.632642,39.448343],[73.838314,39.475679],[73.870457,39.546786],[73.921617,39.582133],[73.893505,39.710394],[73.829529,39.746981],[73.818574,39.786048],[73.976704,40.043603],[74.167596,40.10639],[74.333788,40.09373],[74.705755,40.331286],[74.862128,40.32617],[74.853859,40.35883],[74.787404,40.420738],[74.835359,40.511637],[75.002378,40.4473],[75.13808,40.463888],[75.19389,40.441254],[75.481832,40.614111],[75.559863,40.63287],[75.605648,40.569411],[75.617947,40.493964],[75.666936,40.450245],[75.638308,40.386115],[75.681819,40.291702],[75.772046,40.31015],[75.901858,40.298885],[75.962422,40.357331],[76.051616,40.390197],[76.151351,40.368131],[76.244162,40.441202],[76.273411,40.434122],[76.313512,40.343327],[76.476499,40.436138],[76.556391,40.56569],[76.609411,40.59711],[76.647859,40.764851],[76.762477,40.847017],[76.766818,40.944685],[76.860972,41.013208],[77.007733,41.044214],[77.118838,41.011658],[77.332985,41.02065],[77.503517,40.981066],[77.650278,40.997137],[77.831042,41.062973],[78.074955,41.039512],[78.190503,41.11775],[78.275356,41.228854],[78.34946,41.270402],[78.359692,41.287455],[78.339332,41.344041],[78.359899,41.377527],[78.51038,41.454422],[78.619211,41.478089],[78.658278,41.532453],[79.19592,41.729521],[79.282323,41.783497],[79.390844,41.772697],[79.610985,41.867626],[79.747514,41.879745],[79.783274,41.905092],[79.812833,41.97762],[79.842909,42.00183],[79.930862,42.023276],[80.231206,42.033689],[80.256527,42.084357],[80.224591,42.125569],[80.210328,42.189519],[80.249086,42.204893],[80.268413,42.237966],[80.196169,42.434594],[80.210535,42.490844],[80.162373,42.552391],[80.143769,42.644762],[80.248259,42.816199],[80.333938,42.817078],[80.548602,42.878469],[80.542918,42.916658],[80.373833,42.975182],[80.355126,43.000581],[80.368148,43.02846],[80.618469,43.134267],[80.731537,43.101091],[80.773395,43.112925],[80.793445,43.14946],[80.748487,43.275163],[80.64286,43.32622],[80.694227,43.394717],[80.712727,43.458873],[80.476152,43.910241],[80.423132,43.972149],[80.403805,44.04894],[80.338899,44.121494],[80.373213,44.230996],[80.330424,44.45305],[80.383755,44.602808],[80.355849,44.652883],[80.491965,44.701717],[80.492275,44.727969],[80.244745,44.815974],[79.991737,44.793649],[79.868644,44.849357],[79.843012,44.873489],[79.858205,44.90372],[80.103358,45.032188],[80.390059,45.045779],[80.445353,45.104225],[80.53682,45.101072],[80.69712,45.143654],[80.853855,45.126497],[81.54203,45.293309],[81.665227,45.347982],[81.739279,45.338061],[81.765169,45.307727],[81.793643,45.19564],[81.950119,45.144481],[82.245295,45.231814],[82.341826,45.20489],[82.475823,45.115697],[82.539747,45.123655],[82.614574,45.248557],[82.631989,45.415834],[82.51303,45.465753],[82.362652,45.481204],[82.291493,45.533191],[82.372212,45.73416],[82.488949,45.901695],[82.568272,46.19651],[82.674364,46.331127],[82.838953,46.732446],[82.985508,46.94251],[83.021475,47.205905],[83.150356,47.211538],[83.524493,47.067102],[83.905348,46.973956],[84.069628,46.964421],[84.158149,46.993102],[84.265843,47.00013],[84.521021,46.969796],[84.663545,46.983852],[84.751602,46.91799],[84.749586,46.882462],[84.715531,46.835179],[84.739613,46.814766],[84.916036,46.850552],[84.975774,46.901996],[85.048224,46.920703],[85.225836,47.041574],[85.498636,47.051832],[85.556824,47.178749],[85.65966,47.206525],[85.678987,47.274893],[85.670357,47.384344],[85.584574,47.492942],[85.595426,47.624071],[85.515379,47.92028],[85.586383,48.141249],[85.718674,48.358832],[85.783683,48.407589],[86.005995,48.429551],[86.19203,48.418234],[86.307372,48.483088],[86.430621,48.485879],[86.565083,48.527323],[86.605545,48.59011],[86.751996,48.715426],[86.739181,48.783535],[86.789462,48.839139],[86.718045,48.912519],[86.709415,48.954222],[86.743521,49.007707],[86.859483,49.105324],[86.975445,49.092405],[87.116315,49.129767],[87.400432,49.071011],[87.47557,49.087599],[87.506059,49.120879],[87.816324,49.165837],[87.835548,49.100725],[87.821905,49.02874],[87.872238,49.00409],[87.8726,48.96802],[87.756896,48.920374],[87.737879,48.86937],[87.796067,48.839759],[87.821078,48.788289],[87.975488,48.755992],[88.05941,48.708087],[88.055018,48.673413],[87.942828,48.599489],[87.983032,48.552335],[88.304873,48.469006],[88.416701,48.394101],[88.50269,48.392551],[88.565116,48.342993],[88.56124,48.268269],[88.596225,48.197679],[88.709189,48.166363],[88.805411,48.105954],[88.916825,48.105954],[89.045551,47.992989],[89.218719,47.976969],[89.354266,48.038774],[89.425425,48.021644],[89.5418,48.031023],[89.571876,48.020455],[89.583245,47.962035],[89.627376,47.943948],[89.655282,47.899816],[89.723391,47.878164],[89.751296,47.824317],[89.889066,47.824317],[89.934438,47.844264],[89.946685,47.883177],[90.044612,47.879766],[90.064352,47.85062],[90.052157,47.8107],[90.082852,47.756104],[90.163416,47.710009],[90.3448,47.658642],[90.327437,47.623037],[90.381594,47.538391],[90.441228,47.493045],[90.448153,47.404033],[90.487221,47.378194],[90.46872,47.308922],[90.712116,47.014702],[90.742399,46.991861],[90.828182,46.982301],[90.885129,46.944733],[90.936495,46.864427],[90.925333,46.813139],[91.004812,46.74043],[91.01556,46.703197],[90.995923,46.594625],[91.047496,46.566409],[90.935772,46.343865],[90.896188,46.302033],[90.948794,46.168294],[90.995923,46.113724],[91.002435,46.021843],[90.710773,45.752196],[90.651138,45.493142],[90.753251,45.42095],[90.796556,45.292844],[90.866629,45.25357],[90.857637,45.215071],[90.873243,45.186184],[91.056798,45.217551],[91.135036,45.197862],[91.184336,45.153834],[91.249138,45.129701],[91.366547,45.11425],[91.43848,45.146134],[91.533978,45.0711],[91.662963,45.059525],[92.042991,45.074821],[92.218898,45.010122],[92.285354,45.019527],[92.475109,44.997461],[92.847593,45.039112],[92.945055,45.005833],[93.165713,45.007642],[93.244158,44.981545],[93.341,44.984852],[93.420582,44.955087],[93.525278,44.951263],[93.714,44.874575],[93.927424,44.672933],[94.058579,44.651281],[94.181879,44.660841],[94.27748,44.589579],[94.338458,44.512116],[94.430132,44.504468],[94.588055,44.4361],[94.69823,44.343496],[95.036814,44.254974],[95.397722,44.280502],[95.322688,44.158236],[95.318967,44.017108],[95.510273,43.979125],[95.535284,43.95768],[95.692484,43.630542],[95.832837,43.408902],[95.874385,43.247103],[96.318699,42.910069],[96.357767,42.724499],[97.193271,42.78726],[99.474476,42.564199],[100.016975,42.676518],[101.21871,42.529834],[101.524945,42.537456],[101.637599,42.515442],[101.735371,42.461156],[101.886473,42.278015],[101.97422,42.20789],[102.034164,42.18461],[103.073481,42.004517],[103.691427,41.759235],[104.500784,41.870598],[104.504918,41.656554],[104.892336,41.644772],[104.97383,41.586145],[105.014809,41.596144],[105.200896,41.743474],[105.358199,41.785848],[105.868607,41.993484],[106.767829,42.286619],[108.177355,42.454309],[108.319775,42.432553],[108.536455,42.435111],[108.796852,42.398369],[108.961287,42.447539],[109.253414,42.425939],[109.485131,42.449296],[109.667342,42.54898],[109.912701,42.62882],[110.060186,42.638355],[110.139871,42.682615],[110.406728,42.768605],[110.449413,42.837335],[110.608163,42.944667],[110.680096,43.057657],[110.973412,43.3156],[111.338558,43.438177],[111.401396,43.475513],[111.567691,43.50254],[111.753829,43.663202],[111.845813,43.666922],[111.933353,43.696636],[111.944309,43.786372],[111.838785,43.938792],[111.634457,44.065942],[111.543816,44.156737],[111.49059,44.282621],[111.410595,44.326081],[111.397055,44.387369],[111.424134,44.448037],[111.538235,44.58343],[111.551361,44.69319],[111.738533,44.9663],[111.843333,45.039526],[111.958261,45.084536],[112.412807,45.066036],[112.523912,44.993275],[112.586027,44.923822],[112.748497,44.865273],[113.104858,44.794373],[113.473208,44.770705],[113.604776,44.739699],[113.889306,44.908268],[114.01705,44.927285],[114.089294,44.961753],[114.149342,45.030069],[114.418886,45.20148],[114.502292,45.303231],[114.533711,45.3855],[114.703313,45.427151],[114.938855,45.373769],[115.33728,45.394698],[115.667389,45.454281],[116.002149,45.675559],[116.094856,45.676541],[116.169891,45.709097],[116.251643,45.803252],[116.207098,45.88087],[116.213195,45.908155],[116.357166,46.105559],[116.525114,46.226792],[116.568316,46.290871],[116.722002,46.328698],[116.814606,46.38673],[116.957853,46.366422],[117.337468,46.357275],[117.369197,46.475691],[117.412502,46.524629],[117.393795,46.57137],[117.510067,46.578476],[117.568151,46.603539],[117.625202,46.535662],[117.673365,46.516025],[117.797595,46.520262],[117.900638,46.607596],[118.005541,46.626974],[118.268987,46.722937],[118.472799,46.685679],[118.60938,46.705781],[118.720071,46.676739],[118.846523,46.765493],[118.890551,46.713532],[118.967239,46.740456],[119.036951,46.668729],[119.316934,46.611678],[119.501263,46.628008],[119.623478,46.616329],[119.680116,46.591628],[119.740267,46.613254],[119.782228,46.655629],[119.85442,46.65966],[119.907027,46.718312],[119.883101,46.753013],[119.902893,46.842413],[119.881447,46.872851],[119.896433,46.898586],[119.852301,46.910729],[119.770136,46.992998],[119.753961,47.094439],[119.699959,47.159526],[119.587356,47.238358],[119.525086,47.250812],[119.475994,47.309206],[119.320654,47.40703],[119.281897,47.414859],[119.31776,47.462117],[119.310112,47.476095],[119.133896,47.527539],[119.08346,47.661562],[118.767406,47.756156],[118.542252,47.966246],[118.472799,47.989449],[118.280046,47.998131],[118.182481,48.028206],[117.972778,47.997898],[117.766899,47.993144],[117.527224,47.78649],[117.43648,47.730499],[117.360826,47.650865],[117.317107,47.654069],[117.069681,47.810158],[116.822047,47.876304],[116.49969,47.836358],[116.243891,47.862894],[116.084314,47.806928],[115.9729,47.709053],[115.914506,47.683912],[115.852701,47.705565],[115.575715,47.909738],[115.51422,48.131637],[115.799991,48.242328],[115.786555,48.49301],[115.800404,48.530372],[116.028194,48.767464],[116.048038,48.799761],[116.037806,48.870145],[116.684278,49.823265],[117.057588,49.672886],[117.252925,49.62245],[117.47286,49.614285],[117.758838,49.512741],[117.836869,49.50902],[117.873766,49.513206],[117.930713,49.567312],[118.188475,49.681258],[118.229403,49.729214],[118.37296,49.786316],[118.393734,49.820009],[118.477037,49.835977],[118.521272,49.894062],[118.644365,49.954575],[118.741465,49.953076],[118.923779,49.991627],[119.091676,49.986562],[119.208516,50.015139],[119.31621,50.092654],[119.34396,50.142419],[119.33378,50.27626],[119.365509,50.310832],[119.356621,50.340753],[119.17534,50.356101],[119.180508,50.369795],[119.141234,50.376616],[119.137565,50.392532],[119.243656,50.445501],[119.293576,50.599238],[119.373726,50.64275],[119.391658,50.67205],[119.442817,50.685073],[119.496664,50.737059],[119.514854,50.79194],[119.497491,50.835916],[119.52798,50.866767],[119.517955,50.904801],[119.740835,51.071535],[119.758147,51.158015],[119.785432,51.171658],[119.762178,51.21504],[119.814991,51.215893],[119.819642,51.274727],[119.915657,51.330744],[119.895296,51.383971],[119.952864,51.397665],[119.982733,51.442158],[119.977203,51.487013],[120.052909,51.552203],[120.056733,51.596387],[120.100452,51.659949],[120.165616,51.668553],[120.319301,51.77604],[120.464822,51.840196],[120.493141,51.875724],[120.566315,51.905334],[120.647602,51.911019],[120.710905,51.988327],[120.697314,52.04871],[120.77917,52.117595],[120.783201,52.161985],[120.751265,52.202965],[120.758086,52.237407],[120.65494,52.299109],[120.626156,52.346806],[120.69039,52.439126],[120.72398,52.542169],[120.454022,52.639036],[120.175951,52.583742],[120.079368,52.589969],[120.033789,52.625368],[120.052909,52.693012],[120.032962,52.760657],[120.280182,52.865922],[120.450301,53.008342],[120.614787,53.09707],[120.714058,53.185049],[120.82387,53.235227],[120.825989,53.261866],[120.874255,53.28016],[121.203485,53.276749],[121.340996,53.323646],[121.512148,53.329821],[121.64103,53.384908],[121.888973,53.43059],[122.081623,53.429505],[122.168698,53.469141],[122.316751,53.496012],[122.401603,53.45095],[122.859663,53.473946],[123.002548,53.507329],[123.153599,53.513117],[123.252559,53.567791],[123.340254,53.561435],[123.481537,53.518078],[123.494766,53.560091],[123.514404,53.562416],[123.547476,53.540506],[123.519571,53.51999],[123.541895,53.514099],[123.614294,53.563347],[123.701782,53.510068],[123.850197,53.494979],[123.970551,53.455188],[124.01737,53.407025],[124.121808,53.352688],[124.182218,53.378552],[124.253066,53.375503],[124.383704,53.246131],[124.500493,53.213678],[124.651595,53.208769],[124.688285,53.193602],[124.72017,53.148824],[124.801353,53.155155],[124.870135,53.108],[124.896231,53.117663],[124.879178,53.153863],[124.897678,53.185514],[125.073688,53.212205],[125.476506,53.083505],[125.521309,53.042422],[125.621355,53.062137],[125.65019,53.02338],[125.733545,52.981651],[125.71985,52.946304],[125.660939,52.919355],[125.64647,52.884887],[125.837363,52.90672],[125.863717,52.888582],[125.867438,52.849359],[125.976941,52.764997],[126.017817,52.782387],[126.088045,52.77541],[126.104065,52.754455],[126.035128,52.727119],[126.068615,52.679886],[125.98278,52.65304],[125.973168,52.631569],[125.990842,52.58643],[126.028049,52.566379],[126.082774,52.593354],[126.212327,52.533048],[126.200338,52.467083],[126.275992,52.463285],[126.350716,52.376907],[126.315731,52.316213],[126.43929,52.275286],[126.312217,52.22795],[126.316713,52.199761],[126.53117,52.152658],[126.555975,52.130643],[126.514427,52.042535],[126.467092,52.031657],[126.43929,51.997861],[126.647907,51.741261],[126.725577,51.708731],[126.707335,51.685632],[126.723717,51.635893],[126.676898,51.576595],[126.807432,51.53422],[126.830377,51.508123],[126.792705,51.459056],[126.800301,51.418956],[126.909442,51.391102],[126.897505,51.361956],[126.827018,51.338986],[126.808983,51.289067],[126.84588,51.251472],[126.869909,51.251731],[126.899365,51.316507],[126.972177,51.324],[126.977758,51.29656],[126.905153,51.208116],[126.931766,51.063783],[127.032328,50.972445],[127.144259,50.903509],[127.220741,50.788167],[127.287352,50.751012],[127.288953,50.675151],[127.343989,50.627764],[127.367088,50.577792],[127.288953,50.466016],[127.35851,50.415115],[127.330656,50.328195],[127.354634,50.298636],[127.590641,50.208719],[127.570177,50.130223],[127.486668,50.02563],[127.494419,49.973178],[127.534003,49.922484],[127.506718,49.844297],[127.538654,49.789934],[127.644281,49.767144],[127.679989,49.739187],[127.703605,49.660639],[127.854655,49.584881],[127.920698,49.581109],[127.96793,49.603227],[128.067149,49.546693],[128.198304,49.538993],[128.26786,49.558785],[128.344755,49.547985],[128.383512,49.579352],[128.628665,49.575321],[128.671866,49.611443],[128.801678,49.565141],[128.799507,49.531861],[128.754135,49.502458],[128.76013,49.470883],[128.879192,49.47972],[128.998151,49.441273],[129.066881,49.361639],[129.115354,49.348772],[129.21788,49.390785],[129.340973,49.341175],[129.373219,49.369856],[129.378697,49.425046],[129.480603,49.421274],[129.527732,49.384842],[129.551813,49.290481],[129.711183,49.274151],[129.741775,49.195706],[129.841511,49.167181],[129.841511,49.1092],[129.920679,49.081863],[129.926467,49.025691],[129.974216,49.015149],[130.201799,48.882599],[130.249341,48.864512],[130.439717,48.8965],[130.5409,48.853453],[130.674328,48.870817],[130.529738,48.616258],[130.620171,48.5605],[130.626373,48.482261],[130.715876,48.499056],[130.758974,48.485724],[130.743265,48.411594],[130.82512,48.317775],[130.819436,48.281886],[130.773857,48.244188],[130.752773,48.189618],[130.674742,48.135926],[130.674742,48.063941],[130.906976,47.884262],[130.941702,47.820596],[130.941805,47.717967],[131.023351,47.682284],[131.103863,47.676548],[131.418366,47.742617],[131.507766,47.721533],[131.603264,47.661536],[131.702999,47.69616],[131.914046,47.667634],[132.025357,47.697865],[132.161679,47.69001],[132.332418,47.736519],[132.524655,47.707528],[132.574161,47.739594],[132.576434,47.794241],[132.668005,47.881316],[132.660357,47.931339],[132.67462,47.950614],[132.722472,47.958934],[132.805878,47.936197],[132.940753,48.026708],[133.032841,48.056758],[133.091958,48.10678],[133.223733,48.125978],[133.301455,48.101277],[133.524387,48.095438],[133.55994,48.113292],[133.59384,48.164193],[133.670218,48.18998],[133.737914,48.251087],[133.966427,48.278656],[134.057171,48.32718],[134.38635,48.381337],[134.471306,48.339893],[134.542619,48.357308],[134.611349,48.285426],[134.718733,48.263412],[134.687417,48.219849],[134.682972,48.135513],[134.586441,48.06115],[134.559362,48.009525],[134.601324,47.944129],[134.587681,47.925913],[134.657754,47.886691],[134.676461,47.824317],[134.769789,47.741015],[134.772579,47.710732],[134.692894,47.648901],[134.682662,47.587846],[134.556882,47.471186],[134.484638,47.430181],[134.414978,47.439224],[134.312866,47.42013],[134.245066,47.355095],[134.183571,47.3275],[134.154116,47.257892],[134.197214,47.205337],[134.189773,47.172936],[134.22729,47.117745],[134.197111,47.085163],[134.124247,47.070513],[134.06916,46.981242],[134.062752,46.906854],[134.016657,46.819469],[134.044665,46.772004],[134.014796,46.665034],[133.988028,46.625166],[133.902452,46.573644],[133.89191,46.52897],[133.845814,46.470653],[133.854393,46.44466],[133.933871,46.390761],[133.863384,46.339291],[133.874443,46.319784],[133.915991,46.312988],[133.89377,46.301878],[133.902452,46.258986],[133.855323,46.236559],[133.830105,46.196871],[133.793518,46.214286],[133.741014,46.159044],[133.687374,46.141836],[133.720034,46.063753],[133.658125,45.93451],[133.617611,45.936267],[133.585882,45.876322],[133.514362,45.879268],[133.477258,45.820098],[133.511364,45.778551],[133.443048,45.709666],[133.4878,45.68667],[133.456691,45.648791],[133.477258,45.627707],[133.427649,45.615253],[133.413489,45.573343],[133.374835,45.573085],[133.179808,45.493813],[133.133196,45.419606],[133.10188,45.287211],[133.09754,45.243544],[133.127202,45.155384],[133.09878,45.10779],[132.966178,45.028881],[132.92122,45.027899],[132.839777,45.059163],[131.968823,45.233984],[131.914563,45.260133],[131.853068,45.337596],[131.785268,45.304729],[131.723153,45.215329],[131.627758,45.198483],[131.605227,45.164635],[131.622384,45.123655],[131.609052,45.089704],[131.433765,44.961288],[131.329482,44.967644],[131.17652,44.90341],[131.110064,44.919533],[131.051566,44.909043],[131.024798,44.862431],[130.933434,44.841708],[130.930127,44.824965],[131.021387,44.746882],[131.065829,44.682028],[131.264473,44.054211],[131.217758,44.016074],[131.206699,43.974785],[131.217344,43.908484],[131.170319,43.781101],[131.192023,43.588633],[131.160707,43.53277],[131.274292,43.451199],[131.280906,43.380221],[131.247937,43.344203],[131.237705,43.265836],[131.169078,43.201705],[131.183961,43.120806],[131.078335,43.031819],[131.103036,42.910431],[131.023868,42.896272],[130.992448,42.848729],[130.769516,42.865808],[130.734893,42.824493],[130.586478,42.817258],[130.407161,42.735377],[130.379669,42.696671],[130.40375,42.677551],[130.503899,42.67781],[130.571906,42.621818],[130.584515,42.568901],[130.530771,42.53048],[130.501419,42.610785],[130.455117,42.585154],[130.471033,42.569754],[130.452533,42.549342],[130.431242,42.561512],[130.427728,42.599365],[130.324789,42.650292],[130.262674,42.708609],[130.243037,42.743361],[130.256473,42.866894],[130.239006,42.90224],[130.098756,42.921516],[130.130485,42.959472],[130.121494,42.981848],[130.008219,42.960557],[129.934115,43.00841],[129.879751,42.996033],[129.907037,42.976138],[129.851743,42.961901],[129.757278,42.734705],[129.757588,42.703648],[129.787561,42.676854],[129.776709,42.647191],[129.741569,42.629001],[129.763066,42.606238],[129.736504,42.585154],[129.728856,42.475858],[129.703328,42.442372],[129.591707,42.447953],[129.587676,42.411366],[129.535173,42.36956],[129.434094,42.441106],[129.386241,42.428109],[129.340146,42.445472],[129.352135,42.420616],[129.326504,42.426765],[129.303766,42.389584],[129.23607,42.374366],[129.236276,42.323878],[129.193902,42.318245],[129.228008,42.297729],[129.180776,42.243107],[129.211162,42.219956],[129.119798,42.149366],[129.064711,42.153759],[129.026574,42.101876],[128.963838,42.088517],[128.940067,42.035368],[128.720959,42.04759],[128.70928,42.030175],[128.607891,42.030175],[128.56438,42.000797],[128.502368,41.996094],[128.261969,42.032862],[128.034593,41.993743],[128.020433,41.965062],[128.047822,41.863983],[128.091023,41.841737],[128.159133,41.711822],[128.25091,41.66012],[128.303,41.583406],[128.185695,41.404451],[128.14611,41.376339],[128.103943,41.379129],[128.118205,41.393444],[128.103943,41.399593],[128.064152,41.388431],[128.050612,41.420729],[128.015162,41.413287],[128.001416,41.470855],[127.974235,41.450339],[127.944211,41.470855],[127.881475,41.460881],[127.848868,41.431322],[127.662677,41.44698],[127.638338,41.429875],[127.558808,41.458246],[127.542891,41.491319],[127.305128,41.494678],[127.269058,41.504961],[127.28978,41.518552],[127.28146,41.531058],[127.207098,41.545941],[127.17971,41.51695],[127.134648,41.522014],[127.104675,41.537414],[127.17971,41.585163],[127.058993,41.643299],[127.048968,41.677741],[127.076615,41.68079],[127.042664,41.732648],[126.946132,41.766186],[126.929802,41.801041],[126.887118,41.784918],[126.864793,41.747272],[126.808879,41.729831],[126.788622,41.695906],[126.727282,41.736911],[126.679482,41.735981],[126.727954,41.701254],[126.669301,41.667122],[126.617883,41.665933],[126.567034,41.614154],[126.577266,41.561805],[126.501301,41.434371],[126.522127,41.351947],[126.487659,41.344403],[126.501301,41.366107],[126.472518,41.36652],[126.440892,41.348382],[126.274752,41.15258],[126.123753,41.07553],[126.138171,41.056978],[126.104065,41.009178],[126.075643,40.997085],[126.045515,40.944685],[125.980558,40.913628],[126.010013,40.913886],[126.007843,40.899313],[125.936168,40.877403],[125.885215,40.897505],[125.821963,40.869755],[125.760933,40.885671],[125.644816,40.810585],[125.682643,40.768882],[125.609935,40.761286],[125.571746,40.784902],[125.546476,40.725939],[125.469065,40.712917],[125.452993,40.673384],[125.418887,40.666563],[125.413254,40.631785],[125.293313,40.648579],[125.256106,40.615041],[125.025112,40.534374],[125.015294,40.508278],[125.041287,40.461097],[124.935299,40.455568],[124.895508,40.483628],[124.800837,40.394073],[124.741202,40.370353],[124.71247,40.310305],[124.570877,40.252428],[124.358246,40.089057],[124.361339,40.011176],[124.2942,39.933783],[124.137218,39.842353],[124.118175,39.833157],[124.088145,39.851874],[123.985688,39.810248],[123.942149,39.840562],[123.887543,39.822903],[123.807628,39.837592],[123.773041,39.818345],[123.643077,39.878567],[123.656749,39.919501],[123.630951,39.903998],[123.591401,39.784329],[123.563243,39.768785],[123.513194,39.797797],[123.427745,39.72663],[123.408458,39.745998],[123.417084,39.82453],[123.386729,39.789618],[123.314057,39.776109],[123.252045,39.817084],[123.23585,39.802436],[123.265391,39.754096],[123.204194,39.745063],[123.269135,39.707587],[123.223155,39.679755],[123.128429,39.664862],[123.108002,39.690131],[123.009125,39.680487],[122.977631,39.666246],[122.996349,39.649644],[122.964122,39.61164],[122.848643,39.617865],[122.779796,39.560452],[122.688243,39.518622],[122.648448,39.532416],[122.587901,39.466986],[122.562104,39.486762],[122.555431,39.456],[122.469819,39.416693],[122.396332,39.411038],[122.29005,39.350979],[122.267426,39.31802],[122.251475,39.323676],[122.240245,39.285631],[122.115001,39.200751],[122.104503,39.159125],[122.16269,39.146145],[122.047862,39.099189],[122.042328,39.059719],[121.988048,39.062934],[121.942963,39.036282],[121.888438,39.042467],[121.923188,39.008979],[121.826915,39.036282],[121.895274,38.981024],[121.871349,38.950629],[121.811534,38.972846],[121.772472,39.021959],[121.724701,39.030178],[121.73878,39.001532],[121.635753,38.995307],[121.656016,38.990627],[121.652599,38.963446],[121.587413,38.94009],[121.693614,38.909613],[121.6963,38.862942],[121.552745,38.85814],[121.484955,38.809882],[121.344737,38.814643],[121.287608,38.788072],[121.236664,38.798489],[121.21754,38.77558],[121.244721,38.77558],[121.179535,38.720933],[121.114513,38.768134],[121.139252,38.789496],[121.114513,38.85814],[121.152354,38.886298],[121.086192,38.905707],[121.117931,38.943427],[121.179535,38.954332],[121.219493,38.940497],[121.334321,38.968573],[121.334239,39.026597],[121.374848,39.044176],[121.428071,39.014716],[121.467296,39.015123],[121.674083,39.088039],[121.681,39.13642],[121.641938,39.176215],[121.592621,39.192206],[121.607921,39.200751],[121.601654,39.221259],[121.633067,39.236151],[121.589939,39.264054],[121.680186,39.275214],[121.736095,39.311754],[121.731293,39.330471],[121.779796,39.371487],[121.837494,39.364651],[121.942963,39.399359],[121.931244,39.417182],[121.848888,39.387356],[121.707774,39.395657],[121.717784,39.371487],[121.52589,39.364651],[121.491954,39.388983],[121.436046,39.508612],[121.354015,39.522203],[121.306163,39.501776],[121.223399,39.528632],[121.306163,39.597968],[121.449805,39.615098],[121.463878,39.645819],[121.498165,39.652924],[121.533295,39.622301],[121.52589,39.652655],[121.550141,39.678656],[121.506847,39.694322],[121.457286,39.748481],[121.484612,39.764005],[121.470714,39.810248],[121.509917,39.824031],[121.535899,39.861762],[121.616093,39.871701],[121.684906,39.922512],[121.774425,39.920844],[121.809662,39.965033],[121.87379,39.9914],[121.874766,40.016303],[121.826915,40.022528],[121.929468,40.077286],[121.933116,40.101386],[121.995668,40.123895],[122.006358,40.156317],[121.991466,40.186998],[122.091646,40.227207],[122.106116,40.310123],[122.211029,40.380601],[122.203624,40.427232],[122.250092,40.430609],[122.251475,40.453925],[122.30185,40.502346],[122.224864,40.578518],[122.150434,40.603864],[122.137586,40.62402],[122.167979,40.65351],[122.159434,40.701606],[122.121837,40.680121],[122.049083,40.74608],[121.851085,40.832261],[121.825938,40.948188],[121.867931,40.995795],[121.777709,40.934972],[121.780056,40.90791],[121.739552,40.849079],[121.575043,40.841498],[121.361339,40.939643],[121.299327,40.899604],[121.258393,40.92064],[121.244721,40.906399],[121.224946,40.927069],[121.175792,40.922309],[121.079926,40.862982],[121.080273,40.828395],[121.04985,40.797401],[121.029633,40.826483],[120.981944,40.826809],[120.939545,40.740546],[121.020738,40.71933],[120.825321,40.674033],[120.798432,40.599677],[120.678788,40.521916],[120.659114,40.483761],[120.604096,40.465155],[120.597376,40.422423],[120.545665,40.402411],[120.547526,40.376159],[120.588396,40.38432],[120.591153,40.367298],[120.501758,40.32691],[120.504893,40.249091],[120.472016,40.214301],[120.309027,40.179668],[120.261322,40.146715],[119.950277,40.056502],[119.91531,40.036153],[119.911998,39.998088],[119.774425,39.950507],[119.535592,39.890826],[119.519867,39.858303],[119.530699,39.814702],[119.466795,39.814848],[119.429406,39.795306],[119.349864,39.731757],[119.284923,39.595445],[119.208588,39.569566],[119.208995,39.550198],[119.243012,39.570705],[119.22934,39.535956],[119.262397,39.577512],[119.281398,39.575014],[119.256425,39.493111],[119.305075,39.432978],[119.279429,39.384006],[119.184804,39.354814],[119.015636,39.189765],[118.926036,39.130601],[118.894298,39.124416],[118.969981,39.193305],[118.880626,39.172797],[118.87379,39.213813],[118.795991,39.151777],[118.52711,39.149237],[118.529146,39.124653],[118.326096,39.030932],[118.235285,39.053098],[118.140528,39.172835],[118.02802,39.219798],[117.88559,39.201117],[117.757335,39.114447],[117.715424,39.111396],[117.751478,39.067914],[117.775264,38.981058],[117.701915,38.995307],[117.708751,38.981024],[117.583995,38.811591],[117.543549,38.621324],[117.565971,38.612507],[117.716082,38.378511],[117.837169,38.270901],[118.053727,38.173253],[118.065214,38.143082],[118.215831,38.144965],[118.448928,38.107787],[118.542979,38.068345],[118.654871,38.145695],[118.760353,38.155132],[118.840099,38.152574],[118.950037,38.097262],[118.924815,38.057766],[118.996593,37.963121],[119.092493,37.912773],[119.116942,37.853271],[119.243083,37.769482],[119.259597,37.715847],[119.255664,37.671867],[119.217736,37.675248],[119.120141,37.737508],[119.069472,37.740631],[119.037128,37.722089],[118.969981,37.593451],[118.944591,37.378119],[118.961192,37.29564],[119.145518,37.17886],[119.28712,37.137274],[119.441173,37.120551],[119.7706,37.151842],[119.897309,37.249416],[119.846283,37.343695],[119.858897,37.360175],[120.187592,37.511786],[120.32252,37.632392],[120.306407,37.665188],[120.215668,37.684068],[120.3685,37.694729],[120.46339,37.747748],[120.556163,37.761379],[120.738048,37.83397],[120.925792,37.819281],[120.940929,37.773993],[121.005382,37.744289],[121.032563,37.710395],[121.13795,37.701158],[121.148529,37.689399],[121.130138,37.651801],[121.148529,37.637885],[121.134369,37.610541],[121.171641,37.577094],[121.308116,37.581244],[121.374522,37.610541],[121.354015,37.637885],[121.393565,37.622463],[121.429779,37.596869],[121.398448,37.594875],[121.381684,37.566107],[121.446788,37.519599],[121.476899,37.468004],[121.53712,37.456244],[121.570323,37.428656],[121.676117,37.439195],[121.634288,37.462388],[121.587413,37.453559],[121.63502,37.481269],[121.732432,37.461737],[121.937836,37.46426],[121.957286,37.459703],[121.949799,37.425605],[121.988048,37.425605],[121.977794,37.471666],[122.025645,37.528022],[122.071788,37.544501],[122.067149,37.56273],[122.095063,37.54914],[122.121837,37.56273],[122.151866,37.532864],[122.129893,37.483466],[122.183197,37.418158],[122.245372,37.459703],[122.296479,37.418158],[122.688243,37.409817],[122.678966,37.374661],[122.656098,37.384589],[122.570811,37.344794],[122.594737,37.295233],[122.549653,37.31977],[122.560069,37.274726],[122.628917,37.192816],[122.574311,37.18537],[122.574311,37.144436],[122.51002,37.155219],[122.470714,37.110297],[122.453949,37.154283],[122.436371,37.089789],[122.457042,37.065904],[122.402354,37.02147],[122.424327,37.003648],[122.436371,37.027737],[122.54005,37.027737],[122.532725,36.92593],[122.507416,36.898017],[122.512706,36.934638],[122.498546,36.93891],[122.405772,36.922187],[122.436371,36.870673],[122.379731,36.861396],[122.355235,36.829088],[122.319835,36.822943],[122.185313,36.849921],[122.196869,36.898017],[122.26588,36.898017],[122.16269,36.945787],[122.179698,37.005805],[122.166108,37.014106],[122.149994,37.005316],[122.142914,36.945787],[122.09433,36.950914],[122.080903,36.916571],[122.033051,36.898017],[122.049164,36.979926],[121.92628,36.993598],[121.914887,36.985826],[121.949799,36.93891],[121.785981,36.891181],[121.728038,36.835924],[121.649425,36.816067],[121.684174,36.84276],[121.637462,36.831366],[121.625255,36.740383],[121.594249,36.767646],[121.52589,36.753974],[121.49643,36.774482],[121.607188,36.844957],[121.546479,36.835924],[121.511567,36.80858],[121.459483,36.828681],[121.470714,36.789618],[121.45338,36.757392],[121.377778,36.731513],[121.401703,36.712388],[121.31422,36.711819],[121.157725,36.668606],[121.08017,36.610012],[121.032481,36.624254],[121.023529,36.58393],[120.928803,36.59634],[120.93336,36.620266],[120.850597,36.650946],[120.75058,36.616848],[120.750255,36.540758],[120.778656,36.541083],[120.850352,36.60456],[120.927501,36.532904],[120.963634,36.547919],[120.93629,36.497016],[120.949962,36.459174],[120.906261,36.452379],[120.867442,36.377183],[120.826427,36.432522],[120.832042,36.455268],[120.806895,36.463935],[120.75058,36.459174],[120.714122,36.428697],[120.686534,36.387152],[120.722179,36.330552],[120.643647,36.322496],[120.704845,36.156236],[120.627778,36.116523],[120.551606,36.113715],[120.536225,36.091457],[120.473643,36.08926],[120.353526,36.040839],[120.292003,36.061957],[120.361583,36.191636],[120.322765,36.226386],[120.306407,36.274237],[120.273529,36.23428],[120.275157,36.204088],[120.298839,36.191636],[120.284516,36.175971],[120.216319,36.199123],[120.219086,36.22191],[120.117279,36.209662],[120.097179,36.226386],[120.085948,36.209133],[120.109223,36.188788],[120.089692,36.111721],[120.168468,36.061957],[120.175304,35.993638],[120.229991,35.999905],[120.229503,35.972805],[120.242768,35.973578],[120.284923,36.010932],[120.298839,35.973131],[120.226817,35.94184],[120.175304,35.890041],[120.188975,35.945258],[120.135753,35.90412],[120.097179,35.900824],[120.038829,35.842841],[120.00294,35.727769],[119.937755,35.761135],[119.908214,35.744859],[119.935639,35.705024],[119.901622,35.671536],[119.904552,35.624579],[119.860199,35.606106],[119.834076,35.635321],[119.840099,35.657904],[119.743907,35.575914],[119.748383,35.60932],[119.732514,35.620836],[119.64796,35.58393],[119.551524,35.380032],[119.50766,35.332343],[119.42392,35.313463],[119.358002,35.097113],[119.221202,35.064032],[119.192882,35.000434],[119.192231,34.718207],[119.209809,34.718573],[119.22934,34.759711],[119.311778,34.755072],[119.34669,34.780829],[119.442231,34.746039],[119.474213,34.715277],[119.456554,34.684556],[119.647716,34.53384],[119.728852,34.524115],[119.826182,34.470404],[119.939952,34.457913],[120.078705,34.377509],[120.257091,34.311835],[120.325224,34.111298],[120.371349,34.036038],[120.413341,33.897366],[120.399669,33.86933],[120.504893,33.735582],[120.511729,33.656724],[120.483735,33.64997],[120.634369,33.466946],[120.667247,33.3251],[120.750255,33.269599],[120.730235,33.204901],[120.806977,33.137763],[120.792247,33.10871],[120.81894,33.09219],[120.825938,33.030178],[120.895763,33.013577],[120.904796,32.812649],[120.852387,32.756008],[120.860444,32.689765],[120.840099,32.724514],[120.830333,32.697659],[120.906614,32.65971],[120.911199,32.630121],[120.943887,32.605224],[121.086192,32.536038],[121.100841,32.497952],[121.157256,32.495596],[121.389409,32.384948],[121.419281,32.250312],[121.36085,32.231635],[121.398692,32.168931],[121.425141,32.164049],[121.44337,32.114325],[121.530812,32.108519],[121.655365,32.062934],[121.798644,31.970475],[121.87496,31.863723],[121.874687,31.825903],[121.922057,31.754378],[121.930383,31.726714],[121.914842,31.706434],[121.817306,31.690949],[121.607194,31.748551],[121.286418,31.890589],[121.115087,31.796334],[121.039935,31.819332],[120.977817,31.814365],[120.940564,31.844647],[120.941417,31.892524],[120.810802,32.02261],[120.634376,32.07701],[120.490758,32.082453],[120.361583,32.02558],[120.2671,31.948676],[120.131358,31.943183],[119.992035,32.015855],[119.912201,32.123725],[119.92213,32.217434],[119.900483,32.198188],[119.842133,32.299058],[119.758067,32.326972],[119.692393,32.31977],[119.64088,32.358832],[119.612885,32.35456],[119.685395,32.292426],[119.649018,32.21955],[119.606049,32.196926],[119.645274,32.195217],[119.69044,32.235338],[119.788585,32.198635],[119.763764,32.162502],[119.772472,32.126776],[119.855561,32.086982],[120.006396,31.950305],[120.130951,31.912299],[120.229991,31.908881],[120.455781,31.982519],[120.455412,32.021428],[120.469493,32.025133],[120.750354,31.978336],[120.824799,31.828702],[120.807752,31.809741],[120.751475,31.824693],[120.717133,31.86107],[120.731456,31.81387],[121.013764,31.743034],[121.144402,31.684658],[121.244721,31.600409],[121.320323,31.504828],[121.546235,31.366116],[121.725164,31.281567],[121.95082,30.982081],[121.977383,30.914923],[121.960075,30.874257],[121.542937,30.816495],[121.410598,30.767388],[121.333507,30.70307],[121.202891,30.665107],[121.121349,30.593004],[120.998146,30.557924],[120.931651,30.473049],[120.939545,30.421942],[120.894786,30.401272],[120.915131,30.374579],[120.888194,30.368557],[120.831791,30.30525],[120.787433,30.293625],[120.744963,30.359614],[120.698148,30.393951],[120.479145,30.403524],[120.430315,30.38984],[120.378967,30.273524],[120.257904,30.298082],[120.147094,30.198891],[120.178966,30.20067],[120.274387,30.277618],[120.350338,30.240734],[120.38472,30.249588],[120.450494,30.36886],[120.621606,30.372563],[120.651671,30.35927],[120.698686,30.251796],[120.734401,30.232213],[120.631789,30.122388],[120.682465,30.084906],[120.764985,30.086615],[120.792247,30.066067],[120.783702,30.089301],[120.687999,30.097805],[120.646251,30.126939],[120.751425,30.225626],[120.892812,30.169796],[120.994395,30.211086],[121.149697,30.325753],[121.254102,30.348393],[121.377384,30.325064],[121.429592,30.292976],[121.506847,30.220026],[121.658306,30.018389],[121.732344,29.978603],[121.721934,29.960517],[121.767482,29.973177],[121.914876,29.918696],[121.935557,29.887356],[122.129143,29.903777],[122.136415,29.884535],[122.114755,29.871554],[121.983039,29.823176],[121.902171,29.752539],[121.873149,29.753828],[121.862448,29.708002],[121.776465,29.652625],[121.687348,29.562649],[121.574311,29.552151],[121.530822,29.510015],[121.511043,29.548988],[121.44337,29.524237],[121.455324,29.489355],[121.427836,29.467947],[121.442593,29.415369],[121.465074,29.420886],[121.479747,29.474758],[121.504893,29.483832],[121.491791,29.455959],[121.511729,29.437567],[121.477631,29.412746],[121.484864,29.39054],[121.531325,29.417037],[121.569641,29.474574],[121.710948,29.538642],[121.731293,29.518012],[121.763999,29.530761],[121.757223,29.499049],[121.778381,29.469423],[121.811988,29.490118],[121.844819,29.5362],[121.813975,29.552151],[121.744965,29.544664],[121.79612,29.600591],[121.915782,29.640855],[121.971202,29.593329],[121.970958,29.568915],[121.941173,29.551174],[121.949799,29.538479],[121.910411,29.524563],[121.970958,29.449123],[121.957286,29.408149],[121.93629,29.42772],[121.922556,29.418146],[121.916246,29.348937],[121.931407,29.323879],[121.900483,29.298651],[121.939952,29.264146],[121.974376,29.284613],[121.991466,29.25731],[121.953217,29.249661],[121.942963,29.195868],[121.840587,29.161119],[121.785347,29.168085],[121.799653,29.305121],[121.840587,29.318793],[121.830658,29.333889],[121.788178,29.328559],[121.799653,29.373969],[121.786632,29.374498],[121.758637,29.359768],[121.774314,29.253887],[121.724328,29.182035],[121.652458,29.18302],[121.639171,29.217271],[121.654552,29.299994],[121.640391,29.306627],[121.624848,29.301459],[121.628917,29.188422],[121.574311,29.305121],[121.562022,29.295844],[121.574311,29.277777],[121.52589,29.277777],[121.536388,29.258287],[121.50351,29.178941],[121.480235,29.197211],[121.456391,29.161119],[121.408539,29.161119],[121.456391,29.133775],[121.401703,29.106513],[121.62143,29.113267],[121.614757,29.058051],[121.536876,29.061184],[121.532074,29.020494],[121.557384,29.049018],[121.641938,29.051256],[121.689789,29.017076],[121.653819,28.988593],[121.717784,28.948798],[121.684174,28.9147],[121.587413,28.963121],[121.570811,28.93008],[121.516856,28.956366],[121.491791,28.928371],[121.580577,28.886786],[121.61085,28.891181],[121.628917,28.877143],[121.623546,28.842271],[121.669932,28.825344],[121.635753,28.804836],[121.662608,28.790595],[121.618256,28.761949],[121.62143,28.735907],[121.502778,28.700385],[121.351166,28.711859],[121.237885,28.763861],[121.214447,28.807318],[121.142345,28.845852],[121.159679,28.813544],[121.206065,28.799058],[121.231212,28.760159],[121.299327,28.722886],[121.298676,28.701239],[121.258393,28.675116],[121.413829,28.696601],[121.510128,28.657059],[121.581619,28.50469],[121.511567,28.489488],[121.607743,28.477203],[121.583777,28.442946],[121.632263,28.379446],[121.634044,28.347235],[121.656342,28.339301],[121.585541,28.256822],[121.580577,28.300849],[121.541491,28.321787],[121.473086,28.330603],[121.436046,28.297105],[121.408946,28.304918],[121.395518,28.284084],[121.416026,28.256171],[121.364838,28.225816],[121.354015,28.187893],[121.374522,28.195258],[121.374034,28.172593],[121.345795,28.145168],[121.287852,28.180894],[121.261695,28.225791],[121.225165,28.238863],[121.248871,28.270209],[121.203136,28.331855],[121.264659,28.366034],[121.214122,28.360582],[121.168956,28.384833],[121.13025,28.305554],[121.072113,28.291693],[121.066661,28.311428],[121.024994,28.304592],[121.058116,28.279934],[121.121803,28.284362],[121.124753,28.23552],[121.085836,28.166504],[121.009378,28.103133],[120.993512,28.025779],[120.965228,27.987145],[120.819591,27.989244],[120.731049,28.035834],[120.606049,28.042222],[120.576996,28.115627],[120.559581,28.112779],[120.58017,28.089789],[120.588959,28.026679],[120.673595,28.021715],[120.75058,27.975572],[120.835297,27.955959],[120.868364,27.882559],[120.807486,27.834827],[120.722614,27.71591],[120.635265,27.763332],[120.672455,27.711493],[120.675629,27.659654],[120.666484,27.625358],[120.596574,27.570283],[120.618459,27.516421],[120.681977,27.481594],[120.646495,27.444485],[120.635265,27.379706],[120.545909,27.403266],[120.539643,27.36522],[120.504893,27.344957],[120.549327,27.321031],[120.543956,27.285956],[120.517833,27.263007],[120.517833,27.201606],[120.468354,27.182196],[120.459727,27.220445],[120.421723,27.222073],[120.42921,27.173651],[120.376231,27.236274],[120.303071,27.242255],[120.288097,27.264472],[120.319347,27.290351],[120.298839,27.297797],[120.31186,27.317694],[120.285167,27.304023],[120.264008,27.324449],[120.258556,27.299994],[120.223725,27.311469],[120.243663,27.290351],[120.225678,27.268622],[120.195811,27.297797],[120.182384,27.216864],[120.256602,27.256903],[120.306407,27.215277],[120.34726,27.24258],[120.365489,27.209621],[120.34726,27.180487],[120.369884,27.187486],[120.421723,27.146959],[120.373871,27.146959],[120.40797,27.139553],[120.367035,27.12523],[120.39503,27.106024],[120.377533,27.098578],[120.243663,27.132717],[120.278331,27.063788],[120.257823,27.072659],[120.216319,27.037095],[120.241547,27.034003],[120.255219,26.997056],[120.237397,26.981879],[120.148692,26.981879],[120.235688,26.966376],[120.237397,26.927232],[120.219086,26.915432],[120.125743,26.927314],[120.120697,26.899888],[120.095551,26.887274],[120.031993,26.899888],[120.055268,26.88939],[120.024506,26.837877],[120.128184,26.796942],[120.097748,26.75849],[120.148692,26.721177],[120.102061,26.689154],[120.134369,26.646064],[120.080414,26.617418],[120.079682,26.646064],[120.014903,26.611274],[119.959972,26.611274],[119.935639,26.560452],[119.884288,26.523179],[119.847179,26.523627],[119.832612,26.550482],[119.85377,26.564114],[119.85377,26.598293],[119.984141,26.65351],[119.976817,26.674018],[120.011485,26.721177],[120.032319,26.71662],[120.079682,26.796942],[119.925141,26.792182],[119.935639,26.759019],[119.888031,26.687242],[119.901622,26.659735],[119.879649,26.655341],[119.856944,26.65351],[119.829194,26.714993],[119.791759,26.68769],[119.802257,26.766791],[119.840099,26.790025],[119.791759,26.790025],[119.797374,26.816392],[119.846283,26.8522],[119.781993,26.828518],[119.756196,26.737738],[119.730235,26.742906],[119.712006,26.807929],[119.685802,26.811998],[119.677989,26.763129],[119.727387,26.717922],[119.724946,26.697821],[119.646007,26.753323],[119.626557,26.749091],[119.606049,26.796942],[119.575531,26.788031],[119.552094,26.749091],[119.55893,26.708197],[119.606049,26.694525],[119.599864,26.646064],[119.55893,26.666571],[119.541108,26.656317],[119.55421,26.61518],[119.599864,26.57038],[119.675059,26.618801],[119.735199,26.611965],[119.73642,26.591457],[119.784923,26.577826],[119.76588,26.534369],[119.798595,26.515774],[119.784923,26.502021],[119.818858,26.453192],[119.791759,26.413316],[119.761974,26.407457],[119.737641,26.443671],[119.689789,26.459459],[119.653656,26.498033],[119.620372,26.467963],[119.5796,26.470893],[119.566417,26.454901],[119.57309,26.437812],[119.648448,26.437445],[119.655528,26.355618],[119.688731,26.337592],[119.681895,26.317125],[119.747081,26.327623],[119.754405,26.372056],[119.7706,26.364936],[119.825776,26.426947],[119.851329,26.392808],[119.840099,26.378567],[119.894786,26.35871],[119.949962,26.364936],[119.877452,26.313381],[119.854747,26.327541],[119.801117,26.317572],[119.792735,26.284084],[119.764415,26.296617],[119.654307,26.272406],[119.634125,26.255072],[119.668224,26.242011],[119.668224,26.221503],[119.600108,26.176337],[119.599864,26.145819],[119.561127,26.124986],[119.458507,25.982489],[119.093516,26.145819],[119.157319,26.090766],[119.19516,26.087592],[119.246837,25.967231],[119.329845,25.944281],[119.440929,25.963813],[119.490001,25.994208],[119.519054,26.044501],[119.566417,26.050238],[119.695404,26.002631],[119.675059,25.926093],[119.616466,25.892646],[119.599864,25.844184],[119.584076,25.876939],[119.566417,25.872056],[119.62086,25.760321],[119.589936,25.687161],[119.572602,25.679674],[119.535411,25.705878],[119.477061,25.679674],[119.449067,25.687161],[119.492442,25.564765],[119.558442,25.563788],[119.579438,25.584662],[119.56837,25.547431],[119.59311,25.529486],[119.566417,25.515815],[119.599864,25.508368],[119.572602,25.48786],[119.603608,25.491156],[119.599864,25.47484],[119.628022,25.461371],[119.614024,25.438788],[119.634125,25.433254],[119.646007,25.392564],[119.620372,25.364976],[119.654552,25.35814],[119.579438,25.344468],[119.599864,25.371161],[119.57602,25.467353],[119.538585,25.461168],[119.535981,25.419135],[119.558197,25.404608],[119.544444,25.377183],[119.483246,25.371161],[119.507335,25.474433],[119.466156,25.47484],[119.447032,25.438788],[119.433116,25.45954],[119.449067,25.505276],[119.356537,25.526923],[119.38087,25.590888],[119.360362,25.577297],[119.343028,25.609198],[119.305186,25.60456],[119.321381,25.587348],[119.277843,25.570461],[119.237804,25.481757],[119.10255,25.420315],[119.173188,25.325141],[119.20338,25.35814],[119.223155,25.316596],[119.181488,25.289252],[119.201264,25.259711],[119.243012,25.330227],[119.265147,25.317572],[119.277843,25.330227],[119.347504,25.267768],[119.344249,25.242377],[119.281261,25.241441],[119.288829,25.189114],[119.255626,25.175897],[119.229376,25.193215],[119.175629,25.1765],[119.141975,25.220978],[119.116096,25.213782],[119.10418,25.182948],[119.1338,25.138414],[119.153087,25.139716],[119.1338,25.124742],[119.093272,25.135647],[119.099132,25.111151],[119.064789,25.124742],[119.079194,25.152086],[119.064708,25.162543],[119.044444,25.124742],[119.029063,25.14053],[119.068858,25.216742],[118.96933,25.226386],[119.024946,25.259289],[119.027298,25.278238],[118.983653,25.283026],[118.87558,25.243842],[118.864838,25.227973],[118.911143,25.217231],[118.915294,25.179389],[118.948253,25.19717],[118.97462,25.182563],[118.942963,25.108832],[118.857677,25.098049],[118.849132,25.073798],[118.953705,25.002997],[119.004161,25.050238],[118.983246,24.995103],[118.997325,24.953437],[119.01767,24.960273],[118.977061,24.934027],[118.963715,24.954413],[118.911632,24.953437],[118.909923,24.907172],[118.934174,24.886054],[118.973237,24.893785],[118.976166,24.877753],[118.951996,24.870754],[118.792084,24.891099],[118.780121,24.867825],[118.716075,24.843573],[118.69809,24.859524],[118.729503,24.900539],[118.695567,24.940416],[118.688813,24.895738],[118.667735,24.953437],[118.640391,24.915595],[118.671153,24.874661],[118.572032,24.885199],[118.612804,24.85578],[118.63795,24.772121],[118.701752,24.810045],[118.719981,24.769355],[118.76295,24.762681],[118.746837,24.720689],[118.685395,24.66649],[118.654063,24.693427],[118.6421,24.678697],[118.633556,24.627875],[118.664154,24.61225],[118.661469,24.590318],[118.620453,24.545478],[118.553966,24.518052],[118.554454,24.553209],[118.578136,24.560207],[118.428071,24.631334],[118.431244,24.699693],[118.40089,24.672309],[118.421886,24.624498],[118.404796,24.606635],[118.351654,24.582343],[118.284028,24.597805],[118.27296,24.574408],[118.249848,24.576117],[118.241791,24.543769],[118.219005,24.541449],[118.181163,24.576117],[118.181651,24.597805],[118.21518,24.614814],[118.174327,24.624498],[118.187592,24.657375],[118.160492,24.693427],[118.110362,24.584052],[118.044444,24.617662],[118.037364,24.560614],[118.00294,24.562445],[118.009288,24.580715],[117.974864,24.55272],[118.058116,24.515855],[117.999522,24.470852],[118.021739,24.445746],[117.867686,24.489569],[117.825938,24.480455],[117.901134,24.453192],[117.79127,24.467475],[117.907319,24.384914],[118.042979,24.406684],[118.01588,24.32685],[118.052989,24.34691],[118.090587,24.341457],[118.126475,24.26203],[118.071788,24.254584],[117.989268,24.193101],[117.97877,24.162095],[117.943614,24.212592],[117.907319,24.186265],[117.937755,24.161689],[117.895763,24.086615],[117.893647,24.028022],[117.839122,24.023627],[117.771983,23.95893],[117.748057,23.907538],[117.729259,23.919379],[117.737885,23.950507],[117.798106,24.021796],[117.761729,24.014838],[117.776134,24.037299],[117.763276,24.070258],[117.750011,24.037299],[117.724132,24.033759],[117.667084,24.06273],[117.679698,24.039049],[117.708751,24.035468],[117.688487,23.997504],[117.695079,23.953559],[117.648633,23.909234],[117.625536,23.840153],[117.639269,23.794102],[117.591669,23.737064],[117.598155,23.852444],[117.571056,23.903266],[117.416596,23.946845],[117.409679,23.913398],[117.468516,23.911933],[117.499596,23.874072],[117.490073,23.832579],[117.463477,23.788287],[117.434331,23.775922],[117.382416,23.795233],[117.319102,23.761623],[117.292572,23.789496],[117.277354,23.782213],[117.292328,23.762152],[117.263649,23.655425],[117.279122,23.636268],[117.257093,23.615616],[117.238964,23.605473],[117.229503,23.692816],[117.208507,23.664944],[117.219201,23.629628],[117.15083,23.606867],[117.084228,23.550606],[117.068413,23.651273],[117.023448,23.658677],[116.950705,23.610883],[116.917572,23.637926],[116.940929,23.658677],[116.916515,23.662746],[116.872081,23.606879],[116.883311,23.559638],[116.849701,23.511298],[116.872621,23.473807],[116.866628,23.450233],[116.773224,23.349432],[116.657844,23.354452],[116.523204,23.418524],[116.523204,23.377509],[116.573009,23.323676],[116.641889,23.318835],[116.69124,23.338977],[116.709414,23.31977],[116.748635,23.326288],[116.77711,23.240383],[116.804822,23.236122],[116.783946,23.212388],[116.705577,23.276597],[116.667247,23.281317],[116.715099,23.243801],[116.671166,23.214639],[116.646755,23.162991],[116.615216,23.178349],[116.61151,23.23873],[116.508881,23.234117],[116.526988,23.200621],[116.563975,23.222968],[116.604504,23.209557],[116.533648,23.109135],[116.56325,23.018774],[116.521936,22.998411],[116.494688,22.939352],[116.379607,22.928984],[116.289064,22.978943],[116.213634,22.982815],[116.20102,22.973456],[116.281458,22.957857],[116.14491,22.847823],[116.09569,22.8259],[116.091253,22.86841],[116.123721,22.894729],[116.042105,22.932918],[116.087254,22.889694],[116.076178,22.867871],[115.958014,22.804743],[115.883497,22.794619],[115.81003,22.746091],[115.788039,22.797842],[115.813569,22.776272],[115.804779,22.81509],[115.73687,22.851673],[115.697036,22.850671],[115.703581,22.869323],[115.684266,22.877779],[115.730317,22.934231],[115.577891,22.877265],[115.560557,22.849311],[115.53297,22.862047],[115.547618,22.895413],[115.505626,22.897773],[115.450938,22.931871],[115.406016,22.925035],[115.427257,22.900621],[115.483002,22.901842],[115.494151,22.860785],[115.468028,22.849311],[115.559418,22.836086],[115.612071,22.863593],[115.527017,22.767042],[115.523936,22.741767],[115.555588,22.71437],[115.567321,22.747281],[115.590099,22.737209],[115.562511,22.705634],[115.575219,22.668336],[115.464818,22.701034],[115.373508,22.694177],[115.338471,22.7331],[115.424133,22.761993],[115.411208,22.788268],[115.363994,22.763645],[115.33057,22.78854],[115.233391,22.788209],[115.232767,22.80534],[115.32016,22.850531],[115.317149,22.904527],[115.303803,22.903022],[115.245616,22.835354],[115.172944,22.821194],[115.180271,22.784806],[115.132878,22.811454],[115.065475,22.795985],[115.017828,22.737044],[115.028903,22.708377],[114.985342,22.689309],[114.95467,22.703544],[114.941661,22.753852],[114.926768,22.761176],[114.916759,22.744045],[114.862524,22.763216],[114.880736,22.72147],[114.926726,22.71693],[114.966629,22.676487],[114.901938,22.598057],[114.919119,22.561155],[114.895966,22.547524],[114.880215,22.559113],[114.88682,22.590872],[114.865816,22.601745],[114.754145,22.589714],[114.743776,22.609404],[114.741951,22.732653],[114.821252,22.79056],[114.775238,22.815823],[114.754893,22.781684],[114.695481,22.792642],[114.563324,22.732733],[114.571096,22.702354],[114.522065,22.705959],[114.506607,22.646523],[114.590343,22.643866],[114.495372,22.561957],[114.509288,22.549547],[114.543224,22.569403],[114.617686,22.514146],[114.515816,22.452643],[114.485118,22.468329],[114.479584,22.54621],[114.395763,22.613511],[114.317149,22.602362],[114.229828,22.555813],[114.161951,22.560536],[114.148722,22.538109],[114.091464,22.534388],[114.055268,22.506944],[113.963796,22.538113],[113.947758,22.490406],[113.91033,22.485826],[113.890345,22.452712],[113.866155,22.511493],[113.893891,22.521145],[113.822358,22.587226],[113.793568,22.661614],[113.772934,22.672448],[113.758067,22.753404],[113.712169,22.763332],[113.672374,22.746894],[113.653575,22.758734],[113.662608,22.798082],[113.617198,22.890286],[113.617198,22.836249],[113.605561,22.847235],[113.610362,22.904527],[113.592296,22.889065],[113.638194,23.034898],[113.59669,22.918199],[113.617198,23.034898],[113.576182,22.938707],[113.583018,23.021226],[113.553966,22.987616],[113.528819,23.01081],[113.536388,23.063137],[113.582123,23.098456],[113.720225,23.137926],[113.830089,23.117499],[113.703136,23.157782],[113.509125,23.062161],[113.417491,23.096991],[113.398692,23.083319],[113.481212,23.0515],[113.502312,23.020424],[113.483979,22.924262],[113.429942,22.931342],[113.307628,22.89411],[113.212983,22.904527],[113.292247,22.877265],[113.350434,22.889716],[113.494233,22.774848],[113.439545,22.739447],[113.377533,22.767401],[113.466319,22.716498],[113.59917,22.57518],[113.594738,22.52339],[113.546355,22.437585],[113.558116,22.380764],[113.610362,22.370185],[113.573578,22.300727],[113.587655,22.237882],[113.52296,22.213039],[113.483745,22.155142],[113.425629,22.186225],[113.357026,22.301907],[113.276378,22.372056],[113.231944,22.479071],[113.165294,22.575588],[113.160167,22.487616],[113.227306,22.425279],[113.401971,22.179574],[113.302745,22.183295],[113.250987,22.115668],[113.247162,22.054267],[113.157467,22.0247],[113.110606,22.099189],[113.127452,22.160956],[113.110606,22.219306],[113.085053,22.207587],[113.057893,22.121094],[113.026614,22.143212],[113.020638,22.125978],[113.02562,21.949425],[112.98935,21.937323],[112.957081,21.875653],[112.911586,21.856291],[112.879405,21.87519],[112.851573,21.94831],[112.82602,21.966132],[112.743744,21.931952],[112.730479,21.890326],[112.70045,21.890326],[112.645112,21.849351],[112.647553,21.822659],[112.608002,21.775092],[112.550873,21.772854],[112.426036,21.84516],[112.411143,21.90119],[112.493663,21.966132],[112.43629,21.945624],[112.390636,21.955512],[112.376313,21.986558],[112.397472,22.068508],[112.364838,22.034491],[112.356537,21.979722],[112.390636,21.90119],[112.40211,21.801418],[112.363292,21.733344],[112.286225,21.708808],[112.244884,21.706529],[112.182384,21.752997],[112.203136,21.806708],[112.192638,21.843166],[112.172699,21.814439],[112.028168,21.797349],[112.007091,21.818671],[112.04127,21.884182],[111.969249,21.824042],[111.934093,21.890448],[111.890391,21.925116],[111.904063,21.815253],[112.000255,21.774319],[111.867931,21.676703],[111.838878,21.678127],[111.85377,21.707424],[111.87672,21.698554],[111.860606,21.721503],[111.836192,21.716986],[111.835053,21.766832],[111.806895,21.743313],[111.678071,21.781155],[111.76059,21.725816],[111.779633,21.675442],[111.773692,21.650133],[111.746918,21.643948],[111.787934,21.616034],[111.712901,21.62344],[111.630463,21.529853],[111.581879,21.581855],[111.595551,21.534084],[111.537852,21.520453],[111.521007,21.534084],[111.476085,21.513617],[111.472667,21.554592],[111.444102,21.563625],[111.432221,21.602973],[111.411143,21.568264],[111.437999,21.534084],[111.362804,21.541205],[111.349701,21.526679],[111.404307,21.526679],[111.267345,21.439358],[111.25294,21.444729],[111.30128,21.499335],[111.192393,21.531195],[111.15797,21.513617],[111.226329,21.499335],[111.143647,21.465806],[111.08839,21.472642],[111.129975,21.499335],[111.08839,21.493109],[111.027599,21.54092],[110.985932,21.513617],[111.013927,21.485663],[110.979747,21.444729],[111.042247,21.484565],[111.068614,21.472642],[110.992931,21.424872],[110.965912,21.432847],[110.869884,21.383246],[110.768158,21.397528],[110.704845,21.348538],[110.65089,21.260403],[110.677582,21.348538],[110.643321,21.321845],[110.636485,21.370266],[110.755382,21.413398],[110.76002,21.444729],[110.63559,21.381049],[110.615733,21.301215],[110.643321,21.252916],[110.636485,21.23017],[110.575206,21.246731],[110.588715,21.225572],[110.481456,21.21719],[110.431163,21.191474],[110.424327,21.287665],[110.478852,21.273383],[110.486339,21.301337],[110.444835,21.307563],[110.486339,21.335517],[110.465343,21.328681],[110.465343,21.348538],[110.43393,21.308783],[110.437348,21.397528],[110.419526,21.377427],[110.400971,21.38703],[110.368988,21.424872],[110.389496,21.452135],[110.35849,21.435736],[110.394379,21.364],[110.389496,21.328681],[110.328136,21.335517],[110.408214,21.238023],[110.399425,21.176581],[110.333751,21.11636],[110.269298,21.089179],[110.218842,21.027574],[110.2046,21.082221],[110.195567,21.071275],[110.156749,20.986029],[110.143077,20.992255],[110.177257,20.862494],[110.156749,20.876776],[110.156749,20.848863],[110.191498,20.848863],[110.191498,20.835842],[110.319672,20.859931],[110.361095,20.835883],[110.368988,20.848863],[110.409434,20.750963],[110.383556,20.713446],[110.356456,20.732327],[110.341807,20.821519],[110.3213,20.794257],[110.332123,20.76789],[110.307628,20.753241],[110.337494,20.725816],[110.300792,20.65705],[110.328136,20.677558],[110.314464,20.636542],[110.362804,20.643378],[110.362804,20.622301],[110.380626,20.633775],[110.408539,20.585924],[110.478852,20.567694],[110.53419,20.478258],[110.502289,20.412746],[110.40683,20.305162],[110.362071,20.304877],[110.34433,20.279242],[110.280284,20.252997],[110.237153,20.27497],[110.127533,20.247992],[110.037852,20.301703],[109.965831,20.280951],[109.917247,20.239325],[109.928722,20.326361],[109.862804,20.406317],[109.903575,20.431098],[109.982432,20.351549],[110.009776,20.434231],[109.964936,20.478258],[109.9581,20.451606],[109.943614,20.460679],[109.930919,20.506252],[109.917247,20.44477],[109.896088,20.49258],[109.822113,20.516547],[109.848237,20.595649],[109.821056,20.554633],[109.802013,20.616278],[109.74586,20.629788],[109.751557,20.673733],[109.827729,20.697984],[109.841401,20.684394],[109.860444,20.715481],[109.786876,20.691148],[109.75644,20.749701],[109.773204,20.766913],[109.759532,20.855048],[109.745372,20.867662],[109.731537,20.855048],[109.739024,20.807847],[109.704356,20.842027],[109.717865,20.807847],[109.665619,20.880927],[109.661225,20.927558],[109.691254,20.958726],[109.678966,20.973863],[109.69752,21.040595],[109.711681,21.03384],[109.670177,21.123236],[109.704356,21.178453],[109.752045,21.16413],[109.773204,21.215399],[109.765717,21.355943],[109.786876,21.328681],[109.807384,21.355943],[109.924083,21.362779],[109.904796,21.390692],[109.951264,21.458401],[109.924571,21.465033],[109.944428,21.493109],[109.858979,21.482815],[109.841401,21.506781],[109.81422,21.458401],[109.800548,21.554592],[109.770112,21.551581],[109.773204,21.581855],[109.748057,21.574937],[109.747813,21.545233],[109.773204,21.485663],[109.741466,21.474026],[109.649669,21.520453],[109.677013,21.5751],[109.677013,21.62344],[109.637218,21.60163],[109.635997,21.568264],[109.608002,21.5751],[109.615489,21.650133],[109.585297,21.630845],[109.560883,21.671291],[109.560802,21.707261],[109.594493,21.746405],[109.567719,21.759996],[109.492686,21.698554],[109.506196,21.684963],[109.492686,21.678127],[109.519867,21.684963],[109.521007,21.665758],[109.464692,21.664455],[109.529877,21.635688],[109.572765,21.581732],[109.560883,21.526679],[109.530772,21.491645],[109.472179,21.465806],[109.472179,21.499335],[109.424408,21.452379],[109.343761,21.453518],[109.320811,21.480129],[109.29892,21.443264],[109.244965,21.431627],[109.23878,21.485663],[109.21461,21.417426],[109.171967,21.417548],[109.149425,21.438544],[109.156261,21.403754],[109.138682,21.401597],[109.039806,21.450263],[109.060069,21.480129],[109.142589,21.510199],[109.135753,21.602973],[109.077647,21.596991],[109.066742,21.616034],[109.046397,21.602973],[109.066742,21.643948],[108.992442,21.609198],[108.927989,21.615058],[108.897472,21.671291],[108.855235,21.684963],[108.865489,21.739732],[108.924083,21.766832],[108.897472,21.759996],[108.903087,21.774319],[108.869477,21.753811],[108.875743,21.800971],[108.849864,21.791693],[108.86142,21.815253],[108.801362,21.818345],[108.779552,21.815253],[108.821056,21.800971],[108.81422,21.781155],[108.832612,21.78384],[108.843516,21.745022],[108.816661,21.716376],[108.805919,21.75845],[108.779552,21.725816],[108.799897,21.725816],[108.793061,21.712836],[108.834321,21.685736],[108.821056,21.643948],[108.86142,21.643948],[108.849946,21.625963],[108.787364,21.641425],[108.738536,21.616034],[108.745372,21.602973],[108.711192,21.650133],[108.733165,21.662421],[108.751557,21.650133],[108.751557,21.691718],[108.738536,21.671291],[108.712657,21.688422],[108.724864,21.746405],[108.683197,21.70539],[108.649181,21.733344],[108.683197,21.74018],[108.646332,21.75137],[108.677013,21.815253],[108.656016,21.794827],[108.642345,21.822089],[108.635509,21.774319],[108.615001,21.787909],[108.628673,21.746405],[108.594493,21.74018],[108.607514,21.787909],[108.580577,21.781317],[108.571381,21.812812],[108.635509,21.890326],[108.594493,21.91767],[108.587657,21.897854],[108.560313,21.895494],[108.552989,21.91767],[108.573334,21.951809],[108.567149,21.938788],[108.552989,21.951809],[108.525645,21.904608],[108.505138,21.910834],[108.518809,21.890326],[108.484874,21.877102],[108.491466,21.856269],[108.463145,21.862982],[108.477794,21.945014],[108.458018,21.91767],[108.448741,21.86579],[108.505138,21.787909],[108.491466,21.74018],[108.463471,21.74018],[108.505138,21.719062],[108.477794,21.698554],[108.505138,21.691718],[108.505138,21.671291],[108.533051,21.719062],[108.518809,21.671291],[108.552989,21.698554],[108.56544,21.678534],[108.545177,21.666083],[108.546886,21.643052],[108.511974,21.643948],[108.533051,21.630316],[108.518809,21.595526],[108.481212,21.581855],[108.489106,21.607611],[108.505138,21.602973],[108.491466,21.62344],[108.463471,21.595526],[108.470958,21.561998],[108.420014,21.556871],[108.389659,21.5751],[108.406749,21.600246],[108.431895,21.583238],[108.443696,21.62344],[108.416352,21.630316],[108.470958,21.671291],[108.409679,21.664455],[108.423839,21.698554],[108.385997,21.672919],[108.337657,21.697455],[108.341319,21.725816],[108.311371,21.681708],[108.327647,21.630316],[108.306488,21.630316],[108.293468,21.589301],[108.313975,21.581855],[108.283783,21.544745],[108.211029,21.500637],[108.252778,21.588528],[108.226817,21.625556],[108.238292,21.643948],[108.210297,21.630316],[108.206065,21.642564],[108.210297,21.602973],[108.176362,21.575751],[108.066254,21.561998],[108.071056,21.536566],[107.991222,21.548407],[108.039561,21.520453],[108.011241,21.506537],[108.022227,21.485663],[108.080577,21.485663],[108.016612,21.470364],[107.970714,21.431627],[107.991222,21.485663],[107.811641,21.647827],[107.744823,21.657542],[107.671856,21.617648],[107.533053,21.608656],[107.501324,21.581526],[107.461016,21.596357],[107.457037,21.631497],[107.426032,21.652065],[107.348155,21.599355],[107.272656,21.718314],[107.172352,21.715058],[107.065847,21.795828],[107.002905,21.810556],[106.987144,21.844818],[107.021147,21.892257],[107.009364,21.927448],[106.971227,21.93582],[106.920378,21.916958],[106.864774,21.968066],[106.781523,21.975042],[106.728761,22.008322],[106.674605,21.962175],[106.653107,21.968893],[106.672176,22.092503],[106.639671,22.190895],[106.662926,22.223296],[106.63378,22.30944],[106.541796,22.345097],[106.526913,22.43827],[106.577143,22.595314],[106.607632,22.609991],[106.646338,22.568804],[106.680186,22.57945],[106.746641,22.744349],[106.791497,22.772125],[106.789843,22.797188],[106.730363,22.797628],[106.667473,22.86752],[106.610371,22.85287],[106.58169,22.89527],[106.487794,22.925423],[106.457977,22.888966],[106.255405,22.854653],[106.227087,22.875556],[106.202385,22.946998],[106.132105,22.975007],[105.999245,22.975369],[105.961211,22.9324],[105.875997,22.928266],[105.853879,22.90465],[105.754712,23.005677],[105.690324,23.043969],[105.551572,23.059679],[105.528266,23.155513],[105.473851,23.194503],[105.425895,23.273206],[105.34404,23.304186],[105.312155,23.36581],[105.245544,23.330179],[105.200896,23.254008],[105.155627,23.26685],[105.06106,23.232459],[104.935072,23.154273],[104.870064,23.163548],[104.861279,23.119598],[104.797923,23.085569],[104.823606,22.924132],[104.700772,22.818247],[104.609821,22.823001],[104.588427,22.806852],[104.553545,22.836049],[104.449004,22.745176],[104.340173,22.686368],[104.236821,22.742076],[104.241161,22.824396],[104.086856,22.791556],[104.02381,22.719183],[103.985363,22.527153],[103.959525,22.507103],[103.836328,22.602756],[103.646934,22.799049],[103.590038,22.768017],[103.547147,22.700683],[103.550919,22.64079],[103.503635,22.581413],[103.447515,22.618259],[103.404313,22.688797],[103.401729,22.737838],[103.357081,22.776027],[103.309642,22.787938],[103.244891,22.668695],[103.141745,22.607045],[103.142004,22.537799],[103.04418,22.486484],[103.045059,22.440544],[103.029039,22.430157],[102.902587,22.477234],[102.831842,22.599707],[102.586689,22.716082],[102.535787,22.695825],[102.515789,22.745176],[102.467781,22.768586],[102.425613,22.745305],[102.394969,22.680529],[102.35585,22.669935],[102.384324,22.628852],[102.252549,22.495476],[102.218029,22.410675],[102.164544,22.425506],[102.107345,22.397549],[102.085531,22.429123],[101.994994,22.447416],[101.891641,22.429691],[101.867921,22.378842],[101.817795,22.406334],[101.75506,22.495527],[101.689121,22.478887],[101.654549,22.446125],[101.643697,22.364683],[101.601219,22.276988],[101.55099,22.276678],[101.515746,22.245362],[101.561532,22.176115],[101.555434,22.090332],[101.6068,21.967601],[101.673669,21.931376],[101.751081,21.816137],[101.72855,21.717539],[101.754801,21.689788],[101.755938,21.648654],[101.803842,21.625916],[101.793559,21.588244],[101.736198,21.570881],[101.748239,21.514502],[101.715114,21.321129],[101.823738,21.234467],[101.805238,21.204495],[101.760072,21.195968],[101.770201,21.17044],[101.75599,21.143258],[101.704262,21.135093],[101.655118,21.189199],[101.581789,21.175659],[101.583959,21.22439],[101.517607,21.242632],[101.381491,21.222478],[101.292711,21.176073],[101.244342,21.192868],[101.208995,21.245526],[101.220364,21.296272],[101.207445,21.314824],[101.233128,21.37172],[101.171426,21.403398],[101.187756,21.505872],[101.186567,21.535327],[101.154218,21.568039],[101.168842,21.637853],[101.127656,21.695163],[101.118871,21.75981],[101.082801,21.766735],[100.992781,21.711441],[100.834909,21.657542],[100.703961,21.516414],[100.621744,21.469078],[100.456689,21.455022],[100.399122,21.518894],[100.341968,21.530367],[100.197894,21.433215],[100.162496,21.436367],[100.09728,21.508301],[100.086066,21.550934],[100.103946,21.615633],[100.142807,21.654907],[100.082345,21.684466],[99.996718,21.686119],[99.95026,21.721156],[99.917963,21.82916],[99.96566,21.963002],[99.934344,22.018864],[99.942406,22.045529],[99.847838,22.055037],[99.821018,22.017779],[99.723659,22.070592],[99.683868,22.039018],[99.633536,22.084751],[99.538968,22.106714],[99.438612,22.124232],[99.364922,22.098859],[99.252887,22.102786],[99.14447,22.153533],[99.175062,22.168674],[99.159353,22.184694],[99.243689,22.341221],[99.243068,22.393156],[99.282756,22.411915],[99.35779,22.495476],[99.344148,22.533251],[99.355,22.608544],[99.307974,22.745176],[99.35903,22.77489],[99.414428,22.856901],[99.413394,22.930746],[99.5153,22.90881],[99.538038,22.926431],[99.490392,23.012007],[99.493079,23.057379],[99.403265,23.068335],[99.333812,23.129623],[99.21661,23.057379],[99.194183,23.095775],[99.05507,23.109598],[99.026441,23.160448],[98.859009,23.179387],[98.860146,23.212279],[98.910686,23.297597],[98.896526,23.32328],[98.853428,23.324882],[98.890118,23.367903],[98.889602,23.406789],[98.86397,23.466605],[98.799995,23.480738],[98.780874,23.532854],[98.856012,23.610007],[98.800305,23.692715],[98.793173,23.758473],[98.663672,23.796947],[98.674524,23.936886],[98.658815,23.961123],[98.856219,24.083802],[98.873479,24.114498],[98.865727,24.145685],[98.716176,24.121345],[98.585227,24.075715],[98.503269,24.121268],[98.434952,24.13026],[98.330669,24.099486],[98.181531,24.118658],[98.10505,24.101527],[97.889973,24.022617],[97.817832,23.958151],[97.76781,23.946472],[97.624666,23.846711],[97.609887,23.883143],[97.516456,23.942829],[97.720061,24.147442],[97.701561,24.210926],[97.724091,24.241519],[97.718407,24.277667],[97.64451,24.302394],[97.638205,24.328103],[97.689572,24.346474],[97.6473,24.432334],[97.513252,24.438587],[97.538573,24.597259],[97.532785,24.723324],[97.536093,24.745028],[97.66394,24.829778],[97.765226,24.834661],[97.772977,24.854686],[97.708278,24.927291],[97.699597,25.065009],[97.754064,25.113559],[97.800986,25.237634],[97.82362,25.261612],[97.888939,25.205646],[97.90992,25.207558],[98.044899,25.311944],[98.075698,25.376075],[98.112078,25.396229],[98.099779,25.500047],[98.134196,25.534618],[98.140087,25.611461],[98.232381,25.586553],[98.276616,25.552447],[98.312066,25.557459],[98.347102,25.57782],[98.418726,25.724219],[98.498101,25.830724],[98.526833,25.838786],[98.610032,25.800597],[98.690234,25.865554],[98.689821,25.891599],[98.625328,25.969992],[98.582437,25.982291],[98.54554,26.105643],[98.563007,26.131223],[98.619334,26.145744],[98.624295,26.108485],[98.644449,26.097891],[98.70553,26.174941],[98.677005,26.23933],[98.642175,26.254523],[98.657781,26.311625],[98.713488,26.38945],[98.721137,26.538898],[98.755553,26.625043],[98.731989,26.713513],[98.750385,26.792009],[98.714522,26.862031],[98.736329,26.898256],[98.712662,26.995149],[98.737776,27.048686],[98.691371,27.092404],[98.672561,27.175603],[98.707701,27.337247],[98.674421,27.386598],[98.679279,27.577336],[98.647239,27.611727],[98.578406,27.591728],[98.522182,27.656298],[98.492313,27.64343],[98.410251,27.684254],[98.383276,27.555787],[98.328602,27.522869],[98.294703,27.536615],[98.204372,27.727301],[98.196621,27.823187],[98.140087,27.878558],[98.177294,27.912923],[98.107117,27.973074],[98.122517,28.015449],[98.118693,28.14079],[98.048619,28.199624],[97.991052,28.214015],[97.992912,28.268922],[97.897518,28.355325],[97.85907,28.37013],[97.797265,28.34393],[97.765329,28.352431],[97.699597,28.48803],[97.670451,28.511284],[97.613607,28.481984],[97.546221,28.538466],[97.527721,28.529526],[97.445349,28.382971],[97.447829,28.297602],[97.384371,28.284838],[97.323496,28.217478],[97.229651,28.274606],[97.210531,28.308092],[97.078446,28.375143],[96.965791,28.330468],[96.716924,28.436539],[96.561518,28.447293],[96.369644,28.378116],[96.301852,28.420711],[96.336459,28.479667],[96.502375,28.644476],[96.501044,28.687631],[96.59801,28.70991],[96.592584,28.757884],[96.576668,28.808527],[96.510832,28.885525],[96.492229,28.948002],[96.452128,28.970378],[96.457605,28.994588],[96.366568,29.036537],[96.248588,28.945343],[96.195323,28.941106],[96.174625,29.108845],[96.210075,29.145767],[96.316425,29.171864],[96.366241,29.257233],[96.337096,29.279713],[96.235293,29.241214],[96.176279,29.286456],[96.141966,29.368467],[95.953735,29.359219],[95.863134,29.323985],[95.79594,29.352886],[95.744781,29.340432],[95.747365,29.273651],[95.717165,29.218284],[95.56443,29.245606],[95.550167,29.212482],[95.515337,29.209433],[95.521435,29.137861],[95.487577,29.068994],[95.367406,29.036496],[95.224916,29.059364],[95.199698,29.094246],[94.989065,29.153984],[94.776571,29.166696],[94.761482,29.174706],[94.767683,29.213851],[94.704224,29.284699],[94.599941,29.316635],[94.514778,29.22106],[94.396439,29.207081],[94.335771,29.149617],[94.287505,29.147938],[94.270786,29.09793],[94.347311,29.024349],[94.250183,28.933107],[94.173658,28.930164],[94.135396,28.897788],[93.992019,28.844649],[93.981591,28.768131],[93.927786,28.682752],[93.86308,28.704871],[93.781744,28.680504],[93.722475,28.696647],[93.62553,28.67236],[93.446213,28.671894],[93.31717,28.603463],[93.286972,28.520517],[93.186286,28.431995],[93.218073,28.394647],[93.207825,28.340539],[92.974924,28.282306],[92.903817,28.249698],[92.834777,28.183526],[92.790232,28.178901],[92.779174,28.195903],[92.678611,28.133064],[92.638924,28.057487],[92.689257,28.048315],[92.736392,27.985909],[92.683674,27.91045],[92.574977,27.847806],[92.475109,27.846596],[92.427567,27.821171],[92.392841,27.856027],[92.367933,27.803834],[92.329175,27.832928],[92.303854,27.78616],[92.239568,27.865277],[92.126294,27.812722],[92.064878,27.761721],[91.988898,27.769398],[91.952247,27.72482],[91.864914,27.729988],[91.826589,27.807627],[91.729871,27.804136],[91.680131,27.849823],[91.628339,27.852694],[91.652834,27.916747],[91.637951,27.939743],[91.418843,27.994726],[91.341432,28.030564],[91.290169,28.091413],[91.269705,28.072861],[91.194671,28.070587],[91.092558,27.971679],[91.051941,27.96279],[90.975149,27.982092],[90.90952,28.032657],[90.726896,28.061699],[90.667468,28.090328],[90.575277,28.065833],[90.475232,28.072344],[90.485669,28.124657],[90.597602,28.200376],[90.587726,28.233298],[90.386905,28.299141],[90.353984,28.299141],[90.329504,28.255796],[90.29147,28.261351],[90.261804,28.299141],[90.261804,28.335354],[90.225591,28.358399],[90.153164,28.322185],[90.07086,28.34523],[89.952524,28.308247],[89.91613,28.315601],[89.862918,28.295793],[89.780855,28.228769],[89.755844,28.184379],[89.561489,28.13464],[89.444545,28.031184],[89.336025,27.869075],[89.22492,27.807813],[89.124655,27.614852],[89.064029,27.615946],[88.978366,27.530283],[88.982966,27.492632],[88.95106,27.433144],[88.997019,27.330869],[88.971933,27.312385],[88.91516,27.330869],[88.892331,27.315543],[88.795386,27.385926],[88.759781,27.435071],[88.741022,27.54571],[88.805669,27.655109],[88.853884,27.843676],[88.851558,27.877163],[88.810682,27.927857],[88.81771,27.994881],[88.735648,28.055265],[88.652035,28.069399],[88.610488,28.105831],[88.50207,28.028885],[88.455768,28.03152],[88.37877,27.982634],[88.115737,27.947262],[88.097496,27.904008],[88.118218,27.860885],[88.029954,27.893337],[87.978433,27.880522],[87.836685,27.908323],[87.779841,27.839439],[87.726821,27.807761],[87.636077,27.823652],[87.573342,27.805022],[87.531587,27.836803],[87.369116,27.803937],[87.385343,27.849412],[87.363845,27.855252],[87.290516,27.816081],[87.155796,27.825796],[87.005676,27.951499],[86.914725,27.945117],[86.840466,28.014777],[86.739801,28.021495],[86.731739,28.076918],[86.680063,28.105727],[86.612315,28.080277],[86.553559,28.104151],[86.510461,27.952429],[86.425298,27.909925],[86.203038,28.002581],[86.172238,28.071828],[86.186036,28.133529],[86.15596,28.156525],[86.068731,28.076763],[86.112862,27.926798],[86.061703,27.889048],[85.98026,27.885172],[85.951218,27.91623],[85.956593,27.976226],[85.898302,28.036016],[85.863368,28.143348],[85.734487,28.221534],[85.699761,28.269102],[85.692939,28.335222],[85.611807,28.251145],[85.565299,28.275381],[85.43156,28.297059],[85.362572,28.259672],[85.312601,28.282771],[85.243406,28.267914],[85.173591,28.30432],[85.134162,28.291969],[85.087395,28.304113],[85.077577,28.435681],[85.153748,28.524901],[85.160982,28.595],[85.054942,28.638692],[84.92849,28.538466],[84.81196,28.54198],[84.755632,28.585414],[84.677756,28.604405],[84.682975,28.650759],[84.632642,28.668794],[84.616209,28.69365],[84.450845,28.73388],[84.376586,28.848835],[84.235147,28.90002],[84.206725,28.940664],[84.231427,29.025981],[84.175461,29.057401],[84.13226,29.143804],[84.161663,29.192534],[84.112364,29.209097],[84.08973,29.256613],[84.035211,29.247622],[84.012525,29.270204],[83.975835,29.263745],[83.957955,29.28904],[83.914392,29.289402],[83.79321,29.234754],[83.69549,29.226176],[83.639266,29.154759],[83.523718,29.183594],[83.502996,29.261032],[83.393132,29.356245],[83.38724,29.393504],[83.35701,29.415363],[83.355201,29.460735],[83.327968,29.485023],[83.26394,29.473008],[83.247197,29.494738],[83.26084,29.542048],[83.173558,29.621268],[83.093357,29.615144],[83.064935,29.57879],[82.975896,29.66403],[82.931919,29.664185],[82.899725,29.688422],[82.836576,29.659793],[82.690952,29.780741],[82.688988,29.827741],[82.618502,29.839833],[82.541814,29.923239],[82.457065,29.95409],[82.394433,30.003131],[82.347304,30.003441],[82.318882,30.031811],[82.210671,30.064419],[82.153827,30.058166],[82.127576,30.124364],[82.155688,30.181363],[82.084994,30.230817],[82.088767,30.330088],[81.969032,30.328279],[81.941231,30.353962],[81.844389,30.371171],[81.779018,30.358045],[81.614015,30.416904],[81.536811,30.37856],[81.509371,30.328382],[81.42612,30.372514],[81.387518,30.373909],[81.368036,30.301046],[81.377854,30.232626],[81.350052,30.15723],[81.266956,30.125087],[81.272021,30.079922],[81.225719,30.050467],[81.21683,30.008195],[81.097768,30.016929],[80.976018,30.255209],[80.781663,30.320993],[80.723062,30.392048],[80.596351,30.459796],[80.508295,30.462328],[80.252806,30.565009],[80.179839,30.559479],[80.2033,30.60635],[80.16661,30.674408],[80.207021,30.686138],[80.231412,30.724947],[80.157102,30.79316],[80.092196,30.774505],[80.062534,30.784789],[80.028634,30.830781],[79.903164,30.890209],[79.833504,30.961522],[79.739039,30.979247],[79.577809,30.938371],[79.512697,30.966173],[79.47642,31.014025],[79.401592,31.023637],[79.367048,31.111559],[79.319417,31.14228],[79.288321,31.225474],[79.25286,31.245437],[79.262024,31.278513],[79.238319,31.329656],[79.131397,31.438433],[79.07021,31.461381],[78.921008,31.269685],[78.745095,31.308116],[78.762561,31.44511],[78.695382,31.488105],[78.699516,31.510016],[78.818889,31.607374],[78.758117,31.666595],[78.724011,31.673313],[78.670887,31.770517],[78.744578,31.9642],[78.649287,32.036444],[78.513068,32.20757],[78.457981,32.229662],[78.462735,32.281803],[78.434519,32.383761],[78.452193,32.416782],[78.380983,32.528041],[78.384807,32.547549],[78.630166,32.578013],[78.694452,32.629663],[78.736827,32.629844],[78.750986,32.612791],[78.73693,32.545792],[78.77145,32.461663],[78.943429,32.346373],[79.028178,32.377095],[79.075307,32.37079],[79.112928,32.472386],[79.287412,32.532579],[79.320466,32.592267],[79.379477,32.57645],[79.40682,32.529683],[79.443497,32.534773],[79.620673,32.728725],[79.613913,32.765035],[79.564093,32.793928],[79.414089,32.972053],[79.333586,32.994292],[79.339787,33.013257],[79.399273,33.026878],[79.37317,33.11214],[79.423475,33.157825],[79.456096,33.250399],[79.420084,33.275169],[79.098028,33.287655],[78.964986,33.344254],[78.917694,33.386258]]],[[[111.010509,19.683783],[111.034679,19.642239],[110.965831,19.635972],[110.876475,19.539781],[110.842784,19.539944],[110.821788,19.567776],[110.825694,19.603258],[110.862641,19.60871],[110.847667,19.622463],[110.794444,19.601264],[110.821788,19.554104],[110.796235,19.484605],[110.760265,19.457913],[110.757579,19.430894],[110.698253,19.416938],[110.669688,19.381741],[110.677908,19.334377],[110.641368,19.312445],[110.580333,19.155178],[110.510102,19.150051],[110.479177,19.169257],[110.507335,19.132229],[110.546235,19.139879],[110.554942,19.087348],[110.582286,19.150051],[110.563243,19.05565],[110.518077,18.993476],[110.513357,18.906399],[110.465587,18.881903],[110.431488,18.821479],[110.492849,18.793118],[110.503429,18.881903],[110.534434,18.785631],[110.469005,18.777167],[110.403494,18.662787],[110.335216,18.673326],[110.410899,18.690131],[110.403494,18.703762],[110.307872,18.662787],[110.270844,18.668158],[110.121104,18.555813],[110.088145,18.50434],[110.03419,18.511949],[110.08253,18.477769],[110.068207,18.408922],[110.044607,18.440131],[110.040294,18.38227],[109.968598,18.389838],[109.968598,18.405504],[110.013682,18.408922],[110.020518,18.450507],[110.006196,18.429389],[109.992524,18.443061],[109.96518,18.416327],[109.898285,18.414252],[109.83546,18.38227],[109.795665,18.405178],[109.746104,18.395901],[109.731781,18.273017],[109.7046,18.292222],[109.670421,18.273017],[109.739268,18.258734],[109.708751,18.207221],[109.690684,18.209174],[109.677257,18.245063],[109.60613,18.208889],[109.615733,18.176174],[109.561209,18.169338],[109.568044,18.193183],[109.547618,18.220852],[109.561209,18.258734],[109.529552,18.227688],[109.533946,18.210354],[109.478689,18.192694],[109.465017,18.204088],[109.509613,18.23078],[109.506521,18.252753],[109.492931,18.245063],[109.439952,18.288967],[109.21811,18.30565],[109.162608,18.287828],[109.135997,18.361151],[108.990896,18.36872],[108.795584,18.486558],[108.684906,18.515204],[108.674083,18.554836],[108.693614,18.719875],[108.623871,18.849189],[108.656261,18.943996],[108.615245,19.10163],[108.663097,19.156236],[108.683442,19.156236],[108.66391,19.209621],[108.622081,19.217719],[108.63795,19.248969],[108.626964,19.27497],[108.677257,19.327582],[108.686534,19.377875],[108.76295,19.388983],[108.92449,19.506252],[108.944835,19.492011],[108.940766,19.514106],[109.008474,19.597073],[109.156505,19.649644],[109.211192,19.724799],[109.258962,19.731635],[109.307384,19.711127],[109.274669,19.757229],[109.307384,19.786851],[109.273204,19.793647],[109.163341,19.724799],[109.16684,19.805487],[109.248709,19.868842],[109.255138,19.898342],[109.311371,19.919501],[109.3213,19.892035],[109.368826,19.889309],[109.412608,19.861396],[109.443614,19.872992],[109.465017,19.834052],[109.527029,19.861965],[109.581716,19.855699],[109.520193,19.882473],[109.515636,19.905219],[109.557465,19.917304],[109.527029,19.951361],[109.595714,19.99315],[109.719005,20.010647],[109.71811,19.957506],[109.737559,19.978095],[109.807628,19.951361],[109.815929,19.991197],[109.835134,19.973334],[109.83546,19.930854],[109.883311,19.984849],[109.942638,19.990912],[109.975597,19.932278],[109.951508,19.930854],[109.990082,19.905951],[110.006196,19.910346],[109.992198,19.92536],[110.013682,19.957506],[110.068207,19.978664],[110.122732,19.974311],[110.149587,20.006578],[110.115489,19.984849],[110.068207,19.984849],[110.129731,20.012763],[110.156993,20.067369],[110.260997,20.033149],[110.344737,20.058051],[110.37672,20.026435],[110.368175,20.007799],[110.417735,19.923407],[110.409434,19.980048],[110.382986,20.012763],[110.382986,20.081041],[110.424571,20.047512],[110.527599,20.020209],[110.520763,20.006578],[110.550548,19.988471],[110.57545,19.999172],[110.605805,19.923163],[110.62322,19.971829],[110.600922,20.021064],[110.570811,20.030666],[110.566173,20.069525],[110.59311,20.107327],[110.652029,20.117011],[110.677908,20.16356],[110.710948,20.075181],[110.788341,20.010403],[110.869884,19.997016],[110.920665,20.01203],[110.934581,19.995063],[110.977061,19.865871],[110.994395,19.694281],[111.010509,19.683783]]],[[[111.962657,21.65762],[111.999848,21.653998],[111.999848,21.621161],[111.909679,21.600531],[111.863292,21.568264],[111.809337,21.565497],[111.842052,21.606838],[111.835297,21.643948],[111.962657,21.65762]]],[[[112.645356,21.712836],[112.650401,21.640448],[112.607188,21.616034],[112.555919,21.62344],[112.525401,21.598863],[112.524262,21.626899],[112.567882,21.660631],[112.555919,21.678127],[112.645356,21.712836]]],[[[112.844005,21.774319],[112.862559,21.769436],[112.862559,21.745592],[112.797537,21.705878],[112.810557,21.65762],[112.793468,21.608222],[112.810557,21.589301],[112.764903,21.581855],[112.734386,21.62873],[112.774425,21.691718],[112.715587,21.680243],[112.711681,21.702541],[112.764903,21.731757],[112.777517,21.77265],[112.844005,21.774319]]],[[[113.391449,22.027533],[113.405772,22.007025],[113.309418,22.024115],[113.38266,22.089586],[113.398936,22.068508],[113.412608,22.075995],[113.391449,22.027533]]],[[[113.364757,22.157904],[113.31365,22.076402],[113.279145,22.074693],[113.271739,22.120022],[113.32309,22.157904],[113.327973,22.145819],[113.364757,22.157904]]],[[[113.593516,22.784817],[113.594574,22.75609],[113.558279,22.75788],[113.528575,22.802151],[113.521169,22.787909],[113.506114,22.798041],[113.480805,22.849311],[113.473155,22.825385],[113.455903,22.830756],[113.396169,22.898098],[113.432953,22.912014],[113.475597,22.900702],[113.527029,22.846625],[113.573009,22.830064],[113.593516,22.784817]]],[[[117.071544,23.47309],[117.090328,23.461077],[117.125852,23.482692],[117.141794,23.449653],[117.128781,23.399369],[116.942989,23.430062],[116.982188,23.459459],[117.01002,23.438951],[117.071544,23.47309]]],[[[117.468901,23.75309],[117.526661,23.740107],[117.516191,23.716278],[117.484156,23.710793],[117.479835,23.662678],[117.421149,23.646464],[117.431559,23.58263],[117.320483,23.574016],[117.369125,23.622357],[117.393728,23.679185],[117.340505,23.688951],[117.376689,23.728865],[117.372732,23.76675],[117.413585,23.771674],[117.447782,23.742252],[117.468901,23.75309]]],[[[119.305431,26.035956],[119.401215,25.996039],[119.404959,25.977932],[119.381114,25.966986],[119.257579,26.001451],[119.209239,26.098578],[119.257579,26.047553],[119.305431,26.035956]]],[[[121.255531,28.140001],[121.285352,28.101946],[121.279145,28.085435],[121.238129,28.092922],[121.231456,28.065009],[121.151573,28.041232],[121.155235,28.071368],[121.120372,28.135688],[121.165283,28.150534],[121.230588,28.219733],[121.268893,28.193942],[121.255531,28.140001]]],[[[122.23878,30.313137],[122.203868,30.291409],[122.231944,30.277737],[122.202322,30.241929],[122.073578,30.291409],[122.211436,30.346625],[122.23878,30.313137]]],[[[122.398936,30.456488],[122.423106,30.414944],[122.347992,30.435981],[122.285411,30.422065],[122.272797,30.435981],[122.28712,30.442206],[122.28004,30.482611],[122.337413,30.458482],[122.369151,30.476996],[122.374685,30.457343],[122.398936,30.456488]]],[[[121.837738,31.375149],[121.867849,31.366197],[121.881847,31.336615],[121.866222,31.304185],[121.834727,31.292548],[121.7942,31.368801],[121.837738,31.375149]]],[[[119.880707,32.12519],[119.901866,32.073391],[119.792003,32.121772],[119.791026,32.165473],[119.819347,32.203762],[119.749848,32.228013],[119.716156,32.27265],[119.750824,32.293118],[119.814301,32.27558],[119.880707,32.12519]]],[[[122.3213,39.165961],[122.402599,39.213813],[122.388927,39.187079],[122.402599,39.159125],[122.333995,39.146308],[122.3213,39.165961]]],[[[122.635997,39.23428],[122.741954,39.23607],[122.690684,39.193305],[122.69752,39.221259],[122.635997,39.23428]]],[[[122.684418,39.262193],[122.586192,39.258002],[122.505056,39.296942],[122.684418,39.262193]]],[[[121.422537,39.474514],[121.45045,39.450263],[121.41627,39.440334],[121.435557,39.416205],[121.421723,39.373684],[121.336925,39.377387],[121.379649,39.424872],[121.364268,39.445461],[121.296153,39.391425],[121.259451,39.391506],[121.26588,39.43358],[121.311046,39.447943],[121.340587,39.48135],[121.422537,39.474514]]],[[[122.964366,39.515448],[122.968028,39.541083],[122.989757,39.549506],[123.04005,39.529731],[123.005707,39.497301],[122.964366,39.515448]]],[[[110.595876,20.958726],[110.632498,20.936672],[110.589203,20.88349],[110.547537,20.917711],[110.595876,20.958726]]],[[[110.547537,21.037258],[110.516938,20.937649],[110.493012,20.977973],[110.441417,21.005845],[110.363048,21.005845],[110.266612,20.972642],[110.24586,20.986029],[110.265391,21.00434],[110.24586,21.027574],[110.287364,21.03384],[110.273123,21.061103],[110.309906,21.052924],[110.335216,21.06859],[110.287364,21.074449],[110.389822,21.095893],[110.417735,21.040595],[110.526378,21.082099],[110.547537,21.037258]]],[[[110.616954,21.191474],[110.543224,21.104967],[110.479177,21.16413],[110.461436,21.151068],[110.451915,21.178453],[110.417735,21.178453],[110.462169,21.205146],[110.499848,21.206285],[110.46339,21.190741],[110.492931,21.183905],[110.543224,21.204169],[110.568614,21.191474],[110.554942,21.156724],[110.594005,21.202786],[110.616954,21.191474]]],[[[118.09254,24.55622],[118.181407,24.535102],[118.188731,24.494127],[118.136485,24.429267],[118.069998,24.460273],[118.103038,24.479885],[118.106212,24.494127],[118.082286,24.482327],[118.072032,24.49787],[118.09254,24.55622]]],[[[119.846528,25.536322],[119.818614,25.545803],[119.798839,25.515815],[119.846528,25.461168],[119.771983,25.450588],[119.757335,25.404934],[119.693044,25.437649],[119.709972,25.48786],[119.668468,25.48786],[119.686209,25.507717],[119.748546,25.50259],[119.778331,25.52204],[119.726329,25.525133],[119.727061,25.590888],[119.702647,25.577297],[119.692719,25.594224],[119.730479,25.646145],[119.76352,25.659491],[119.781749,25.659166],[119.792003,25.60456],[119.832856,25.590888],[119.816905,25.57982],[119.874522,25.556789],[119.846528,25.536322]]],[[[121.95753,29.119534],[121.935313,29.062893],[121.888682,29.072333],[121.900157,29.093736],[121.868175,29.147406],[121.926606,29.166734],[121.951915,29.152289],[121.95753,29.119534]]],[[[122.14324,29.733385],[122.18686,29.673407],[122.162934,29.654527],[122.16977,29.675035],[122.127452,29.669013],[122.092784,29.725775],[122.04005,29.716376],[122.032888,29.730943],[122.068207,29.779527],[122.107432,29.789618],[122.14324,29.733385]]],[[[122.395193,29.883612],[122.382823,29.864732],[122.395193,29.833319],[122.357107,29.861721],[122.367361,29.895901],[122.325206,29.927883],[122.32545,29.953925],[122.406749,29.952704],[122.395193,29.883612]]],[[[121.881847,30.076361],[121.910492,30.024115],[121.889659,29.983954],[121.860118,29.978095],[121.828868,29.997504],[121.834727,30.044989],[121.853038,30.087144],[121.881847,30.076361]]],[[[122.327485,30.024482],[122.29363,29.933783],[122.229177,29.978664],[122.098969,30.014472],[122.019054,29.997219],[122.012218,30.031928],[121.973399,30.059963],[121.963145,30.142401],[122.103282,30.143704],[122.289561,30.067328],[122.327485,30.024482]]],[[[121.844075,31.607947],[121.980086,31.540296],[121.977851,31.477771],[121.851374,31.439179],[121.68463,31.506807],[121.571544,31.529364],[121.314464,31.655585],[121.285899,31.704047],[121.176288,31.784323],[121.219301,31.829473],[121.322564,31.829331],[121.475304,31.77077],[121.663223,31.652352],[121.844075,31.607947]]],[[[111.196544,15.775377],[111.1963,15.785712],[111.208507,15.786282],[111.196544,15.775377]]],[[[111.763357,16.043443],[111.753103,16.044664],[111.761404,16.048651],[111.763357,16.043443]]],[[[109.100922,21.021186],[109.090505,21.041938],[109.122732,21.065416],[109.127696,21.032172],[109.100922,21.021186]]],[[[120.748383,37.938707],[120.754568,37.896674],[120.722423,37.919094],[120.727061,37.947659],[120.748383,37.938707]]],[[[120.606781,37.979885],[120.625824,37.972561],[120.622895,37.948798],[120.606781,37.979885]]],[[[120.720063,37.980943],[120.72047,37.964016],[120.688243,37.985256],[120.720063,37.980943]]],[[[120.760427,38.170478],[120.773285,38.159735],[120.746593,38.161851],[120.742686,38.187567],[120.760427,38.170478]]],[[[120.806488,38.288235],[120.807384,38.304877],[120.82838,38.298814],[120.806488,38.288235]]],[[[120.914236,38.384101],[120.906912,38.392564],[120.924571,38.386868],[120.914236,38.384101]]],[[[123.180675,39.091946],[123.195567,39.052069],[123.160655,39.029242],[123.145193,39.04328],[123.164724,39.066392],[123.143565,39.080878],[123.180675,39.091946]]],[[[111.600108,16.527289],[111.602875,16.533352],[111.60963,16.528266],[111.600108,16.527289]]],[[[112.735037,16.657945],[112.725271,16.666205],[112.72877,16.669257],[112.735037,16.657945]]],[[[112.333181,16.825019],[112.325938,16.833238],[112.330577,16.837633],[112.333181,16.825019]]],[[[112.333669,16.933254],[112.337087,16.932034],[112.340505,16.92357],[112.333669,16.933254]]],[[[110.471365,20.647366],[110.475841,20.595933],[110.457286,20.586859],[110.417654,20.654771],[110.437022,20.667914],[110.471365,20.647366]]],[[[113.278005,21.925035],[113.258474,21.880439],[113.225841,21.900824],[113.247732,21.943183],[113.278005,21.925035]]],[[[113.771747,22.000343],[113.764477,21.966818],[113.748206,21.972788],[113.736279,21.997162],[113.771747,22.000343]]],[[[114.306814,22.057196],[114.206716,22.025784],[114.30421,22.069281],[114.306814,22.057196]]],[[[113.473481,22.098538],[113.471528,22.114081],[113.518891,22.127265],[113.547618,22.092597],[113.484711,22.071357],[113.473481,22.098538]]],[[[113.623379,22.439872],[113.657825,22.423751],[113.621187,22.391419],[113.623379,22.439872]]],[[[113.546759,22.741884],[113.635687,22.656475],[113.641832,22.601624],[113.60261,22.611521],[113.476511,22.719514],[113.546759,22.741884]]],[[[113.52921,22.960354],[113.553599,22.911281],[113.545014,22.879961],[113.50996,22.921216],[113.505754,22.951609],[113.515376,22.96922],[113.52921,22.960354]]],[[[116.995616,23.563544],[117.009288,23.554999],[116.987804,23.524115],[116.937266,23.526272],[116.995616,23.563544]]],[[[119.551036,25.209459],[119.567556,25.204901],[119.528982,25.165351],[119.512706,25.198798],[119.461192,25.203315],[119.444672,25.229071],[119.470388,25.252183],[119.511974,25.213446],[119.551036,25.209459]]],[[[119.346528,25.566718],[119.334972,25.437974],[119.296886,25.422919],[119.281505,25.482896],[119.307465,25.54682],[119.346528,25.566718]]],[[[119.626964,26.107896],[119.644054,26.078437],[119.620372,26.064195],[119.553966,26.095649],[119.599376,26.128119],[119.626964,26.107896]]],[[[120.326834,26.939683],[120.322195,26.962104],[120.3449,26.971951],[120.385671,26.935167],[120.35255,26.923774],[120.326834,26.939683]]],[[[121.074002,27.479484],[121.103365,27.45188],[121.066487,27.454984],[121.067264,27.43677],[121.046109,27.465199],[121.074002,27.479484]]],[[[121.181651,27.864651],[121.171235,27.818793],[121.097992,27.817816],[121.114024,27.844143],[121.181651,27.864651]]],[[[121.049327,27.950873],[121.045177,27.967475],[121.07016,27.982896],[121.139659,27.965766],[121.103282,27.946194],[121.049327,27.950873]]],[[[121.862153,29.129584],[121.842052,29.095038],[121.782725,29.124661],[121.789806,29.149848],[121.862153,29.129584]]],[[[122.304698,29.81745],[122.30836,29.776272],[122.2317,29.836249],[122.271169,29.846829],[122.312022,29.829047],[122.304698,29.81745]]],[[[121.972179,29.94477],[121.992442,29.908271],[121.946137,29.903957],[121.940929,29.93769],[121.972179,29.94477]]],[[[122.345714,30.241929],[122.277599,30.235541],[122.323985,30.272162],[122.407725,30.265937],[122.408539,30.243964],[122.380626,30.263739],[122.345714,30.241929]]],[[[122.529307,30.720771],[122.52475,30.701809],[122.427257,30.703925],[122.429942,30.743069],[122.472911,30.717231],[122.529307,30.720771]]],[[[121.76238,31.373765],[121.782237,31.341783],[121.766368,31.320624],[121.584483,31.441392],[121.691254,31.419176],[121.76238,31.373765]]],[[[118.632743,39.074581],[118.648736,39.044651],[118.594321,38.972197],[118.514308,38.919445],[118.480276,38.93482],[118.478483,39.042858],[118.526381,39.046694],[118.559718,39.003125],[118.628711,39.048554],[118.614637,39.067649],[118.632743,39.074581]]],[[[111.680268,16.578152],[111.678884,16.581122],[111.681651,16.580186],[111.680268,16.578152]]]]}}]}
