{"type":"FeatureCollection","features":[{"type":"Feature","properties":{"name":"Costa Rica","ISO3166-1-Alpha-3":"CRI","ISO3166-1-Alpha-2":"CR"},"geometry":{"type":"MultiPolygon","coordinates":[[[[-83.6965,10.936594],[-83.644358,10.92593],[-83.580556,10.807318],[-83.582875,10.775702],[-83.62385,10.857611],[-83.608632,10.74551],[-83.637522,10.721096],[-83.589101,10.747748],[-83.589101,10.721096],[-83.575429,10.768256],[-83.466176,10.494534],[-83.203725,10.12934],[-83.085317,10.002143],[-83.061513,10.015326],[-83.026031,10.005032],[-83.009348,9.949286],[-82.877268,9.780097],[-82.833811,9.739488],[-82.808258,9.747219],[-82.78775,9.672756],[-82.616444,9.624335],[-82.562837,9.538695],[-82.601103,9.548669],[-82.618854,9.486709],[-82.650713,9.487846],[-82.771093,9.579856],[-82.847471,9.600655],[-82.879252,9.559909],[-82.846385,9.492548],[-82.941703,9.456349],[-82.939377,9.059577],[-82.900232,9.072057],[-82.88243,9.04534],[-82.74913,8.974079],[-82.719365,8.921524],[-82.763781,8.87995],[-82.87858,8.829772],[-82.875789,8.793909],[-82.92297,8.756159],[-82.841864,8.599476],[-82.848297,8.465169],[-83.052109,8.327632],[-82.995524,8.26482],[-82.943666,8.248567],[-82.886409,8.102194],[-82.897629,8.034748],[-82.911244,8.045356],[-82.90038,8.105048],[-82.968495,8.221218],[-83.150868,8.369289],[-83.092681,8.446682],[-83.137196,8.514553],[-83.102447,8.548041],[-83.165151,8.563747],[-83.178212,8.61697],[-83.15331,8.577175],[-83.123565,8.596462],[-83.171376,8.637478],[-83.240264,8.623806],[-83.259307,8.651313],[-83.319081,8.669582],[-83.331695,8.722073],[-83.383656,8.739814],[-83.421661,8.715155],[-83.48172,8.712592],[-83.486684,8.692694],[-83.473012,8.698879],[-83.404775,8.589016],[-83.287384,8.541815],[-83.294911,8.493435],[-83.273712,8.437934],[-83.287384,8.376736],[-83.346425,8.3876],[-83.404775,8.431952],[-83.404775,8.41767],[-83.462432,8.442694],[-83.575592,8.444973],[-83.736806,8.592719],[-83.739898,8.623806],[-83.709462,8.670356],[-83.660919,8.689846],[-83.627471,8.767401],[-83.575429,8.788275],[-83.642568,8.781887],[-83.582875,8.846625],[-83.616363,8.890692],[-83.575429,8.877631],[-83.630035,8.91177],[-83.603383,8.966376],[-83.634755,9.044094],[-83.727203,9.144314],[-83.767201,9.151394],[-83.786895,9.199246],[-83.839508,9.220282],[-83.91808,9.294745],[-84.1787,9.397773],[-84.167958,9.416205],[-84.208363,9.464993],[-84.233388,9.473456],[-84.205434,9.45303],[-84.231435,9.457546],[-84.457916,9.526028],[-84.535024,9.521308],[-84.555409,9.552395],[-84.569122,9.555447],[-84.562978,9.541164],[-84.616567,9.57807],[-84.662709,9.651679],[-84.678375,9.651028],[-84.678375,9.692572],[-84.634552,9.783393],[-84.725942,9.884467],[-84.709706,9.922553],[-84.734283,9.942572],[-84.733632,9.966946],[-84.850942,9.966946],[-84.788238,9.987454],[-84.898101,10.015326],[-85.013905,10.115994],[-85.076202,10.138251],[-85.068349,10.155666],[-85.089874,10.17239],[-85.193471,10.170111],[-85.234527,10.207099],[-85.246246,10.252631],[-85.289174,10.282253],[-85.25418,10.241156],[-85.227081,10.124579],[-85.238271,10.102444],[-85.152577,10.035834],[-85.186147,10.035834],[-85.144521,9.999335],[-85.014516,9.944973],[-84.959584,9.946479],[-84.911122,9.911689],[-84.930165,9.886298],[-84.904937,9.857082],[-84.932851,9.836615],[-84.864613,9.829169],[-84.945912,9.760891],[-84.959584,9.727362],[-85.007598,9.744086],[-84.994985,9.703274],[-85.062611,9.66531],[-85.117828,9.555447],[-85.299306,9.80801],[-85.439971,9.864529],[-85.470367,9.850246],[-85.525177,9.877387],[-85.663808,9.900092],[-85.676137,9.955512],[-85.778554,10.079901],[-85.844024,10.231024],[-85.857696,10.289089],[-85.838165,10.312038],[-85.874989,10.355048],[-85.775502,10.447292],[-85.809234,10.515041],[-85.781972,10.542996],[-85.76122,10.531806],[-85.700063,10.54914],[-85.677846,10.592108],[-85.631744,10.621161],[-85.652252,10.644721],[-85.700063,10.611233],[-85.662872,10.678982],[-85.665273,10.778835],[-85.680287,10.796332],[-85.74649,10.816189],[-85.767486,10.806098],[-85.80309,10.837185],[-85.795644,10.850857],[-85.946441,10.898586],[-85.857696,10.92593],[-85.878163,10.946357],[-85.816151,10.946357],[-85.795644,10.905463],[-85.78246,10.937445],[-85.710561,10.92829],[-85.69815,10.983222],[-85.746002,11.023017],[-85.718861,11.042914],[-85.699615,11.028632],[-85.667511,11.039862],[-85.701736,11.08088],[-85.631151,11.196217],[-85.597794,11.209937],[-85.508626,11.152421],[-84.9314,10.941891],[-84.884969,10.947679],[-84.676455,11.070411],[-84.62067,11.035762],[-84.498171,11.001991],[-84.4382,10.952201],[-84.355466,10.994627],[-84.310741,10.919412],[-84.20837,10.860966],[-84.204649,10.836988],[-84.227102,10.819315],[-84.191601,10.78172],[-84.137004,10.789162],[-84.07644,10.763814],[-84.009234,10.789446],[-83.917276,10.713482],[-83.859528,10.721776],[-83.835343,10.747614],[-83.663028,10.807016],[-83.669855,10.891718],[-83.6965,10.936594]]],[[[-85.131337,10.0987],[-85.09732,10.083645],[-85.158803,10.076158],[-85.199127,10.117743],[-85.110463,10.110297],[-85.145131,10.103461],[-85.131337,10.0987]]],[[[-87.099029,5.516018],[-87.117665,5.515082],[-87.064605,5.557847],[-87.065541,5.534613],[-87.099029,5.516018]]],[[[-83.896618,8.706492],[-83.869114,8.713587],[-83.878076,8.698821],[-83.896618,8.706492]]]]}}]}
