{"type":"FeatureCollection","features":[{"type":"Feature","properties":{"name":"Cuba","ISO3166-1-Alpha-3":"CUB","ISO3166-1-Alpha-2":"CU"},"geometry":{"type":"MultiPolygon","coordinates":[[[[-75.095006,19.897226],[-75.09495,19.971584],[-75.137036,19.971551],[-75.090133,20.014137],[-75.092437,20.061225],[-75.135795,20.021296],[-75.169425,20.025577],[-75.174062,19.993476],[-75.15331,19.999172],[-75.146997,19.984278],[-75.228969,19.93744],[-75.232859,19.900051],[-75.284657,19.888251],[-75.444407,19.896715],[-75.520904,19.879625],[-75.604726,19.892035],[-75.721832,19.957506],[-75.893788,19.971829],[-75.980092,19.952379],[-76.20226,19.992336],[-76.524403,19.943915],[-76.866444,19.93769],[-76.958892,19.891059],[-77.298248,19.906684],[-77.339996,19.882473],[-77.312734,19.875637],[-77.35851,19.864488],[-77.706044,19.830024],[-77.73058,19.844794],[-77.735992,19.874172],[-77.716176,19.916571],[-77.682118,19.929592],[-77.572743,20.061103],[-77.586415,20.088528],[-77.551015,20.079779],[-77.521881,20.09455],[-77.401357,20.198065],[-77.266469,20.253241],[-77.236318,20.300767],[-77.222971,20.283393],[-77.195424,20.286526],[-77.161855,20.338324],[-77.113433,20.368476],[-77.082428,20.465277],[-77.150136,20.537909],[-77.195668,20.552151],[-77.195424,20.534125],[-77.239898,20.563056],[-77.240387,20.592108],[-77.195424,20.636542],[-77.251047,20.662095],[-77.258046,20.643378],[-77.343129,20.718492],[-77.493398,20.677476],[-77.572743,20.697984],[-77.620513,20.677558],[-77.877512,20.732164],[-77.942047,20.697984],[-78.041127,20.704495],[-78.05191,20.725979],[-78.065541,20.711656],[-78.190785,20.827623],[-78.23766,20.833401],[-78.272043,20.901109],[-78.342681,20.949408],[-78.40392,20.957953],[-78.429921,20.999701],[-78.487904,21.03856],[-78.538197,21.231635],[-78.531728,21.260403],[-78.511464,21.248847],[-78.498199,21.269965],[-78.5454,21.297593],[-78.563303,21.38345],[-78.628163,21.521064],[-78.665354,21.551174],[-78.746327,21.568061],[-78.744618,21.589301],[-78.689117,21.586412],[-78.744618,21.636542],[-78.878407,21.616034],[-78.898752,21.595526],[-79.075551,21.586086],[-79.208892,21.548489],[-79.329579,21.573676],[-79.364654,21.59927],[-79.472279,21.601996],[-79.515289,21.648586],[-79.539662,21.621975],[-79.613678,21.651313],[-79.652089,21.691718],[-79.815785,21.711249],[-79.833852,21.67768],[-79.850819,21.68008],[-79.895375,21.698554],[-79.874867,21.712836],[-79.895375,21.759996],[-79.930002,21.743313],[-80.012685,21.753811],[-79.990956,21.733344],[-80.003245,21.720893],[-80.038808,21.747138],[-80.06725,21.817043],[-80.269928,21.88703],[-80.416737,22.041205],[-80.44811,22.050279],[-80.450917,22.068508],[-80.388783,22.08218],[-80.409901,22.075995],[-80.396311,22.109524],[-80.456532,22.130439],[-80.44343,22.157904],[-80.484446,22.192043],[-80.532826,22.185777],[-80.538238,22.164455],[-80.470855,22.089097],[-80.470774,22.041205],[-80.513743,22.056342],[-80.761098,22.061103],[-80.905263,22.046129],[-81.08845,22.085842],[-81.142974,22.171536],[-81.136098,22.229885],[-81.193959,22.281562],[-81.211822,22.267768],[-81.197581,22.21247],[-81.204701,22.060289],[-81.225494,22.061672],[-81.215443,22.114976],[-81.239125,22.151068],[-81.273305,22.137397],[-81.27953,22.102607],[-81.31428,22.109524],[-81.33788,22.089016],[-81.374094,22.104153],[-81.396108,22.170722],[-81.523508,22.205024],[-81.571197,22.178371],[-81.639556,22.212714],[-81.666615,22.197903],[-81.732004,22.205024],[-81.759918,22.192043],[-81.752512,22.178371],[-81.824452,22.18891],[-81.879709,22.260403],[-82.088246,22.342231],[-82.105621,22.370185],[-82.163971,22.396877],[-82.118737,22.431828],[-81.841138,22.430757],[-81.683502,22.463595],[-81.651563,22.487827],[-81.643255,22.572737],[-81.753386,22.638037],[-81.877501,22.67973],[-82.098793,22.654921],[-82.198855,22.685774],[-82.632945,22.680185],[-82.759877,22.705959],[-82.790883,22.679877],[-82.800689,22.622748],[-83.058705,22.489447],[-83.16686,22.339545],[-83.260121,22.342231],[-83.26179,22.321967],[-83.285797,22.322699],[-83.287424,22.301907],[-83.335805,22.267768],[-83.354115,22.225775],[-83.375559,22.206977],[-83.398223,22.21928],[-83.415472,22.186093],[-83.516957,22.188218],[-83.561147,22.205024],[-83.575429,22.246649],[-83.614369,22.195746],[-83.67101,22.171536],[-83.664784,22.185777],[-83.780873,22.171536],[-83.787709,22.192043],[-83.825551,22.171536],[-83.925445,22.171536],[-83.966461,22.133979],[-83.972646,22.061672],[-84.00178,22.057563],[-83.993031,22.027981],[-83.958974,22.03498],[-83.999257,21.989488],[-83.997467,21.94184],[-84.029408,21.919867],[-84.120432,21.945014],[-84.240142,21.910834],[-84.305165,21.884508],[-84.423248,21.792304],[-84.508372,21.766832],[-84.521352,21.786566],[-84.473541,21.904608],[-84.496165,21.933783],[-84.659983,21.912055],[-84.839915,21.822903],[-84.925404,21.835761],[-84.949615,21.876776],[-84.931223,21.91474],[-84.877594,21.890326],[-84.848744,21.908393],[-84.864613,21.931952],[-84.847564,21.940619],[-84.822906,21.930894],[-84.822987,21.910834],[-84.521352,22.048041],[-84.462636,22.02204],[-84.387318,22.048041],[-84.330963,22.004584],[-84.288564,22.020697],[-84.274322,22.075995],[-84.308176,22.036689],[-84.350006,22.102607],[-84.335805,22.130561],[-84.392812,22.148505],[-84.445668,22.205024],[-84.415354,22.247382],[-84.373931,22.380683],[-84.288564,22.465766],[-84.309071,22.473212],[-84.230295,22.503607],[-84.2058,22.541164],[-84.21288,22.583075],[-84.164622,22.587633],[-84.144602,22.569403],[-84.13036,22.616523],[-84.089345,22.627102],[-84.078277,22.666205],[-84.052113,22.653306],[-84.021108,22.678656],[-84.068837,22.698472],[-84.048004,22.718248],[-83.984039,22.687079],[-83.911244,22.733303],[-83.897572,22.720201],[-83.872792,22.7508],[-83.709137,22.800686],[-83.651112,22.79682],[-83.629872,22.828315],[-83.558013,22.836249],[-83.534983,22.877021],[-83.49352,22.877265],[-83.500356,22.863593],[-83.480824,22.860256],[-83.437571,22.903469],[-83.393463,22.876899],[-83.329661,22.951077],[-83.226186,23.001858],[-83.178212,22.986518],[-83.18932,22.947821],[-83.169423,22.930121],[-83.143422,22.95303],[-83.160512,22.979967],[-83.061147,23.019599],[-83.002024,23.019232],[-82.986318,23.004096],[-83.002797,22.983588],[-82.979604,22.993964],[-82.981679,22.974189],[-82.964223,22.972886],[-82.917592,23.032457],[-82.57551,23.054023],[-82.40689,23.147447],[-82.21935,23.194241],[-82.150299,23.1789],[-82.033193,23.200507],[-81.985829,23.171454],[-81.862375,23.151028],[-81.581166,23.157782],[-81.535553,23.129381],[-81.552561,23.054348],[-81.528798,23.047187],[-81.502675,23.055365],[-81.480702,23.100328],[-81.271392,23.149563],[-81.149159,23.212388],[-81.130605,23.205634],[-81.286285,23.13052],[-81.149159,23.034898],[-81.120717,23.038967],[-81.078114,23.103827],[-80.987538,23.105862],[-80.977773,23.064439],[-80.959381,23.059027],[-80.759348,23.096991],[-80.663157,23.089545],[-80.623525,23.112942],[-80.636464,23.151028],[-80.597279,23.156073],[-80.587473,23.144761],[-80.622222,23.089545],[-80.556793,23.007392],[-80.464508,22.980292],[-80.431508,22.949937],[-80.246693,22.911038],[-80.156077,22.938707],[-80.163564,22.962551],[-80.070058,22.931789],[-80.050038,22.935248],[-80.046213,22.959174],[-79.987864,22.884101],[-79.916493,22.849311],[-79.863149,22.883694],[-79.792958,22.897773],[-79.820912,22.870429],[-79.85497,22.872545],[-79.857167,22.820705],[-79.771881,22.796617],[-79.700185,22.746894],[-79.651723,22.758775],[-79.627024,22.657497],[-79.57726,22.627102],[-79.517486,22.53913],[-79.456532,22.528469],[-79.424713,22.478746],[-79.341786,22.413153],[-79.238759,22.37641],[-79.005279,22.404283],[-78.78185,22.390611],[-78.757639,22.322333],[-78.734609,22.31623],[-78.709869,22.355902],[-78.737782,22.390611],[-78.708079,22.386908],[-78.676137,22.357001],[-78.566884,22.321031],[-78.483957,22.260321],[-78.3815,22.246649],[-78.3815,22.219306],[-78.367258,22.226752],[-78.301422,22.163804],[-78.172353,22.143622],[-78.155588,22.109524],[-78.065053,22.086982],[-77.993235,21.979682],[-77.888051,21.869859],[-77.870351,21.881537],[-77.860097,21.966132],[-77.806142,21.966132],[-77.853912,21.94184],[-77.848541,21.91059],[-77.822011,21.880276],[-77.777943,21.870022],[-77.751576,21.804633],[-77.664662,21.781155],[-77.586415,21.787909],[-77.524973,21.753811],[-77.516591,21.774604],[-77.455637,21.776842],[-77.421986,21.746405],[-77.452545,21.750678],[-77.456044,21.733344],[-77.430287,21.65762],[-77.347157,21.638617],[-77.342885,21.667548],[-77.38915,21.703843],[-77.407094,21.756578],[-77.448801,21.801907],[-77.490834,21.815253],[-77.504384,21.803534],[-77.593658,21.888739],[-77.614329,21.884182],[-77.589915,21.919257],[-77.55602,21.928534],[-77.507558,21.862454],[-77.401357,21.790473],[-77.330068,21.766343],[-77.180653,21.664252],[-77.133941,21.664455],[-77.123769,21.596177],[-77.154408,21.554592],[-77.266021,21.614244],[-77.364247,21.611762],[-77.312734,21.5751],[-77.255116,21.56745],[-77.277577,21.518459],[-77.258046,21.476386],[-77.208485,21.47606],[-77.216461,21.458401],[-77.161855,21.480129],[-77.115468,21.593207],[-77.088287,21.606187],[-76.946767,21.459052],[-76.811757,21.397528],[-76.825551,21.366645],[-76.89745,21.346096],[-76.887278,21.307359],[-76.836171,21.332465],[-76.829457,21.314114],[-76.805572,21.390082],[-76.671498,21.355943],[-76.636586,21.321357],[-76.716176,21.287665],[-76.731435,21.311916],[-76.73469,21.285549],[-76.613149,21.246731],[-76.653554,21.294135],[-76.61677,21.301825],[-76.557932,21.266588],[-76.544911,21.287665],[-76.559885,21.234524],[-76.613149,21.225572],[-76.537465,21.184638],[-76.456125,21.225572],[-76.516957,21.239244],[-76.525543,21.28205],[-76.387563,21.284329],[-76.169667,21.187161],[-76.137807,21.167222],[-76.11677,21.091498],[-76.072662,21.112982],[-76.041005,21.096666],[-76.03718,21.074774],[-76.023549,21.089057],[-76.008168,21.070299],[-76.003041,21.095893],[-75.924875,21.115709],[-75.873525,21.088772],[-75.821767,21.136868],[-75.794016,21.119045],[-75.70401,21.118964],[-75.675364,21.06859],[-75.635894,21.076361],[-75.578481,21.013373],[-75.648752,20.8994],[-75.681549,20.890448],[-75.696401,20.924872],[-75.723622,20.923407],[-75.735504,20.917711],[-75.715688,20.90351],[-75.743398,20.88935],[-75.721832,20.855048],[-75.678131,20.878241],[-75.626332,20.876776],[-75.551137,20.821519],[-75.57315,20.797675],[-75.630605,20.843085],[-75.770253,20.835842],[-75.783925,20.746405],[-75.724517,20.695502],[-75.708852,20.690579],[-75.633127,20.780585],[-75.607737,20.75316],[-75.61262,20.718492],[-75.577504,20.718451],[-75.583567,20.698228],[-75.551137,20.684394],[-75.556711,20.706448],[-75.497792,20.693427],[-75.476064,20.711656],[-75.44811,20.691148],[-75.440663,20.711656],[-75.476064,20.718492],[-75.439687,20.740627],[-75.356028,20.719916],[-75.349233,20.708482],[-75.373036,20.70425],[-75.359364,20.677558],[-75.345774,20.691148],[-75.312815,20.66474],[-75.256337,20.670722],[-75.33141,20.70425],[-75.294301,20.723131],[-75.194325,20.715644],[-75.178578,20.702216],[-75.194895,20.691148],[-75.115346,20.686591],[-75.106109,20.663275],[-75.098704,20.684394],[-75.071929,20.673245],[-75.078765,20.691148],[-74.998362,20.700751],[-74.940745,20.668402],[-74.900054,20.670722],[-74.850901,20.634589],[-74.735585,20.60928],[-74.749867,20.602444],[-74.732574,20.564846],[-74.605214,20.485745],[-74.494985,20.35517],[-74.423411,20.327582],[-74.392974,20.286526],[-74.235951,20.321234],[-74.139638,20.242336],[-74.141957,20.182603],[-74.225087,20.135688],[-74.235951,20.094672],[-74.267405,20.068305],[-74.392974,20.081041],[-74.580477,20.047642],[-74.812978,20.037258],[-74.887807,19.984076],[-74.947334,19.975949],[-74.977868,19.923035],[-75.045668,19.907601],[-75.058231,19.922966],[-75.095006,19.897226]]],[[[-78.333119,20.554633],[-78.338979,20.518012],[-78.46345,20.602444],[-78.433502,20.609524],[-78.384185,20.562161],[-78.367258,20.554633],[-78.355295,20.573432],[-78.333119,20.554633]]],[[[-78.436147,20.725979],[-78.51183,20.691148],[-78.5454,20.70425],[-78.483957,20.732164],[-78.436147,20.725979]]],[[[-78.826568,20.753241],[-78.750844,20.725979],[-78.792348,20.719916],[-78.826568,20.753241]]],[[[-75.517079,20.794257],[-75.482167,20.737779],[-75.577748,20.769517],[-75.578481,20.787421],[-75.517079,20.794257]]],[[[-78.925852,20.807847],[-78.876617,20.809231],[-78.847035,20.773139],[-78.94164,20.792629],[-78.964345,20.814114],[-78.932729,20.838935],[-78.925852,20.807847]]],[[[-79.025217,20.886664],[-78.971181,20.873521],[-78.988881,20.839057],[-79.079823,20.897284],[-79.025217,20.886664]]],[[[-79.073598,20.917711],[-79.094065,20.917711],[-79.087229,20.897284],[-79.11559,20.910834],[-79.169179,20.964911],[-79.114573,20.930813],[-79.14981,20.976793],[-79.197092,20.999701],[-79.200999,20.982408],[-79.224436,21.005845],[-79.182118,21.008002],[-79.137685,20.982652],[-79.073598,20.917711]]],[[[-79.388905,21.123236],[-79.35733,21.12759],[-79.292633,21.074774],[-79.340728,21.072903],[-79.354115,21.082221],[-79.331166,21.093004],[-79.388905,21.123236]]],[[[-81.372304,21.70539],[-81.496693,21.618476],[-81.560658,21.602973],[-81.551381,21.62759],[-81.523508,21.62344],[-81.49352,21.65705],[-81.454498,21.651801],[-81.417307,21.697211],[-81.377675,21.71894],[-81.372304,21.70539]]],[[[-82.568023,21.636542],[-82.567128,21.612006],[-82.540761,21.595526],[-82.594635,21.541815],[-82.835561,21.444729],[-82.906239,21.437486],[-83.078521,21.469224],[-83.162099,21.549262],[-83.191803,21.630316],[-83.082021,21.551459],[-83.023915,21.548407],[-82.965932,21.59927],[-82.959096,21.561998],[-82.946116,21.604641],[-82.98766,21.619778],[-83.085601,21.800279],[-83.075185,21.843166],[-82.959096,21.925116],[-83.004709,21.937649],[-82.989491,21.948432],[-82.703725,21.892808],[-82.684722,21.866156],[-82.692535,21.824042],[-82.609609,21.769599],[-82.5926,21.736762],[-82.616444,21.664455],[-82.568023,21.636542]]],[[[-77.634185,22.054267],[-77.624379,22.029731],[-77.648671,21.971137],[-77.634185,21.945014],[-77.682607,21.925116],[-77.677887,21.94302],[-77.695058,21.948065],[-77.703114,21.910834],[-77.751536,21.966132],[-77.822581,21.98314],[-77.817128,22.031317],[-77.847076,22.041205],[-77.847076,22.007025],[-77.853912,22.027533],[-77.901845,22.015204],[-77.947133,22.072821],[-77.949452,22.102607],[-77.871693,22.075629],[-77.808502,22.099555],[-77.76769,22.068508],[-77.737213,22.08218],[-77.682607,22.054267],[-77.651723,22.070258],[-77.634185,22.054267]]],[[[-77.847076,22.260321],[-77.839589,22.273749],[-77.880686,22.308743],[-77.834218,22.295885],[-77.805735,22.228217],[-77.757721,22.178371],[-77.781728,22.177802],[-77.847076,22.260321]]],[[[-77.997304,22.147366],[-78.045725,22.198879],[-78.007924,22.233832],[-78.017812,22.314887],[-77.974924,22.298896],[-77.987416,22.236721],[-77.942047,22.232978],[-77.908559,22.205024],[-77.92162,22.21247],[-77.902333,22.232978],[-77.884877,22.214789],[-77.867584,22.226752],[-77.859609,22.209621],[-77.902333,22.192043],[-77.825999,22.157904],[-77.863433,22.099189],[-77.894887,22.102607],[-77.912831,22.143215],[-77.950754,22.142157],[-77.942047,22.116889],[-77.997304,22.147366]]],[[[-78.196523,22.329169],[-78.175364,22.34162],[-78.20519,22.367987],[-78.237457,22.336005],[-78.230458,22.380764],[-78.246327,22.400621],[-78.312611,22.404283],[-78.211578,22.436591],[-78.144195,22.428941],[-78.090728,22.384467],[-78.067047,22.310452],[-78.010976,22.281399],[-78.027659,22.266018],[-78.196523,22.329169]]],[[[-78.426178,22.462592],[-78.540842,22.458482],[-78.638417,22.492011],[-78.656972,22.529975],[-78.693593,22.507514],[-78.696197,22.541449],[-78.683176,22.534613],[-78.670644,22.556545],[-78.572581,22.530463],[-78.46642,22.529853],[-78.396352,22.559801],[-78.35204,22.543036],[-78.278472,22.448676],[-78.429921,22.418606],[-78.401112,22.454657],[-78.426178,22.462592]]],[[[-78.984202,22.637681],[-79.087229,22.67182],[-78.960846,22.660142],[-78.984202,22.637681]]],[[[-79.357533,22.637681],[-79.437367,22.698472],[-79.473744,22.694322],[-79.52009,22.720689],[-79.571767,22.788275],[-79.633656,22.78384],[-79.635325,22.802151],[-79.569976,22.804104],[-79.496327,22.73314],[-79.371978,22.676663],[-79.326812,22.616523],[-79.357533,22.637681]]],[[[-79.895375,22.959174],[-79.898549,22.936713],[-79.91983,22.949286],[-79.949696,22.928412],[-79.957428,22.95303],[-79.895375,22.959174]]],[[[-80.320546,22.986518],[-80.249745,23.010932],[-80.231801,23.000149],[-80.251617,22.986518],[-80.231801,22.959174],[-80.347808,22.986518],[-80.320546,22.986518]]],[[[-80.197011,23.124254],[-80.166493,23.092475],[-80.131256,23.086982],[-80.162424,23.067328],[-80.224965,23.089545],[-80.197011,23.124254]]],[[[-80.828236,23.1789],[-80.80484,23.152899],[-80.830637,23.135647],[-80.897817,23.14175],[-80.971669,23.110663],[-80.89981,23.159166],[-80.841298,23.157782],[-80.848134,23.185126],[-80.828236,23.165229],[-80.828236,23.1789]]],[[[-80.491851,23.192572],[-80.470774,23.18887],[-80.495229,23.168362],[-80.580637,23.1789],[-80.559682,23.205064],[-80.491851,23.192572]]],[[[-78.581695,20.661607],[-78.585683,20.643622],[-78.613393,20.657945],[-78.581695,20.661607]]],[[[-78.651519,20.664944],[-78.62975,20.65884],[-78.646474,20.652289],[-78.651519,20.664944]]],[[[-81.981191,21.647773],[-81.972768,21.622219],[-81.989817,21.608832],[-82.114247,21.570299],[-81.981191,21.647773]]],[[[-81.852528,21.66356],[-81.837799,21.661078],[-81.901357,21.615627],[-81.932362,21.628485],[-81.935699,21.641913],[-81.905629,21.631008],[-81.852528,21.66356]]],[[[-82.645172,21.954535],[-82.591176,21.926663],[-82.657867,21.932074],[-82.66808,21.949123],[-82.645172,21.954535]]],[[[-83.552846,21.961371],[-83.550649,21.959418],[-83.607818,21.966498],[-83.552846,21.961371]]],[[[-81.556264,22.065985],[-81.547027,22.044582],[-81.581858,22.050605],[-81.588857,22.072699],[-81.556264,22.065985]]],[[[-78.73766,22.548407],[-78.738759,22.524319],[-78.765981,22.518785],[-78.768137,22.541653],[-78.73766,22.548407]]],[[[-82.514475,22.625149],[-82.522857,22.559312],[-82.52831,22.640041],[-82.514475,22.625149]]],[[[-79.224517,22.639716],[-79.176869,22.64468],[-79.20641,22.624416],[-79.224517,22.639716]]],[[[-79.680084,22.859442],[-79.660797,22.84516],[-79.685292,22.833686],[-79.730865,22.866116],[-79.727528,22.903957],[-79.680084,22.859442]]],[[[-79.826283,22.964667],[-79.817047,22.947252],[-79.842152,22.931789],[-79.827382,22.919135],[-79.846506,22.910346],[-79.871165,22.947699],[-79.826283,22.964667]]],[[[-80.061391,23.049791],[-80.056304,23.026679],[-80.094797,23.048326],[-80.076772,23.069892],[-80.061391,23.049791]]],[[[-80.2447,23.107489],[-80.250315,23.084866],[-80.305735,23.134508],[-80.27245,23.140041],[-80.2447,23.107489]]],[[[-80.401438,23.154608],[-80.376291,23.152167],[-80.459788,23.128607],[-80.446116,23.150621],[-80.401438,23.154608]]],[[[-80.668528,23.212226],[-80.674672,23.186835],[-80.704254,23.180325],[-80.668528,23.212226]]],[[[-80.775014,23.20661],[-80.711903,23.190823],[-80.810048,23.196601],[-80.86144,23.220364],[-80.775014,23.20661]]],[[[-80.878774,23.250434],[-80.87857,23.232123],[-80.942698,23.25727],[-80.878774,23.250434]]]]}}]}
