{"type":"FeatureCollection","features":[{"type":"Feature","properties":{"name":"Cabo Verde","ISO3166-1-Alpha-3":"CPV","ISO3166-1-Alpha-2":"CV"},"geometry":{"type":"MultiPolygon","coordinates":[[[[-24.704335,14.900824],[-24.683258,14.842475],[-24.718007,14.803941],[-24.758941,14.831855],[-24.758941,14.866645],[-24.704335,14.900824]]],[[[-24.296539,14.917548],[-24.29955,14.863023],[-24.376536,14.815985],[-24.449086,14.83808],[-24.526235,14.924709],[-24.488922,14.990546],[-24.364858,15.045396],[-24.320139,15.013007],[-24.296539,14.917548]]],[[[-23.456776,15.023668],[-23.447825,14.995754],[-23.477895,14.969062],[-23.494008,14.918687],[-23.53185,14.908637],[-23.624135,14.918118],[-23.715077,14.968451],[-23.730702,15.0185],[-23.772084,15.037991],[-23.792592,15.085761],[-23.772084,15.127346],[-23.785756,15.174506],[-23.751576,15.233466],[-23.785756,15.291815],[-23.758412,15.304877],[-23.77953,15.311672],[-23.751576,15.33275],[-23.737945,15.311672],[-23.703236,15.313463],[-23.697336,15.266018],[-23.584218,15.162421],[-23.511383,15.127346],[-23.456776,15.023668]]],[[[-23.127797,15.311672],[-23.111928,15.171942],[-23.168813,15.119859],[-23.195953,15.122056],[-23.258168,15.174506],[-23.230865,15.243964],[-23.251332,15.256415],[-23.217152,15.319159],[-23.189849,15.33275],[-23.189849,15.319159],[-23.176259,15.33275],[-23.161936,15.312567],[-23.127797,15.311672]]],[[[-22.682118,16.113593],[-22.666575,16.091457],[-22.679799,16.063218],[-22.806142,15.985907],[-22.873891,15.983873],[-22.945546,16.01968],[-22.963979,16.052191],[-22.957753,16.089016],[-22.913564,16.125556],[-22.915598,16.243964],[-22.852528,16.20661],[-22.793813,16.23135],[-22.723866,16.212633],[-22.682485,16.168647],[-22.682118,16.113593]]],[[[-24.067535,16.613918],[-24.032826,16.596829],[-24.032826,16.562405],[-24.114735,16.559272],[-24.233306,16.602118],[-24.272328,16.587226],[-24.324696,16.482652],[-24.37092,16.587144],[-24.408274,16.600165],[-24.430653,16.639472],[-24.422597,16.662299],[-24.36148,16.681586],[-24.292836,16.641832],[-24.226796,16.649604],[-24.067535,16.613918]]],[[[-22.929189,16.593411],[-22.941396,16.669379],[-22.956532,16.699449],[-22.97761,16.689032],[-22.98176,16.703518],[-22.970815,16.75788],[-22.989247,16.770941],[-22.990793,16.81566],[-22.922434,16.860297],[-22.89509,16.829291],[-22.904652,16.735826],[-22.881337,16.692694],[-22.89509,16.613918],[-22.929189,16.593411]]],[[[-24.919749,16.895087],[-24.876291,16.84984],[-24.891103,16.813951],[-24.988026,16.785142],[-25.094146,16.826158],[-25.078196,16.865058],[-25.005971,16.887681],[-25.012196,16.901272],[-24.978098,16.923],[-24.965199,16.908922],[-24.937734,16.923],[-24.919749,16.895087]]],[[[-25.046986,17.035061],[-25.187856,16.928168],[-25.298695,16.917385],[-25.313873,17.00495],[-25.360422,17.055243],[-25.316803,17.106106],[-25.279775,17.107327],[-25.10261,17.196601],[-25.03954,17.18244],[-25.025868,17.144924],[-24.971262,17.107327],[-25.046986,17.035061]]],[[[-24.59266,16.624312],[-24.569512,16.619972],[-24.575299,16.605505],[-24.60134,16.609845],[-24.59266,16.624312]]],[[[-24.7735,16.802259],[-24.68525,16.742944],[-24.740225,16.734263],[-24.787967,16.774772],[-24.7735,16.802259]]]]}}]}
