{"type":"FeatureCollection","features":[{"type":"Feature","properties":{"name":"Cyprus","ISO3166-1-Alpha-3":"CYP","ISO3166-1-Alpha-2":"CY"},"geometry":{"type":"MultiPolygon","coordinates":[[[[33.78183,34.976223],[33.75921,34.988666],[33.79435,34.977763],[33.78183,34.976223]]],[[[33.742792,35.001233],[33.740239,35.010101],[33.752063,35.0144],[33.742792,35.001233]]],[[[33.702935,34.987943],[33.654063,34.944729],[33.632579,34.852484],[33.605642,34.821763],[33.5442,34.815009],[33.513194,34.785468],[33.43865,34.762763],[33.400157,34.773383],[33.399181,34.745307],[33.260102,34.700507],[33.086436,34.69481],[33.015635,34.634425],[32.962515,34.625019],[32.95404,34.642951],[32.9898,34.646103],[32.987526,34.673389],[32.913667,34.66028],[32.865613,34.678735],[32.85969,34.700578],[32.707367,34.645413],[32.458995,34.721869],[32.413341,34.753485],[32.379161,34.849066],[32.329438,34.88642],[32.331391,34.924221],[32.271739,35.072821],[32.286632,35.097154],[32.353363,35.047919],[32.413829,35.043036],[32.479666,35.082953],[32.548188,35.175971],[32.622225,35.151809],[32.659813,35.187082],[32.691549,35.183705],[32.712711,35.133774],[32.7956,35.102613],[32.825986,35.058946],[32.890788,35.091658],[32.93523,35.072279],[33.037342,35.136099],[33.123073,35.130673],[33.173871,35.162661],[33.301202,35.113568],[33.348021,35.15491],[33.415924,35.160336],[33.458815,35.09481],[33.446309,35.001172],[33.458815,34.977763],[33.486204,34.981638],[33.519587,35.044115],[33.546045,34.994971],[33.580565,35.019931],[33.702935,34.987943]]],[[[33.898116,35.061272],[34.021961,35.057009],[34.099132,34.965155],[34.011567,34.987616],[33.891841,34.958139],[33.838068,34.963707],[33.859049,34.991819],[33.829387,35.001172],[33.804375,35.049541],[33.880133,35.073054],[33.898116,35.061272]]]]}}]}
