{"type":"FeatureCollection","features":[{"type":"Feature","properties":{"name":"Djibouti","ISO3166-1-Alpha-3":"DJI","ISO3166-1-Alpha-2":"DJ"},"geometry":{"type":"Polygon","coordinates":[[[43.240733,11.48786],[42.923715,10.998787],[42.873279,10.978246],[42.771787,10.996462],[42.729619,11.06501],[42.615621,11.08966],[42.479712,11.059119],[42.391758,11.005893],[42.338532,11.015504],[42.221639,10.984344],[42.096272,10.990261],[42.038395,10.950444],[41.937522,10.929825],[41.761306,10.996203],[41.785594,11.067388],[41.787971,11.259727],[41.74911,11.537953],[41.792415,11.704455],[41.808228,11.736236],[41.936386,11.827445],[42.319205,12.386377],[42.430929,12.520322],[42.521569,12.496241],[42.678252,12.360022],[42.792251,12.429165],[42.785223,12.517222],[42.868835,12.626155],[42.900358,12.616389],[43.117686,12.707913],[43.283214,12.496527],[43.312999,12.477688],[43.329356,12.488756],[43.367849,12.306871],[43.414317,12.224921],[43.413341,12.059272],[43.377126,12.004828],[43.288341,11.967434],[43.206554,11.957831],[43.055512,11.803616],[42.942638,11.77383],[42.896495,11.780585],[42.777192,11.732245],[42.667979,11.568549],[42.515147,11.574123],[42.538748,11.502997],[42.60377,11.46776],[42.681651,11.484524],[42.665294,11.51557],[42.694102,11.545966],[42.855805,11.595771],[43.103363,11.576972],[43.151866,11.611762],[43.183849,11.526557],[43.240733,11.48786]]]}}]}
