{"type":"FeatureCollection","features":[{"type":"Feature","properties":{"name":"Dominica","ISO3166-1-Alpha-3":"DMA","ISO3166-1-Alpha-2":"DM"},"geometry":{"type":"Polygon","coordinates":[[[-61.362864,15.201809],[-61.421213,15.41474],[-61.488922,15.535712],[-61.462148,15.572984],[-61.488881,15.57925],[-61.468984,15.633857],[-61.425933,15.628485],[-61.384633,15.588365],[-61.35733,15.598293],[-61.307688,15.57925],[-61.25768,15.472602],[-61.256663,15.285346],[-61.277211,15.25023],[-61.318186,15.243394],[-61.362864,15.201809]]]}}]}
