{"type":"FeatureCollection","features":[{"type":"Feature","properties":{"name":"Ecuador","ISO3166-1-Alpha-3":"ECU","ISO3166-1-Alpha-2":"EC"},"geometry":{"type":"MultiPolygon","coordinates":[[[[-78.828684,1.434312],[-78.769968,1.394102],[-78.664677,1.266642],[-78.602148,1.263645],[-78.570057,1.195845],[-78.485205,1.192642],[-78.349218,1.055802],[-78.250154,1.019629],[-78.120007,0.921237],[-77.918262,0.874418],[-77.903225,0.832095],[-77.847983,0.809254],[-77.703185,0.843102],[-77.673316,0.819641],[-77.666805,0.747707],[-77.645566,0.716288],[-77.54335,0.656447],[-77.468057,0.650866],[-77.434726,0.433825],[-77.397467,0.387626],[-77.206936,0.334193],[-77.117433,0.35755],[-77.082861,0.348869],[-77.044621,0.305667],[-76.945867,0.287064],[-76.88246,0.240142],[-76.797866,0.24996],[-76.734355,0.233114],[-76.724537,0.277555],[-76.626868,0.258538],[-76.565425,0.21606],[-76.408019,0.254508],[-76.41639,0.401889],[-76.365386,0.406953],[-76.30048,0.461627],[-76.223741,0.406746],[-76.136304,0.396721],[-76.119561,0.351763],[-76.053467,0.363545],[-75.951974,0.203968],[-75.817874,0.100098],[-75.753847,0.07302],[-75.626774,0.078911],[-75.464924,-0.039738],[-75.283488,-0.107021],[-75.330746,-0.144641],[-75.402576,-0.145778],[-75.4295,-0.163658],[-75.53926,-0.120043],[-75.623002,-0.106607],[-75.643208,-0.128828],[-75.619566,-0.180918],[-75.578974,-0.182675],[-75.484768,-0.247684],[-75.452728,-0.360649],[-75.405625,-0.442401],[-75.260699,-0.54348],[-75.255583,-0.624302],[-75.293978,-0.667917],[-75.297027,-0.746982],[-75.252069,-0.93343],[-75.227264,-0.96981],[-75.348729,-0.974978],[-75.4064,-0.915137],[-75.573031,-1.537321],[-76.091242,-2.128913],[-76.684591,-2.57364],[-77.867826,-2.990256],[-77.941465,-3.054541],[-78.196411,-3.36367],[-78.156646,-3.429299],[-78.163726,-3.477254],[-78.226306,-3.50702],[-78.257182,-3.409558],[-78.350794,-3.389611],[-78.362938,-3.488727],[-78.402393,-3.594353],[-78.40074,-3.679826],[-78.425854,-3.689438],[-78.419679,-3.791034],[-78.480683,-3.849531],[-78.497633,-3.949577],[-78.562073,-3.979756],[-78.57662,-4.100059],[-78.682428,-4.326918],[-78.673152,-4.401539],[-78.637211,-4.435129],[-78.669793,-4.49342],[-78.672661,-4.550987],[-78.898642,-4.694234],[-78.928614,-4.747461],[-78.900218,-4.843683],[-78.910812,-4.863526],[-78.980342,-4.873965],[-79.009281,-4.96011],[-79.063929,-5.011373],[-79.104159,-4.980057],[-79.303217,-4.961246],[-79.39533,-4.84761],[-79.450572,-4.810196],[-79.527854,-4.618063],[-79.507209,-4.531557],[-79.557775,-4.516571],[-79.657975,-4.438746],[-79.795745,-4.484738],[-79.832874,-4.47895],[-79.904084,-4.398645],[-79.982012,-4.38862],[-80.079655,-4.309038],[-80.140246,-4.283097],[-80.205048,-4.298186],[-80.255407,-4.38676],[-80.382867,-4.476263],[-80.469967,-4.446084],[-80.492291,-4.413011],[-80.345272,-4.198451],[-80.469605,-4.21323],[-80.514073,-4.083419],[-80.491981,-4.014896],[-80.427463,-3.981306],[-80.325506,-4.015413],[-80.259076,-3.943686],[-80.165257,-3.890046],[-80.226313,-3.749279],[-80.216391,-3.63156],[-80.224995,-3.591873],[-80.249981,-3.577713],[-80.240291,-3.514048],[-80.271633,-3.485523],[-80.265664,-3.426405],[-80.340729,-3.393498],[-80.341054,-3.368585],[-80.306874,-3.320733],[-80.31432,-3.376072],[-80.286448,-3.320733],[-80.259104,-3.348077],[-80.135569,-3.327569],[-80.059885,-3.204034],[-80.037506,-3.208266],[-80.039947,-3.27988],[-79.953196,-3.197442],[-79.933339,-3.115411],[-79.874867,-3.005466],[-79.881215,-2.965427],[-79.834584,-2.806817],[-79.776438,-2.659438],[-79.72643,-2.593845],[-79.745025,-2.490167],[-79.78954,-2.481052],[-79.839467,-2.377048],[-79.839833,-2.209568],[-79.868642,-2.160903],[-79.861887,-2.108005],[-79.818349,-2.079848],[-79.765614,-2.004978],[-79.83137,-2.043552],[-79.834584,-2.070001],[-79.874338,-2.075372],[-79.891957,-2.115899],[-79.901845,-2.184828],[-79.863026,-2.297133],[-79.896108,-2.54339],[-79.998402,-2.608168],[-80.063588,-2.577244],[-80.068918,-2.560805],[-80.00178,-2.480157],[-79.943756,-2.498305],[-79.929677,-2.484145],[-79.93635,-2.462986],[-79.940826,-2.483982],[-79.977935,-2.45672],[-80.034332,-2.473891],[-80.008941,-2.358819],[-79.950022,-2.307224],[-80.012685,-2.32643],[-80.076039,-2.457696],[-80.17512,-2.586684],[-80.231801,-2.628676],[-80.279612,-2.612563],[-80.279612,-2.649184],[-80.245025,-2.688165],[-80.255483,-2.730239],[-80.320546,-2.710626],[-80.467885,-2.617934],[-80.656646,-2.415785],[-80.803456,-2.37477],[-80.863922,-2.329278],[-80.913645,-2.31878],[-80.934804,-2.260919],[-81.01301,-2.166925],[-80.94933,-2.186212],[-80.931286,-2.217333],[-80.870573,-2.203301],[-80.744979,-2.102915],[-80.737447,-2.043497],[-80.762522,-1.973891],[-80.730214,-1.929376],[-80.760572,-1.797548],[-80.85558,-1.588311],[-80.81649,-1.552255],[-80.820546,-1.499933],[-80.770862,-1.47783],[-80.744256,-1.343773],[-80.882151,-1.145766],[-80.909611,-1.044915],[-80.816365,-0.946344],[-80.722245,-0.931126],[-80.690875,-0.949589],[-80.653042,-0.923065],[-80.61632,-0.941408],[-80.569883,-0.912243],[-80.547212,-0.88849],[-80.497562,-0.692438],[-80.448969,-0.60606],[-80.421992,-0.5996],[-80.405825,-0.646034],[-80.378798,-0.657885],[-80.299007,-0.662229],[-80.391737,-0.625487],[-80.437125,-0.557538],[-80.496464,-0.381374],[-80.432725,-0.339187],[-80.371232,-0.222831],[-80.323695,-0.173173],[-80.30535,-0.189367],[-80.231848,-0.139699],[-80.051349,0.089992],[-80.036977,0.175971],[-80.048492,0.318305],[-80.036529,0.357082],[-80.005238,0.32453],[-79.990956,0.365465],[-80.043568,0.45893],[-80.016957,0.558905],[-80.036366,0.62523],[-80.090321,0.652167],[-80.108266,0.695054],[-80.075836,0.816148],[-80.046213,0.839667],[-79.981313,0.832221],[-79.862172,0.87641],[-79.765614,0.955146],[-79.655751,1.003607],[-79.670074,0.921617],[-79.614858,0.845282],[-79.648305,0.907416],[-79.63268,0.986029],[-79.571767,0.98371],[-79.435048,1.07803],[-79.272206,1.092963],[-79.248158,1.080268],[-79.165761,1.099799],[-79.05724,1.217515],[-79.013051,1.192776],[-78.991689,1.119696],[-78.962148,1.14468],[-78.954579,1.207343],[-78.928944,1.24315],[-78.901682,1.236314],[-78.871693,1.288967],[-78.812856,1.277289],[-78.881947,1.319281],[-78.832346,1.381334],[-78.828684,1.434312]]],[[[-80.059885,-2.662774],[-80.014516,-2.664239],[-79.902821,-2.717462],[-79.907216,-2.732354],[-79.995188,-2.798028],[-80.131033,-3.020921],[-80.203725,-3.034112],[-80.26594,-3.018487],[-80.262204,-2.840848],[-80.210683,-2.724867],[-80.059885,-2.662774]]],[[[-89.661285,-1.340102],[-89.614573,-1.37005],[-89.613271,-1.391697],[-89.676096,-1.397556],[-89.756907,-1.36061],[-89.736399,-1.340102],[-89.661285,-1.340102]]],[[[-90.380686,-1.25449],[-90.367055,-1.278741],[-90.432118,-1.345961],[-90.475209,-1.342055],[-90.524037,-1.305922],[-90.471913,-1.216729],[-90.380686,-1.25449]]],[[[-89.308095,-0.685642],[-89.257192,-0.681573],[-89.273183,-0.759942],[-89.331695,-0.819431],[-89.367299,-0.829767],[-89.420033,-0.919366],[-89.544586,-0.956638],[-89.629954,-0.925877],[-89.604604,-0.883071],[-89.551422,-0.853611],[-89.540883,-0.819431],[-89.477203,-0.796808],[-89.413238,-0.713474],[-89.308095,-0.685642]]],[[[-90.191965,-0.538263],[-90.198801,-0.681573],[-90.259511,-0.743341],[-90.313629,-0.743829],[-90.337066,-0.776951],[-90.428863,-0.762465],[-90.483062,-0.702732],[-90.544545,-0.681573],[-90.527577,-0.56992],[-90.460561,-0.513849],[-90.407948,-0.517755],[-90.263987,-0.483005],[-90.242828,-0.497247],[-90.24059,-0.528009],[-90.191965,-0.538263]]],[[[-91.401112,-0.452895],[-91.507558,-0.490411],[-91.606516,-0.456313],[-91.651967,-0.381117],[-91.668568,-0.284926],[-91.580963,-0.287205],[-91.474192,-0.249282],[-91.455678,-0.257582],[-91.399526,-0.307875],[-91.401112,-0.452895]]],[[[-90.565012,-0.284926],[-90.558176,-0.310805],[-90.604888,-0.369806],[-90.818227,-0.339614],[-90.848948,-0.275649],[-90.874135,-0.271254],[-90.831654,-0.21266],[-90.826812,-0.164158],[-90.777252,-0.147719],[-90.632476,-0.201267],[-90.551991,-0.27809],[-90.565012,-0.284926]]],[[[-90.811431,-0.730645],[-90.791575,-0.754002],[-90.829091,-0.774672],[-90.858632,-0.91546],[-90.880279,-0.908787],[-90.9287,-0.97031],[-90.993886,-0.963474],[-91.159779,-1.030206],[-91.399729,-1.018487],[-91.435862,-0.997491],[-91.44579,-0.941502],[-91.477406,-0.935479],[-91.502309,-0.896254],[-91.465891,-0.807875],[-91.310455,-0.683282],[-91.234771,-0.661879],[-91.157786,-0.678806],[-91.086781,-0.582452],[-91.161488,-0.538263],[-91.208892,-0.484633],[-91.238678,-0.376153],[-91.374989,-0.281915],[-91.373769,-0.250177],[-91.406484,-0.216404],[-91.40453,-0.195896],[-91.380605,-0.188735],[-91.405751,-0.148045],[-91.423329,-0.028578],[-91.47643,-0.011082],[-91.5631,-0.051772],[-91.603383,-0.014215],[-91.60436,0.001451],[-91.504465,0.066148],[-91.497304,0.106106],[-91.452748,0.103746],[-91.368764,0.150621],[-91.323638,0.139309],[-91.283518,0.033189],[-91.247426,-0.003839],[-91.209299,-0.010675],[-91.173573,-0.228448],[-91.128041,-0.270766],[-91.124135,-0.299574],[-90.956044,-0.422133],[-90.949208,-0.521417],[-90.990142,-0.579197],[-90.967844,-0.564548],[-90.956044,-0.60711],[-90.892974,-0.625746],[-90.894602,-0.648126],[-90.859731,-0.664158],[-90.859853,-0.68963],[-90.811431,-0.730645]]],[[[-90.513783,0.283515],[-90.544545,0.310858],[-90.542307,0.333564],[-90.504465,0.361029],[-90.436431,0.346625],[-90.407948,0.310858],[-90.454579,0.267401],[-90.513783,0.283515]]],[[[-90.79776,0.65351],[-90.756988,0.630601],[-90.744496,0.585395],[-90.760569,0.553697],[-90.805247,0.571601],[-90.79776,0.65351]]],[[[-78.901682,1.374172],[-78.899281,1.27143],[-78.912506,1.245266],[-78.936391,1.256822],[-78.956899,1.236314],[-78.995432,1.286811],[-78.901682,1.374172]]],[[[-91.819163,1.38642],[-91.810943,1.377183],[-91.822621,1.371039],[-91.819163,1.38642]]],[[[-91.822011,1.394477],[-91.817535,1.394761],[-91.820465,1.391343],[-91.822011,1.394477]]],[[[-92.011586,1.658637],[-92.006093,1.664374],[-91.999827,1.65119],[-92.011586,1.658637]]],[[[-79.81964,-2.485911],[-79.772571,-2.541987],[-79.828702,-2.592051],[-79.833237,-2.636017],[-79.877239,-2.649678],[-79.81964,-2.485911]]]]}}]}
