{"type":"FeatureCollection","features":[{"type":"Feature","properties":{"name":"Finland","ISO3166-1-Alpha-3":"FIN","ISO3166-1-Alpha-2":"FI"},"geometry":{"type":"MultiPolygon","coordinates":[[[[28.954077,69.027261],[28.833464,68.984473],[28.410234,68.898535],[28.444238,68.865823],[28.728251,68.865048],[28.801477,68.835489],[28.716366,68.727951],[28.447907,68.52972],[28.663759,68.204003],[28.727218,68.172687],[29.33085,68.072694],[29.651192,67.823562],[30.009413,67.685844],[29.977684,67.662228],[29.959907,67.571587],[29.916241,67.508129],[29.519831,67.298167],[29.099908,66.991132],[29.051539,66.907803],[29.089159,66.837549],[29.32222,66.680065],[29.40945,66.56847],[29.524482,66.491214],[29.569699,66.378172],[29.650882,66.287893],[29.900169,66.108059],[29.95846,65.973881],[30.075146,65.822805],[30.111733,65.712011],[30.113903,65.665502],[30.098503,65.656381],[30.003005,65.678137],[29.702869,65.62938],[29.838571,65.564888],[29.72633,65.491507],[29.720129,65.329088],[29.580085,65.235399],[29.626698,65.215219],[29.833197,65.205013],[29.839294,65.166902],[29.808185,65.135302],[29.850198,65.121504],[29.820484,65.093651],[29.667832,65.077941],[29.598379,65.034378],[29.588147,64.991435],[29.633622,64.90715],[29.698321,64.839144],[29.78028,64.795581],[30.118864,64.767934],[30.109149,64.720082],[30.17054,64.681686],[30.180824,64.642774],[30.136434,64.615385],[29.954843,64.56898],[29.9905,64.504178],[30.070391,64.47188],[30.032461,64.396949],[30.093129,64.361241],[30.321126,64.317677],[30.445976,64.250756],[30.558475,64.219699],[30.532792,64.162545],[30.586432,64.084668],[30.552326,64.021726],[30.328567,63.895998],[30.201546,63.792645],[29.980785,63.741537],[30.001145,63.715337],[30.242474,63.581805],[30.38045,63.532454],[30.461065,63.472871],[30.82094,63.375668],[30.974936,63.289161],[31.203966,63.21268],[31.262773,63.100594],[31.480641,62.986337],[31.535832,62.91952],[31.569525,62.905929],[31.441264,62.788701],[31.363336,62.651577],[31.284064,62.572978],[31.243757,62.503344],[31.168619,62.476007],[30.98062,62.358805],[30.925636,62.302116],[30.647721,62.192768],[29.977684,61.728171],[29.84224,61.660165],[29.779143,61.593115],[29.635121,61.511104],[29.51704,61.47506],[29.4634,61.413824],[29.318396,61.338428],[29.203158,61.245901],[28.797601,61.09684],[28.614563,60.961939],[28.480928,60.933465],[27.807872,60.553046],[27.762055,60.580146],[27.739513,60.574164],[27.753184,60.559882],[27.733409,60.544257],[27.753184,60.518948],[27.732677,60.512112],[27.753184,60.505845],[27.705414,60.485419],[27.636485,60.492255],[27.691661,60.518948],[27.615977,60.512112],[27.629649,60.471137],[27.508474,60.513861],[27.472667,60.505845],[27.493175,60.492255],[27.472667,60.477973],[27.506684,60.457465],[27.456798,60.46369],[27.369314,60.49787],[27.232432,60.512112],[27.230805,60.526313],[27.308116,60.525784],[27.211925,60.559882],[27.227712,60.579576],[27.21461,60.584947],[27.177745,60.567328],[27.200694,60.523261],[27.177745,60.512112],[27.112559,60.54682],[27.08839,60.525784],[27.054373,60.54682],[27.024425,60.536078],[26.99822,60.488023],[26.931407,60.485419],[26.962413,60.447211],[26.914724,60.474555],[26.79363,60.457465],[26.814708,60.485419],[26.797048,60.485907],[26.742442,60.468004],[26.739024,60.436957],[26.687348,60.418158],[26.635916,60.450629],[26.553396,60.43301],[26.482677,60.468004],[26.474864,60.48725],[26.56365,60.543362],[26.567393,60.580959],[26.625011,60.609605],[26.753184,60.574164],[26.699229,60.640204],[26.65919,60.651801],[26.591807,60.628567],[26.465831,60.508124],[26.456228,60.474555],[26.485688,60.443793],[26.469412,60.427476],[26.416352,60.411933],[26.424164,60.395982],[26.383311,60.41649],[26.342052,60.375556],[26.245616,60.450873],[26.22934,60.438422],[26.273448,60.402167],[26.178966,60.410631],[26.142426,60.395982],[25.980968,60.475775],[25.917247,60.485419],[26.028982,60.433336],[26.04005,60.405951],[26.006847,60.400539],[26.012218,60.388577],[26.108165,60.335924],[26.091319,60.306627],[26.04005,60.299791],[26.038829,60.322659],[25.997081,60.354926],[26.00587,60.368109],[25.956554,60.356024],[25.842052,60.402167],[25.917247,60.361274],[25.883067,60.306627],[25.930186,60.245185],[25.753754,60.320746],[25.745372,60.295803],[25.848888,60.265692],[25.735525,60.24726],[25.649669,60.299791],[25.670584,60.32746],[25.649669,60.341376],[25.704356,60.341376],[25.66863,60.364651],[25.526134,60.327094],[25.545095,60.292304],[25.502778,60.246161],[25.361664,60.245185],[25.350922,60.267239],[25.313813,60.272528],[25.3213,60.25141],[25.19752,60.245185],[25.185802,60.223131],[25.156261,60.232164],[25.203949,60.20425],[25.181407,60.200507],[25.197113,60.190619],[25.094737,60.176337],[25.101573,60.190619],[25.029307,60.147854],[24.997895,60.162665],[25.02589,60.199449],[24.99879,60.212836],[24.950938,60.143459],[24.845225,60.143744],[24.834158,60.155829],[24.870942,60.161689],[24.868826,60.179755],[24.806814,60.190619],[24.827322,60.162665],[24.679698,60.130113],[24.670258,60.101223],[24.630626,60.136298],[24.554047,60.155951],[24.596853,60.127265],[24.540375,60.087551],[24.608165,60.101223],[24.573985,60.07392],[24.594493,60.060248],[24.445649,59.992255],[24.41627,59.99136],[24.464122,60.046576],[24.374766,60.00495],[24.367686,60.02204],[24.312673,59.997504],[24.357677,60.036038],[24.367931,60.07392],[24.319672,60.075832],[24.252452,60.03974],[24.158458,60.043036],[24.182953,60.025458],[24.164236,60.019436],[24.105968,60.031928],[24.009613,60.010565],[24.019216,60.03974],[24.000824,60.038275],[23.955333,60.003567],[23.873057,59.993069],[23.79949,59.95661],[23.607595,59.95661],[23.573497,59.977688],[23.429454,59.95661],[23.483572,60.011298],[23.540863,60.02912],[23.546153,60.07392],[23.498302,60.0633],[23.439708,59.994452],[23.326427,59.923041],[23.237153,59.898017],[23.222179,59.867825],[23.251313,59.841132],[22.905121,59.811225],[22.888194,59.813178],[22.946137,59.847968],[23.168142,59.888902],[23.165863,59.91767],[23.247081,59.922431],[23.326427,60.009345],[23.332856,60.029853],[23.223399,59.929877],[23.188813,59.950181],[23.110688,59.923285],[23.111339,59.97427],[23.203624,59.997504],[23.257579,60.03974],[23.035492,60.044582],[22.990733,60.077338],[23.045909,60.121649],[23.025401,60.135321],[22.969493,60.094387],[22.958669,60.121568],[22.874685,60.149604],[22.88559,60.169338],[22.867198,60.183743],[23.007579,60.277004],[23.080577,60.355048],[23.03419,60.34394],[22.998057,60.306627],[22.941173,60.316474],[22.736176,60.238186],[22.525076,60.20425],[22.593435,60.232164],[22.572032,60.242662],[22.590343,60.262274],[22.648123,60.278713],[22.449474,60.245185],[22.459158,60.26496],[22.627615,60.375393],[22.624278,60.399075],[22.543468,60.372545],[22.463064,60.375556],[22.483572,60.402167],[22.291515,60.382636],[22.181488,60.430487],[22.11671,60.436957],[22.101085,60.462144],[22.047048,60.438788],[22.018077,60.471137],[21.981944,60.476752],[21.983897,60.492255],[21.935395,60.492255],[21.950369,60.518948],[21.903168,60.528876],[21.843923,60.51553],[21.874034,60.477973],[21.78533,60.477973],[21.807872,60.575588],[21.846039,60.587836],[21.828461,60.606391],[21.840505,60.62873],[21.661794,60.567328],[21.654307,60.508979],[21.612071,60.488837],[21.558116,60.492255],[21.583751,60.505032],[21.517751,60.567328],[21.578624,60.567328],[21.408539,60.58039],[21.428396,60.594062],[21.414806,60.608303],[21.469981,60.608303],[21.379649,60.64704],[21.353282,60.690172],[21.438975,60.680325],[21.42213,60.725002],[21.469981,60.731147],[21.38738,60.752346],[21.42213,60.759101],[21.328868,60.827541],[21.318533,60.864691],[21.428396,60.8758],[21.353282,60.902533],[21.390798,60.916815],[21.428396,60.902533],[21.318533,61.012356],[21.339041,61.026597],[21.298676,61.060126],[21.38738,61.040269],[21.407725,61.050727],[21.366954,61.060126],[21.48227,61.060126],[21.454845,61.078192],[21.463145,61.101142],[21.435232,61.142727],[21.469981,61.149563],[21.442638,61.169989],[21.558116,61.204169],[21.543468,61.225084],[21.476085,61.245754],[21.503429,61.279853],[21.544444,61.279853],[21.524262,61.375312],[21.448904,61.402777],[21.572439,61.416409],[21.42213,61.485338],[21.592133,61.485338],[21.565603,61.519477],[21.510265,61.519477],[21.469981,61.54682],[21.460134,61.562405],[21.48227,61.567857],[21.716319,61.526923],[21.614268,61.585435],[21.591807,61.628119],[21.537608,61.649848],[21.544119,61.672838],[21.517751,61.711249],[21.585948,61.697659],[21.469981,61.759711],[21.486095,61.811184],[21.444591,61.826321],[21.448904,61.84162],[21.403168,61.87641],[21.394216,61.88939],[21.414073,61.906887],[21.380544,61.937812],[21.312511,61.939846],[21.277517,61.951483],[21.294932,61.97134],[21.236583,61.985012],[21.276215,62.050198],[21.289073,62.121568],[21.312266,62.109117],[21.325938,62.163764],[21.383962,62.194485],[21.389903,62.208157],[21.353282,62.232001],[21.374278,62.266791],[21.312266,62.232001],[21.339041,62.355536],[21.270681,62.349311],[21.270681,62.410793],[21.205089,62.359687],[21.216075,62.335028],[21.194347,62.337063],[21.202403,62.390326],[21.181326,62.39647],[21.202403,62.417629],[21.133556,62.403957],[21.154552,62.464789],[21.116384,62.46015],[21.115571,62.495795],[21.154552,62.527493],[21.12672,62.554145],[21.209239,62.582099],[21.193533,62.600898],[21.106212,62.623033],[21.065196,62.595771],[21.078949,62.67829],[21.160818,62.719306],[21.116466,62.749661],[21.113536,62.781195],[21.15089,62.794379],[21.18336,62.782375],[21.243419,62.869452],[21.335704,62.855455],[21.390798,62.880316],[21.42213,62.941799],[21.463145,62.951402],[21.444102,63.04092],[21.480479,63.043036],[21.495128,63.071723],[21.625743,63.023871],[21.688487,63.027086],[21.559581,63.09512],[21.572439,63.123358],[21.520844,63.126776],[21.503429,63.157457],[21.551931,63.177924],[21.512869,63.185004],[21.496593,63.20897],[21.558116,63.232611],[21.647227,63.197659],[21.667979,63.21955],[21.742361,63.199652],[21.764171,63.205878],[21.702647,63.225775],[21.894542,63.260484],[21.88087,63.177924],[21.983897,63.143215],[21.955903,63.18476],[21.994395,63.196438],[22.02475,63.239407],[22.175059,63.232611],[22.278087,63.301459],[22.307628,63.275865],[22.330089,63.28384],[22.373709,63.321357],[22.195567,63.43122],[22.190929,63.458441],[22.246755,63.469631],[22.304942,63.435858],[22.401622,63.418158],[22.279959,63.487616],[22.281423,63.52619],[22.337413,63.523342],[22.333344,63.493232],[22.380219,63.485419],[22.394786,63.452338],[22.4074,63.456936],[22.435802,63.472805],[22.431488,63.497382],[22.497244,63.585761],[22.545665,63.575181],[22.497244,63.622992],[22.531993,63.64411],[22.525076,63.657701],[22.585704,63.65705],[22.589041,63.703315],[22.637055,63.683092],[22.675304,63.702379],[22.73406,63.62759],[22.773448,63.627509],[22.829275,63.646226],[22.840343,63.677639],[22.901866,63.705512],[22.833018,63.72602],[22.901866,63.72602],[22.874685,63.746527],[22.925792,63.743394],[22.902517,63.794867],[22.942882,63.800482],[23.000662,63.763617],[22.990733,63.815375],[23.062836,63.852973],[23.121349,63.849555],[23.167328,63.886949],[23.275238,63.888902],[23.326427,63.910956],[23.372813,63.900621],[23.415782,63.924628],[23.37086,63.946519],[23.367442,63.99726],[23.396495,64.056138],[23.604503,64.027655],[23.619802,64.038031],[23.566091,64.096584],[23.573578,64.107245],[23.622081,64.107123],[23.723643,64.178534],[23.724376,64.20893],[23.819102,64.220649],[23.861095,64.26789],[23.94337,64.246772],[23.929047,64.301418],[24.004405,64.389106],[24.068614,64.405585],[24.080577,64.431708],[24.20574,64.452216],[24.217784,64.487006],[24.257579,64.485989],[24.285981,64.51496],[24.344086,64.530748],[24.375499,64.617255],[24.422862,64.675605],[24.530284,64.717841],[24.546072,64.733385],[24.5324,64.753852],[24.587657,64.781195],[24.538422,64.805325],[24.668305,64.78913],[24.670665,64.829739],[24.7317,64.835842],[24.736339,64.855373],[25.094737,64.918362],[25.14324,64.884223],[25.177257,64.884223],[25.217621,64.841457],[25.259288,64.835842],[25.225108,64.82274],[25.354828,64.829576],[25.359548,64.911119],[25.3213,64.904731],[25.241222,64.929023],[25.190929,64.966783],[25.220958,64.990546],[25.321625,64.983588],[25.42156,64.948879],[25.443533,64.966783],[25.416759,64.998603],[25.41627,65.035061],[25.355479,65.096503],[25.211436,65.123765],[25.225841,65.156643],[25.282481,65.191392],[25.279796,65.219957],[25.327485,65.226874],[25.300141,65.233629],[25.313813,65.254136],[25.279796,65.260972],[25.3213,65.31623],[25.306977,65.32982],[25.334972,65.343492],[25.266124,65.377631],[25.3213,65.385077],[25.355479,65.411811],[25.358653,65.465522],[25.323578,65.506781],[25.219005,65.557278],[25.124848,65.561103],[25.074229,65.614163],[24.937185,65.624091],[24.859141,65.659125],[24.675792,65.635443],[24.667735,65.690863],[24.583995,65.716864],[24.550466,65.763495],[24.645763,65.879462],[24.710623,65.912095],[24.617931,65.889228],[24.614513,65.866156],[24.518809,65.796047],[24.452973,65.796942],[24.404796,65.769232],[24.238292,65.822699],[24.244314,65.781562],[24.206228,65.778754],[24.05479,65.947914],[24.055306,65.985172],[24.01965,66.048941],[23.974588,66.072816],[23.911439,66.148625],[23.750002,66.189656],[23.689437,66.25699],[23.662772,66.316522],[23.677035,66.363625],[23.642308,66.436256],[23.652437,66.458839],[23.88188,66.563535],[23.903171,66.686318],[23.892422,66.750914],[23.939241,66.791118],[24.004043,66.8052],[23.93335,66.888761],[23.816665,66.9755],[23.72034,67.016867],[23.676725,67.058492],[23.666596,67.097921],[23.58133,67.153137],[23.573992,67.173033],[23.61492,67.213986],[23.591459,67.225019],[23.602724,67.260263],[23.735429,67.289692],[23.785659,67.337519],[23.751449,67.346226],[23.765195,67.420072],[23.594559,67.45361],[23.477151,67.443817],[23.431262,67.48552],[23.484695,67.542958],[23.47343,67.554999],[23.553528,67.587038],[23.484592,67.737159],[23.481285,67.864644],[23.636107,67.913478],[23.662152,67.950427],[23.382996,68.051248],[23.306515,68.145609],[23.165645,68.122045],[23.149419,68.139408],[23.155206,68.217439],[23.066943,68.290251],[22.903749,68.336605],[22.808251,68.394896],[22.748616,68.385491],[22.662213,68.427401],[22.303062,68.476131],[22.072172,68.47701],[21.919209,68.568219],[21.737102,68.587908],[21.716845,68.619224],[21.46363,68.686868],[21.406373,68.74888],[21.305397,68.755804],[21.216617,68.817248],[21.072129,68.869441],[20.905731,68.894607],[20.884544,68.9067],[20.887644,68.92706],[20.934257,68.949023],[20.911209,68.9807],[20.623165,69.036356],[20.744397,69.104362],[21.071509,69.036666],[21.156362,69.087619],[21.033579,69.181205],[21.098381,69.239496],[21.313562,69.291431],[21.638813,69.27138],[22.023079,69.012016],[22.160745,68.956102],[22.277224,68.857452],[22.371378,68.822622],[22.409205,68.712913],[22.570126,68.726814],[22.851659,68.675706],[23.071491,68.680874],[23.197581,68.618035],[23.481595,68.685628],[23.734809,68.715445],[23.787209,68.799781],[23.929009,68.816214],[24.131167,68.776165],[24.186875,68.744539],[24.332499,68.708624],[24.663435,68.666094],[24.754179,68.637879],[24.879235,68.554835],[24.905177,68.556953],[24.951789,68.605064],[25.13245,68.647646],[25.149607,68.764641],[25.201283,68.812648],[25.43393,68.883859],[25.627769,68.874143],[25.753859,68.978375],[25.79582,68.993309],[25.801091,69.013153],[25.750242,69.059248],[25.771222,69.135109],[25.734119,69.191333],[25.737219,69.218205],[25.786622,69.312773],[25.877366,69.370806],[25.841399,69.417779],[25.886668,69.455193],[25.906408,69.501857],[25.886668,69.520874],[25.960255,69.548676],[26.003973,69.587175],[26.00511,69.610843],[25.961702,69.652545],[26.00511,69.689339],[26.198276,69.715436],[26.316822,69.794914],[26.418728,69.835635],[26.447874,69.856047],[26.435885,69.874237],[26.533863,69.925242],[26.864592,69.938084],[27.10034,69.901755],[27.3118,69.929479],[27.352418,69.948703],[27.323169,69.959684],[27.334538,69.968624],[27.563309,70.023582],[27.612557,70.062055],[27.792184,70.058929],[27.866908,70.07531],[27.927163,70.05327],[28.167355,69.894339],[28.381192,69.856202],[28.379745,69.822354],[28.40455,69.802252],[29.14714,69.663914],[29.203158,69.585986],[29.344544,69.464392],[29.229254,69.376852],[28.852171,69.203529],[28.827573,69.090771],[28.954077,69.027261]]],[[[22.408376,60.052802],[22.411794,60.085191],[22.449474,60.066474],[22.442638,59.997504],[22.409516,60.009345],[22.382823,59.99258],[22.348888,60.063218],[22.370616,60.080756],[22.387218,60.051663],[22.408376,60.052802]]],[[[21.496593,60.135321],[21.571056,60.170356],[21.654307,60.155829],[21.613292,60.129096],[21.636974,60.123684],[21.613129,60.102118],[21.514415,60.097357],[21.48227,60.114814],[21.558116,60.121649],[21.496593,60.135321]]],[[[21.743663,60.190619],[21.853526,60.196763],[21.887706,60.176337],[21.846039,60.170111],[21.867849,60.155829],[21.791515,60.155829],[21.826182,60.149604],[21.783214,60.123236],[21.695811,60.121649],[21.722504,60.149604],[21.708181,60.17178],[21.743663,60.190619]]],[[[21.353282,60.211086],[21.448904,60.183743],[21.409353,60.184516],[21.380544,60.162665],[21.270681,60.190619],[21.353282,60.211086]]],[[[22.05893,60.211086],[22.072032,60.196763],[22.011241,60.170111],[22.037852,60.155829],[22.009288,60.137274],[21.950694,60.149075],[21.935395,60.176337],[22.05893,60.211086]]],[[[25.81422,60.207668],[25.876231,60.217231],[25.835623,60.196031],[25.81422,60.207668]]],[[[22.209239,60.20425],[22.24586,60.243069],[22.291759,60.245185],[22.296886,60.221259],[22.269298,60.195868],[22.23227,60.184963],[22.209239,60.20425]]],[[[25.622325,60.238349],[25.57016,60.258043],[25.581716,60.296373],[25.684418,60.245185],[25.643728,60.228095],[25.635997,60.20425],[25.603363,60.215399],[25.622325,60.238349]]],[[[22.843516,60.241767],[22.890961,60.285549],[22.956391,60.292955],[22.949474,60.270453],[22.833507,60.193061],[22.840343,60.170111],[22.819347,60.162665],[22.840343,60.155829],[22.846853,60.111029],[22.730479,60.046576],[22.757986,60.032294],[22.729828,60.00495],[22.68214,59.997504],[22.654959,60.032294],[22.600271,59.984524],[22.598969,60.008043],[22.57488,60.017035],[22.593435,60.046576],[22.529959,60.008246],[22.4699,59.997504],[22.473643,60.090969],[22.42213,60.114814],[22.600271,60.142157],[22.415212,60.149604],[22.44809,60.221381],[22.477306,60.224677],[22.45102,60.188544],[22.466482,60.183743],[22.843516,60.241767]]],[[[22.106781,60.313463],[22.249766,60.311469],[22.33961,60.2862],[22.331798,60.269436],[22.215505,60.253119],[22.181163,60.281317],[22.14088,60.278713],[22.181895,60.278713],[22.163341,60.259223],[22.080089,60.269477],[22.083832,60.301459],[22.106781,60.313463]]],[[[22.38795,60.32095],[22.312836,60.32095],[22.398204,60.355048],[22.477306,60.32095],[22.367442,60.292955],[22.38795,60.32095]]],[[[21.997569,60.33393],[21.901378,60.327094],[21.901378,60.341376],[21.794119,60.373969],[21.792247,60.396959],[21.846039,60.409654],[21.79835,60.443793],[21.808116,60.466702],[21.832367,60.471137],[21.931977,60.423326],[21.950369,60.395982],[21.894542,60.395982],[21.942231,60.368109],[21.988617,60.365912],[21.997569,60.355048],[21.96339,60.347602],[21.997569,60.33393]]],[[[21.725922,60.481676],[21.681651,60.464911],[21.714203,60.508612],[21.764171,60.525784],[21.725922,60.481676]]],[[[21.319102,60.481676],[21.250255,60.49844],[21.26059,60.519721],[21.229177,60.559882],[21.278494,60.542304],[21.319102,60.481676]]],[[[21.394216,60.559882],[21.48227,60.525784],[21.463145,60.525784],[21.463145,60.492255],[21.433604,60.489081],[21.442638,60.471137],[21.392263,60.489976],[21.360118,60.533189],[21.328624,60.525336],[21.333832,60.557359],[21.394216,60.559882]]],[[[21.298676,60.567328],[21.213878,60.61636],[21.270681,60.643052],[21.291189,60.615139],[21.281505,60.575629],[21.298676,60.567328]]],[[[21.264415,60.882025],[21.202403,60.889472],[21.298676,60.895697],[21.291189,60.90998],[21.312266,60.923],[21.243419,60.950873],[21.27003,60.967963],[21.304942,60.971381],[21.374278,60.930406],[21.327891,60.910142],[21.318126,60.880194],[21.264415,60.882025]]],[[[21.42213,63.246812],[21.428396,63.198432],[21.377452,63.190131],[21.363943,63.193671],[21.380544,63.205878],[21.362804,63.206244],[21.291189,63.177924],[21.318533,63.164944],[21.301524,63.156155],[21.243419,63.150702],[21.188813,63.191596],[21.147227,63.182196],[21.133556,63.198432],[21.154552,63.205878],[21.102794,63.235989],[21.078949,63.287787],[21.120291,63.271959],[21.243419,63.280992],[21.195079,63.225775],[21.286794,63.211371],[21.291189,63.239407],[21.315766,63.251939],[21.396332,63.260688],[21.42213,63.246812]]],[[[21.318533,63.287787],[21.315278,63.304023],[21.277517,63.301459],[21.229177,63.328803],[21.345958,63.363756],[21.374278,63.34927],[21.318533,63.287787]]],[[[24.993437,65.055104],[25.061818,65.04348],[24.819657,65.04328],[24.722367,65.003467],[24.750775,64.975966],[24.827322,64.972968],[24.734711,64.950914],[24.700694,64.958157],[24.710623,64.972968],[24.68393,64.996568],[24.631602,64.967841],[24.562755,65.037177],[24.65419,65.080221],[24.834506,65.0948],[24.883096,65.086904],[24.896983,65.072415],[24.882842,65.059139],[24.993437,65.055104]]],[[[23.915212,59.973456],[23.920421,59.959418],[23.894216,59.949693],[23.847423,59.954657],[23.915212,59.973456]]],[[[22.88738,60.067776],[22.926606,60.065375],[22.872244,60.006049],[22.851085,60.027899],[22.8838,60.048082],[22.855154,60.055569],[22.88738,60.067776]]],[[[22.95753,60.110785],[22.946788,60.084703],[22.84547,60.082221],[22.891612,60.119086],[22.95753,60.110785]]],[[[21.991547,60.12995],[22.01238,60.122748],[21.971365,60.111396],[21.929942,60.124579],[21.991547,60.12995]]],[[[22.313162,60.191962],[22.38559,60.195258],[22.319998,60.164049],[22.336925,60.148505],[22.288341,60.149848],[22.313162,60.191962]]],[[[21.983165,60.28498],[21.972911,60.285346],[22.008311,60.297309],[21.983165,60.28498]]],[[[21.956879,60.281399],[21.909679,60.280097],[21.875336,60.304877],[21.973806,60.309312],[21.956879,60.281399]]],[[[22.299653,60.36758],[22.191091,60.341742],[22.157237,60.351874],[22.299653,60.36758]]],[[[22.206228,60.382554],[22.104259,60.354153],[22.137869,60.379096],[22.206228,60.382554]]],[[[21.338064,60.383368],[21.355317,60.351793],[21.294444,60.37051],[21.307791,60.389594],[21.338064,60.383368]]],[[[26.602061,60.446519],[26.652599,60.426907],[26.57309,60.405341],[26.548595,60.378363],[26.507172,60.403469],[26.602061,60.446519]]],[[[22.026215,63.322211],[22.060802,63.302151],[22.046641,63.282172],[21.978282,63.280015],[21.989024,63.31037],[22.029959,63.308417],[22.007579,63.324897],[22.026215,63.322211]]],[[[22.144216,63.25141],[22.079356,63.266303],[22.068696,63.283881],[22.088878,63.294623],[22.069184,63.318549],[22.110199,63.328925],[22.195649,63.30976],[22.231293,63.338813],[22.246267,63.307074],[22.208669,63.273261],[22.114431,63.284166],[22.158539,63.274075],[22.144216,63.25141]]],[[[21.957205,63.33161],[21.99643,63.384711],[22.096039,63.38349],[22.076182,63.360053],[22.012706,63.363715],[21.957205,63.33161]]],[[[22.807953,63.779527],[22.828868,63.776313],[22.802094,63.738186],[22.739594,63.720526],[22.681488,63.763414],[22.763845,63.791449],[22.807953,63.779527]]],[[[22.498546,59.877631],[22.512869,59.873725],[22.443696,59.851467],[22.413829,59.861233],[22.498546,59.877631]]],[[[21.600434,60.254828],[21.62672,60.25259],[21.601736,60.222561],[21.563487,60.226223],[21.586925,60.269355],[21.604666,60.268785],[21.600434,60.254828]]],[[[21.259532,60.853095],[21.263194,60.830268],[21.18629,60.856513],[21.259532,60.853095]]],[[[21.421886,61.176744],[21.352387,61.176011],[21.342947,61.190619],[21.380056,61.214016],[21.421886,61.176744]]],[[[21.521251,61.633979],[21.507823,61.618069],[21.459972,61.62934],[21.521251,61.633979]]],[[[21.208507,62.946234],[21.146658,62.953274],[21.136485,62.967231],[21.159353,62.975409],[21.130382,63.0008],[21.195649,62.994371],[21.221202,62.961371],[21.208507,62.946234]]]]}}]}
