{"type":"FeatureCollection","features":[{"type":"Feature","properties":{"name":"Federated States of Micronesia","ISO3166-1-Alpha-3":"FSM","ISO3166-1-Alpha-2":"FM"},"geometry":{"type":"MultiPolygon","coordinates":[[[[163.026052,5.340888],[163.04656,5.323554],[163.019216,5.272691],[162.916189,5.286933],[162.924083,5.321031],[162.990733,5.374823],[163.026052,5.368842],[163.026052,5.340888]]],[[[158.290782,6.937974],[158.324962,6.931138],[158.338227,6.879096],[158.304454,6.865953],[158.313813,6.808661],[158.244477,6.788275],[158.180186,6.802476],[158.160492,6.828111],[158.160492,6.890204],[158.125824,6.907416],[158.132498,6.941352],[158.178233,6.956041],[158.180919,6.978949],[158.276622,6.965277],[158.303477,6.942857],[158.290782,6.937974]]],[[[151.588634,7.383612],[151.636404,7.387112],[151.644542,7.336086],[151.568126,7.342678],[151.622732,7.365912],[151.588634,7.383612]]],[[[151.87672,7.458726],[151.917654,7.458726],[151.856212,7.424628],[151.863048,7.465562],[151.87672,7.458726]]],[[[138.192393,9.575873],[138.184255,9.544379],[138.219005,9.54857],[138.202403,9.521186],[138.177989,9.50019],[138.143809,9.521308],[138.068126,9.412055],[138.073009,9.470404],[138.126231,9.565985],[138.141124,9.574368],[138.150076,9.541164],[138.164399,9.575873],[138.193614,9.588853],[138.192393,9.575873]]],[[[154.808116,0.927802],[154.817638,0.922187],[154.801768,0.918199],[154.808116,0.927802]]],[[[154.714854,0.965562],[154.721934,0.969184],[154.726817,0.960639],[154.714854,0.965562]]],[[[154.793142,0.972113],[154.792328,0.962877],[154.778168,0.968817],[154.793142,0.972113]]],[[[154.879242,3.751939],[154.87672,3.767971],[154.891856,3.778795],[154.879242,3.751939]]],[[[154.789317,3.791815],[154.791759,3.776557],[154.773692,3.766262],[154.789317,3.791815]]],[[[153.667735,5.286038],[153.685313,5.309719],[153.707693,5.305365],[153.667735,5.286038]]],[[[157.161876,5.773871],[157.158946,5.777899],[157.16391,5.778713],[157.161876,5.773871]]],[[[149.315766,6.696926],[149.316905,6.709906],[149.325694,6.712551],[149.315766,6.696926]]],[[[157.936371,6.71719],[157.942068,6.730536],[157.948253,6.725775],[157.936371,6.71719]]],[[[151.856781,7.316596],[151.854503,7.370063],[151.865571,7.350653],[151.856781,7.316596]]],[[[149.18572,7.371649],[149.180837,7.381171],[149.188243,7.379788],[149.18572,7.371649]]],[[[150.407481,8.575507],[150.404633,8.586005],[150.409841,8.582343],[150.407481,8.575507]]],[[[149.668712,8.574693],[149.667817,8.604234],[149.687266,8.616034],[149.668712,8.574693]]],[[[150.118175,8.976304],[150.127452,8.987494],[150.130544,8.980943],[150.118175,8.976304]]],[[[140.514171,9.767808],[140.531261,9.77558],[140.524669,9.764472],[140.514171,9.767808]]]]}}]}
