{"type":"FeatureCollection","features":[{"type":"Feature","properties":{"name":"Gabon","ISO3166-1-Alpha-3":"GAB","ISO3166-1-Alpha-2":"GA"},"geometry":{"type":"MultiPolygon","coordinates":[[[[13.294568,2.161058],[13.281132,2.044967],[13.206925,1.993575],[13.210232,1.956316],[13.162173,1.899833],[13.191008,1.828727],[13.150184,1.756302],[13.149977,1.636284],[13.129617,1.592462],[13.164447,1.53784],[13.182637,1.536548],[13.184911,1.496886],[13.239481,1.427976],[13.251263,1.337646],[13.150184,1.256617],[13.184911,1.22251],[13.25023,1.221787],[13.37694,1.294444],[13.543442,1.283489],[13.642247,1.357386],[13.75485,1.374336],[13.794744,1.434436],[14.00083,1.413016],[14.049509,1.376403],[14.14449,1.391622],[14.252184,1.330824],[14.28288,1.130113],[14.346442,1.087118],[14.400805,0.970329],[14.468088,0.913227],[14.437599,0.875142],[14.447624,0.81623],[14.33838,0.693912],[14.328768,0.621204],[14.231823,0.542552],[14.075967,0.539451],[14.045582,0.497283],[14.059121,0.435272],[13.945226,0.350419],[13.871225,0.196423],[13.894893,0.043668],[13.932927,0.022067],[13.91298,-0.016587],[13.921145,-0.052967],[13.8427,-0.152289],[13.831228,-0.205413],[13.883421,-0.264944],[13.921558,-0.237865],[14.095398,-0.276623],[14.138289,-0.336361],[14.159683,-0.455113],[14.193066,-0.440437],[14.320603,-0.444468],[14.454239,-0.539553],[14.489999,-0.600944],[14.492169,-0.663369],[14.44597,-0.775714],[14.457133,-0.856122],[14.412794,-0.921545],[14.39202,-1.008981],[14.434395,-1.135072],[14.428297,-1.169488],[14.465814,-1.224369],[14.46075,-1.278009],[14.426333,-1.331029],[14.487725,-1.40937],[14.456306,-1.440169],[14.438426,-1.502595],[14.463127,-1.54869],[14.430364,-1.554891],[14.364839,-1.612045],[14.402976,-1.670853],[14.448761,-1.686253],[14.406696,-1.735552],[14.404526,-1.893062],[14.240092,-1.982255],[14.233477,-2.018222],[14.251667,-2.037859],[14.233787,-2.134494],[14.204332,-2.152167],[14.195857,-2.201777],[14.148004,-2.224824],[14.151208,-2.259034],[14.226966,-2.323113],[14.234407,-2.354946],[14.14418,-2.390189],[14.090023,-2.498606],[14.045582,-2.4861],[13.985637,-2.5015],[13.967033,-2.470597],[13.884971,-2.488477],[13.8458,-2.466567],[13.847661,-2.423055],[13.906158,-2.359803],[13.863887,-2.321459],[13.782755,-2.138008],[13.743171,-2.09708],[13.701571,-2.194749],[13.617442,-2.279601],[13.603386,-2.320012],[13.557601,-2.340476],[13.458899,-2.441039],[13.438952,-2.425432],[13.361024,-2.428843],[13.176849,-2.361974],[13.135198,-2.37696],[13.025024,-2.338202],[12.969006,-2.372412],[13.008177,-2.276501],[12.945649,-2.18245],[12.907098,-2.195369],[12.882707,-2.140798],[12.895109,-2.109793],[12.876299,-2.104935],[12.804572,-1.919107],[12.632386,-1.825159],[12.58319,-1.826502],[12.523452,-1.863296],[12.486555,-1.924894],[12.426921,-1.88407],[12.440046,-2.045817],[12.499784,-2.09553],[12.470225,-2.156301],[12.475496,-2.212422],[12.447901,-2.30792],[12.45927,-2.329934],[12.062292,-2.414994],[12.000693,-2.390602],[11.938372,-2.329107],[11.806597,-2.374169],[11.756057,-2.415097],[11.655908,-2.345644],[11.566198,-2.329727],[11.576533,-2.502533],[11.624386,-2.632758],[11.537466,-2.797709],[11.530748,-2.866749],[11.588419,-2.835433],[11.636788,-2.833263],[11.778381,-3.005655],[11.778381,-3.027153],[11.75368,-3.042345],[11.706448,-3.04989],[11.687534,-3.17102],[11.821893,-3.254839],[11.944366,-3.303208],[11.954908,-3.335454],[11.884835,-3.413279],[11.824994,-3.571202],[11.905505,-3.643549],[11.879977,-3.687164],[11.838326,-3.710935],[11.687638,-3.69874],[11.64919,-3.673315],[11.569815,-3.54495],[11.532712,-3.516528],[11.482585,-3.509294],[11.413959,-3.587635],[11.334688,-3.608616],[11.212524,-3.697293],[11.114016,-3.936856],[11.021289,-3.857816],[10.98463,-3.714614],[10.96378,-3.691489],[10.646434,-3.451914],[10.635427,-3.313653],[10.553011,-3.258689],[10.452594,-3.133279],[10.346979,-3.044488],[9.902438,-2.700431],[9.703461,-2.443048],[9.750255,-2.487237],[9.794932,-2.500909],[9.840099,-2.45672],[9.830089,-2.492771],[9.833263,-2.505141],[9.847504,-2.491469],[9.850271,-2.528416],[9.917817,-2.549981],[9.93629,-2.594496],[9.97047,-2.580255],[9.977306,-2.628676],[10.001231,-2.614353],[10.020763,-2.628513],[10.067393,-2.581801],[10.156586,-2.572931],[10.137462,-2.527439],[10.073497,-2.491469],[10.094005,-2.560317],[10.079845,-2.558201],[10.04363,-2.51629],[10.008311,-2.505141],[9.984141,-2.560317],[9.957367,-2.546157],[9.955333,-2.515232],[9.991547,-2.491469],[9.908946,-2.470392],[9.874522,-2.409356],[9.751964,-2.470392],[9.726736,-2.444513],[9.747081,-2.413344],[9.723969,-2.402114],[9.723969,-2.379083],[9.698416,-2.377537],[9.703461,-2.435724],[9.628429,-2.367364],[9.668793,-2.422621],[9.646495,-2.407647],[9.597016,-2.352227],[9.565766,-2.19256],[9.395193,-2.032322],[9.402029,-2.018487],[9.380382,-2.012628],[9.354177,-1.957127],[9.271251,-1.876642],[9.280935,-1.860447],[9.311046,-1.896742],[9.359711,-1.914727],[9.380707,-1.888279],[9.37794,-1.931817],[9.388194,-1.915623],[9.467296,-1.922459],[9.47877,-1.959568],[9.456554,-1.977634],[9.508067,-2.00156],[9.543224,-2.070896],[9.563731,-2.031671],[9.498057,-1.957127],[9.517751,-1.926446],[9.466645,-1.851332],[9.436046,-1.847263],[9.436046,-1.888279],[9.374522,-1.819268],[9.340505,-1.888279],[9.305675,-1.873956],[9.314952,-1.842869],[9.292166,-1.826104],[9.255382,-1.835219],[9.250336,-1.706964],[9.220063,-1.579767],[9.016612,-1.315851],[8.983572,-1.23089],[9.019379,-1.304783],[9.082286,-1.34352],[9.15919,-1.468032],[9.264659,-1.535333],[9.280284,-1.675063],[9.297537,-1.634535],[9.312511,-1.65545],[9.402029,-1.614435],[9.39503,-1.646905],[9.415538,-1.669692],[9.415538,-1.607599],[9.559581,-1.607599],[9.502452,-1.579848],[9.484386,-1.484145],[9.456554,-1.470473],[9.432302,-1.473077],[9.434581,-1.504571],[9.37908,-1.562921],[9.286632,-1.566095],[9.278331,-1.507989],[9.248546,-1.482029],[9.29713,-1.457696],[9.28533,-1.415785],[9.334158,-1.398614],[9.354503,-1.350518],[9.33546,-1.28338],[9.322927,-1.370864],[9.302257,-1.381117],[9.278331,-1.36061],[9.233653,-1.401625],[9.18572,-1.410577],[9.15797,-1.395196],[9.146495,-1.332289],[9.107107,-1.346368],[9.03004,-1.299086],[9.018321,-1.23089],[9.037771,-1.216729],[9.033051,-1.193455],[8.997244,-1.155206],[9.009776,-1.185317],[8.994151,-1.220392],[8.966645,-1.104425],[8.867442,-0.976983],[8.907725,-1.008559],[8.93572,-0.963474],[8.877452,-0.973728],[8.856944,-0.915948],[8.83961,-0.922459],[8.695567,-0.586602],[8.709158,-0.565606],[8.707693,-0.592218],[8.750824,-0.60711],[8.750824,-0.633884],[8.772309,-0.633233],[8.806,-0.748305],[8.844412,-0.800226],[8.860688,-0.805108],[8.866059,-0.719496],[8.914561,-0.72324],[8.88795,-0.681573],[8.929047,-0.68727],[8.957042,-0.753513],[9.004649,-0.805108],[9.011485,-0.874607],[9.018321,-0.79518],[9.052013,-0.710626],[9.087169,-0.68963],[9.089122,-0.659926],[9.114513,-0.681573],[9.09254,-0.625665],[9.100841,-0.599705],[9.267426,-0.412367],[9.306488,-0.332289],[9.305675,-0.203058],[9.340505,-0.11712],[9.334158,-0.025405],[9.355317,0.016181],[9.298839,0.283515],[9.309093,0.32453],[9.345388,0.35578],[9.365896,0.351549],[9.378673,0.307563],[9.360199,0.181098],[9.380382,0.20539],[9.424327,0.208197],[9.488048,0.098334],[9.504242,0.187974],[9.566417,0.167467],[9.586762,0.112291],[9.628429,0.153795],[9.662608,0.126532],[9.712413,0.134833],[9.812185,0.023505],[9.758556,0.125556],[9.803884,0.133246],[9.819591,0.119086],[9.908946,0.187974],[9.97047,0.173651],[10.025645,0.187974],[9.93629,0.215969],[9.88266,0.190416],[9.792247,0.181098],[9.668956,0.22724],[9.586436,0.283637],[9.566417,0.318305],[9.498057,0.290961],[9.398692,0.488715],[9.37086,0.520087],[9.305675,0.544257],[9.315929,0.626166],[9.539073,0.681464],[9.559255,0.621527],[9.477794,0.619086],[9.464041,0.598863],[9.516449,0.604153],[9.545909,0.564765],[9.573253,0.598863],[9.587087,0.553697],[9.573253,0.510077],[9.607921,0.469184],[9.603689,0.505357],[9.6421,0.598863],[9.625011,0.639309],[9.618175,0.806789],[9.561534,0.962795],[9.592052,1.01435],[9.642426,1.022284],[9.668793,1.058173],[9.745128,1.059719],[9.774669,1.032864],[9.792247,0.968817],[9.804371,0.998354],[9.834107,0.994927],[9.944075,0.924854],[9.971773,0.93984],[9.980765,0.997201],[10.029444,1.003506],[11.336341,0.999165],[11.322078,2.16576],[11.351637,2.300584],[11.657252,2.322495],[11.768149,2.280172],[12.202645,2.279552],[12.321604,2.314072],[12.384856,2.285908],[12.47839,2.295882],[12.749898,2.236712],[12.808189,2.264049],[12.867824,2.24498],[12.924771,2.264049],[13.04094,2.244205],[13.163827,2.283169],[13.242891,2.27149],[13.284646,2.242242],[13.294568,2.161058]]],[[[8.997244,-0.627618],[9.033458,-0.635431],[9.041515,-0.669854],[9.038748,-0.743748],[9.006602,-0.76214],[8.968516,-0.7374],[8.971202,-0.695896],[8.949474,-0.661716],[9.004649,-0.592869],[8.997244,-0.627618]]],[[[9.376786,0.809986],[9.384086,0.809629],[9.379643,0.806971],[9.376786,0.809986]]]]}}]}
