{"type":"FeatureCollection","features":[{"type":"Feature","properties":{"name":"Grenada","ISO3166-1-Alpha-3":"GRD","ISO3166-1-Alpha-2":"GD"},"geometry":{"type":"MultiPolygon","coordinates":[[[[-61.612945,12.214423],[-61.606313,12.133775],[-61.631581,12.044094],[-61.682973,12.025377],[-61.694936,12.002834],[-61.790517,12.008368],[-61.749501,12.036322],[-61.756418,12.087836],[-61.729644,12.166653],[-61.671457,12.23607],[-61.627675,12.236721],[-61.612945,12.214423]]],[[[-61.428049,12.454657],[-61.496246,12.440375],[-61.488881,12.482001],[-61.467275,12.475572],[-61.428049,12.529731],[-61.428049,12.454657]]]]}}]}
