{"type":"FeatureCollection","features":[{"type":"Feature","properties":{"name":"Georgia","ISO3166-1-Alpha-3":"GEO","ISO3166-1-Alpha-2":"GE"},"geometry":{"type":"Polygon","coordinates":[[[41.551195,42.406457],[41.500173,42.64057],[41.424327,42.739895],[41.225352,42.802314],[41.150238,42.79564],[41.023123,42.989976],[40.933767,42.982733],[40.855968,43.063056],[40.682872,43.094306],[40.591807,43.085639],[40.520193,43.127265],[40.398285,43.16234],[40.361176,43.165473],[40.335134,43.140855],[40.268403,43.216376],[40.272797,43.247992],[40.219086,43.319037],[39.985976,43.38899],[40.059187,43.535199],[40.096705,43.562639],[40.164297,43.575843],[40.23313,43.575765],[40.519624,43.505175],[40.651916,43.538971],[40.874952,43.455643],[41.011791,43.375416],[41.146666,43.37986],[41.278751,43.333196],[41.380657,43.334772],[41.41311,43.291286],[41.577544,43.215296],[41.919332,43.205943],[42.043356,43.18057],[42.185363,43.225476],[42.354551,43.236018],[42.422867,43.22899],[42.615207,43.13698],[42.673602,43.165893],[42.829768,43.168761],[43.000093,43.098662],[42.998853,43.042206],[43.155588,42.942393],[43.517426,42.86046],[43.662843,42.779845],[43.800613,42.746462],[43.811775,42.717265],[43.725682,42.6544],[43.722581,42.624867],[43.751107,42.598745],[43.885362,42.579211],[43.939726,42.55221],[44.055068,42.615307],[44.197384,42.629105],[44.272005,42.702382],[44.360682,42.703751],[44.508115,42.750286],[44.600977,42.749123],[44.679422,42.723672],[44.73637,42.677551],[44.773473,42.609648],[44.85936,42.75951],[45.029788,42.688765],[45.155362,42.693261],[45.282693,42.586394],[45.32269,42.530118],[45.35597,42.519964],[45.47927,42.54234],[45.620657,42.530377],[45.698688,42.507587],[45.739616,42.471466],[45.62138,42.224478],[45.631405,42.201172],[45.811601,42.115492],[45.881364,42.102031],[45.947562,42.022914],[46.05846,42.02033],[46.099181,41.985061],[46.224341,41.993484],[46.294156,41.93863],[46.406552,41.91504],[46.430892,41.890442],[46.328314,41.766418],[46.188994,41.740141],[46.192767,41.610174],[46.21969,41.593302],[46.2539,41.615911],[46.313948,41.493747],[46.591554,41.372928],[46.694803,41.269782],[46.64447,41.207977],[46.601786,41.09403],[46.543546,41.097027],[46.496779,41.044834],[46.47492,41.044111],[46.41265,41.09186],[46.332345,41.115889],[46.228578,41.195419],[46.135406,41.199915],[46.041613,41.165447],[45.969163,41.168289],[45.820748,41.208804],[45.709747,41.267715],[45.685872,41.29624],[45.74406,41.335359],[45.511826,41.39458],[45.464801,41.430185],[45.396794,41.423261],[45.281711,41.452923],[44.955168,41.262702],[44.820706,41.273347],[44.801275,41.258516],[44.847061,41.230766],[44.847784,41.208907],[44.612863,41.223118],[44.551523,41.177023],[44.516641,41.20684],[44.45494,41.180485],[44.344921,41.213248],[44.284976,41.190872],[44.180331,41.229939],[44.124727,41.178056],[43.863245,41.158988],[43.754156,41.108241],[43.566622,41.124054],[43.450453,41.104676],[43.437586,41.156197],[43.383274,41.187203],[43.230622,41.17263],[43.172021,41.242342],[43.103136,41.248801],[43.18401,41.298979],[43.12391,41.312932],[43.002057,41.382695],[42.868008,41.500207],[42.829974,41.472508],[42.766516,41.504341],[42.806823,41.542995],[42.819949,41.572347],[42.800932,41.57922],[42.585235,41.578755],[42.535522,41.493489],[42.463072,41.431839],[42.158387,41.499897],[42.019585,41.485066],[41.947961,41.505581],[41.812982,41.421814],[41.706839,41.463155],[41.702601,41.489045],[41.63997,41.47871],[41.520763,41.514228],[41.615733,41.632636],[41.676036,41.662177],[41.773936,41.821601],[41.755707,42.006415],[41.664073,42.113959],[41.649181,42.212226],[41.596202,42.349433],[41.551195,42.406457]]]}}]}
