{"type":"FeatureCollection","features":[{"type":"Feature","properties":{"name":"Guernsey","ISO3166-1-Alpha-3":"GGY","ISO3166-1-Alpha-2":"GG"},"geometry":{"type":"MultiPolygon","coordinates":[[[[-2.58023,49.493598],[-2.501698,49.506659],[-2.541982,49.430894],[-2.673451,49.433498],[-2.650258,49.46369],[-2.58023,49.493598]]],[[[-2.363759,49.446845],[-2.3544,49.427802],[-2.378082,49.412746],[-2.363759,49.446845]]],[[[-2.174469,49.731391],[-2.187896,49.710639],[-2.226226,49.707831],[-2.174469,49.731391]]],[[[-2.453684,49.481879],[-2.445221,49.474595],[-2.454498,49.466132],[-2.453684,49.481879]]]]}}]}
