{"type":"FeatureCollection","features":[{"type":"Feature","properties":{"name":"Equatorial Guinea","ISO3166-1-Alpha-3":"GNQ","ISO3166-1-Alpha-2":"GQ"},"geometry":{"type":"MultiPolygon","coordinates":[[[[9.799571,2.341742],[9.823669,2.249011],[9.872141,2.211236],[9.990997,2.165605],[11.322078,2.16576],[11.336341,0.999165],[10.029444,1.003506],[9.980765,0.997201],[9.971773,0.93984],[9.944075,0.924854],[9.84961,0.989243],[9.804371,0.998354],[9.799083,1.058173],[9.847504,1.072455],[9.755138,1.105943],[9.703461,1.099799],[9.717784,1.133287],[9.6421,1.061591],[9.584321,1.042955],[9.551606,1.115424],[9.52475,1.133287],[9.396495,1.111477],[9.34669,1.181708],[9.448253,1.319078],[9.465343,1.414537],[9.532237,1.462307],[9.614757,1.588039],[9.65919,1.565334],[9.744477,1.600043],[9.665701,1.575588],[9.60727,1.644436],[9.71811,1.771796],[9.809744,1.934963],[9.764415,2.09634],[9.786388,2.248114],[9.766938,2.310492],[9.799571,2.341742]]],[[[5.626231,-1.456231],[5.633067,-1.415785],[5.646251,-1.438409],[5.628917,-1.475681],[5.61199,-1.463637],[5.626231,-1.456231]]],[[[8.922699,3.750718],[8.959158,3.700832],[8.951182,3.627427],[8.860688,3.511786],[8.81365,3.412177],[8.784923,3.395087],[8.774669,3.316555],[8.686209,3.197333],[8.599864,3.238023],[8.559581,3.230618],[8.450206,3.272935],[8.422048,3.339301],[8.442149,3.421332],[8.473888,3.46308],[8.5796,3.463324],[8.573253,3.511786],[8.621104,3.555854],[8.62794,3.648342],[8.667166,3.726264],[8.743419,3.772406],[8.737153,3.758205],[8.76824,3.751695],[8.922699,3.750718]]]]}}]}
