{"type":"FeatureCollection","features":[{"type":"Feature","properties":{"name":"Guam","ISO3166-1-Alpha-3":"GUM","ISO3166-1-Alpha-2":"GU"},"geometry":{"type":"Polygon","coordinates":[[[144.886404,13.640204],[144.952159,13.586859],[144.906993,13.516669],[144.783458,13.420478],[144.760102,13.285631],[144.735606,13.249172],[144.680675,13.246772],[144.626313,13.345364],[144.647472,13.396226],[144.624197,13.43122],[144.783458,13.516669],[144.838634,13.632758],[144.86671,13.653022],[144.886404,13.640204]]]}}]}
