{"type":"FeatureCollection","features":[{"type":"Feature","properties":{"name":"Guinea-Bissau","ISO3166-1-Alpha-3":"GNB","ISO3166-1-Alpha-2":"GW"},"geometry":{"type":"MultiPolygon","coordinates":[[[[-13.728279,12.673388],[-13.734635,12.585331],[-13.660712,12.458672],[-13.695025,12.292946],[-13.740836,12.256927],[-13.808558,12.256101],[-13.795691,12.278735],[-13.840003,12.277133],[-13.943925,12.218635],[-13.972527,12.151559],[-13.918396,12.137762],[-13.842406,12.091304],[-13.807757,12.044279],[-13.723938,12.002783],[-13.729932,11.709829],[-13.815767,11.686833],[-13.846282,11.737269],[-13.870053,11.743677],[-13.886409,11.675568],[-13.945423,11.675671],[-14.015135,11.63712],[-14.289692,11.66885],[-14.339223,11.61061],[-14.520944,11.51289],[-14.64538,11.515061],[-14.711061,11.497568],[-14.828212,11.334787],[-14.863145,11.218645],[-14.959056,11.035762],[-15.085194,10.927639],[-15.093984,10.942532],[-15.048329,10.994818],[-15.083079,10.967475],[-15.114003,10.975165],[-15.099355,11.057685],[-15.042104,11.138821],[-15.000559,11.142239],[-15.020985,11.166083],[-15.000885,11.216783],[-15.014801,11.227525],[-15.038726,11.182603],[-15.083079,11.166083],[-15.081858,11.140204],[-15.124623,11.131985],[-15.130849,11.103664],[-15.230133,10.994818],[-15.271108,11.039211],[-15.214508,11.081448],[-15.206614,11.233791],[-15.234975,11.215562],[-15.23351,11.122545],[-15.358225,11.144232],[-15.409535,11.189602],[-15.410064,11.279202],[-15.426137,11.286526],[-15.38858,11.36994],[-15.329701,11.368476],[-15.268056,11.43301],[-15.343129,11.378363],[-15.361684,11.399115],[-15.331044,11.462633],[-15.353383,11.463324],[-15.384185,11.404731],[-15.42634,11.385199],[-15.449452,11.347073],[-15.494293,11.333889],[-15.507069,11.357896],[-15.453033,11.460354],[-15.476715,11.467963],[-15.4735,11.494452],[-15.43871,11.501899],[-15.432485,11.48078],[-15.420644,11.505276],[-15.397817,11.494452],[-15.412017,11.529242],[-15.35436,11.525051],[-15.349965,11.563381],[-15.30956,11.55386],[-15.30899,11.536038],[-15.289866,11.542792],[-15.316477,11.583808],[-15.336293,11.576972],[-15.294749,11.604926],[-15.27477,11.578111],[-15.240102,11.576972],[-15.281117,11.624823],[-15.226471,11.618598],[-15.233876,11.591254],[-15.209137,11.573961],[-15.192291,11.591254],[-15.212758,11.621731],[-15.194447,11.642808],[-15.148427,11.628811],[-15.143951,11.59809],[-15.115875,11.617743],[-15.089915,11.591254],[-15.143951,11.583808],[-15.12328,11.545478],[-15.105092,11.572903],[-15.023752,11.582668],[-15.007314,11.611762],[-15.079945,11.597968],[-15.062001,11.645901],[-15.082387,11.643256],[-15.089915,11.618598],[-15.124623,11.638495],[-15.102895,11.666409],[-15.110341,11.686835],[-15.130849,11.652737],[-15.171864,11.659573],[-15.130849,11.707953],[-15.171864,11.701117],[-15.18932,11.665473],[-15.212758,11.68008],[-15.228017,11.658596],[-15.231353,11.681301],[-15.206614,11.693671],[-15.212758,11.727851],[-15.186147,11.721625],[-15.226471,11.755113],[-15.259348,11.676825],[-15.274159,11.676581],[-15.268056,11.748358],[-15.288564,11.711086],[-15.322621,11.707953],[-15.281117,11.669827],[-15.293935,11.653144],[-15.30899,11.666409],[-15.322621,11.63227],[-15.336415,11.684394],[-15.349965,11.68008],[-15.343129,11.604926],[-15.391591,11.659573],[-15.371083,11.591254],[-15.40453,11.584459],[-15.418853,11.611762],[-15.43871,11.557115],[-15.468861,11.60578],[-15.42634,11.693671],[-15.476145,11.654364],[-15.493967,11.666409],[-15.487782,11.707953],[-15.538075,11.676215],[-15.551381,11.73314],[-15.43871,11.885443],[-15.418853,11.871243],[-15.397817,11.885443],[-15.189198,11.871243],[-15.089915,11.940131],[-15.062856,11.924994],[-15.087148,11.870347],[-15.069447,11.803616],[-15.002553,11.783515],[-14.982411,11.754136],[-14.935902,11.752997],[-14.925404,11.769436],[-14.951405,11.760647],[-14.996816,11.81037],[-15.046702,11.823472],[-15.070221,11.860745],[-15.023061,11.951077],[-14.993764,11.957221],[-15.007232,11.978339],[-15.093861,11.98371],[-15.215077,11.909613],[-15.313059,11.932807],[-15.35851,11.963202],[-15.42634,11.961168],[-15.497385,11.936998],[-15.593251,11.84455],[-15.830393,11.748358],[-15.791493,11.863227],[-15.734202,11.85814],[-15.795562,11.885443],[-15.850168,11.775336],[-15.880035,11.774359],[-15.877553,11.824042],[-15.894276,11.81623],[-15.905507,11.761949],[-15.958974,11.734809],[-15.969553,11.768256],[-15.931996,11.879584],[-15.865346,11.972235],[-15.781972,12.002834],[-15.767568,11.978746],[-15.72053,11.967434],[-15.713694,12.015815],[-15.761464,11.995307],[-15.781972,12.015815],[-15.863881,12.029486],[-15.889556,12.00259],[-15.932769,11.995307],[-15.932769,11.97484],[-15.946401,11.983629],[-15.944732,11.95307],[-15.967885,11.926988],[-16.055653,11.920233],[-16.124582,11.885443],[-16.158762,11.913398],[-16.243031,11.925442],[-16.27538,11.981106],[-16.323232,11.995307],[-16.355133,12.087348],[-16.319569,12.171698],[-16.282826,12.193996],[-16.277455,12.173285],[-16.261138,12.180325],[-16.257395,12.23017],[-16.06314,12.35102],[-16.22761,12.282701],[-16.305816,12.214423],[-16.324574,12.222154],[-16.316396,12.282701],[-16.350209,12.197211],[-16.405751,12.207668],[-16.457631,12.171942],[-16.50064,12.196601],[-16.567006,12.27733],[-16.603749,12.276516],[-16.672678,12.337958],[-16.728437,12.332531],[-16.668874,12.356715],[-16.412301,12.361727],[-16.22239,12.455055],[-16.181876,12.443376],[-16.090512,12.464305],[-15.973258,12.437226],[-15.677049,12.439294],[-15.195114,12.679434],[-13.728279,12.673388]]],[[[-15.946401,11.200263],[-15.911692,11.166327],[-15.877553,11.073635],[-15.894643,11.054348],[-15.978179,11.048082],[-15.977895,11.069037],[-15.925933,11.090399],[-15.966949,11.097846],[-15.946401,11.200263]]],[[[-15.973785,11.159247],[-15.974477,11.116197],[-16.017079,11.068671],[-16.022125,11.138821],[-16.044993,11.138739],[-16.056996,11.16356],[-16.034535,11.190497],[-15.981191,11.207099],[-15.973785,11.159247]]],[[[-16.048899,11.118313],[-16.06314,11.118313],[-16.055653,11.049465],[-16.131988,11.028957],[-16.131988,11.063666],[-16.145009,11.028957],[-16.188466,11.039618],[-16.248036,11.104682],[-16.20165,11.135647],[-16.186676,11.131985],[-16.206532,11.125149],[-16.199696,11.110826],[-16.179433,11.124661],[-16.161855,11.166205],[-16.138295,11.186591],[-16.117747,11.172919],[-16.099965,11.208197],[-16.05663,11.185207],[-16.067698,11.147895],[-16.048899,11.118313]]],[[[-15.857086,11.30268],[-15.825836,11.29267],[-15.837554,11.214016],[-15.871327,11.200263],[-15.896067,11.218207],[-15.896474,11.248725],[-15.857086,11.30268]]],[[[-15.658437,11.30268],[-15.658437,11.233791],[-15.693186,11.25552],[-15.698638,11.220852],[-15.726796,11.220771],[-15.726796,11.166083],[-15.773305,11.173082],[-15.781972,11.200263],[-15.759511,11.221869],[-15.775136,11.233791],[-15.754018,11.275946],[-15.699534,11.305813],[-15.658437,11.30268]]],[[[-16.172963,11.220771],[-16.251454,11.217678],[-16.281646,11.242621],[-16.248687,11.29442],[-16.206532,11.310126],[-16.154408,11.289211],[-16.172963,11.220771]]],[[[-15.665273,11.494452],[-15.652659,11.466051],[-15.679555,11.440416],[-15.735097,11.449856],[-15.735463,11.469428],[-15.713694,11.46776],[-15.693186,11.501899],[-15.665273,11.508734],[-15.665273,11.494452]]],[[[-16.254872,11.447252],[-16.302113,11.453518],[-16.236684,11.508002],[-16.165517,11.51557],[-16.213979,11.440416],[-16.254872,11.447252]]],[[[-16.275543,11.49551],[-16.313832,11.480536],[-16.336822,11.501899],[-16.419423,11.488227],[-16.411977,11.522406],[-16.426259,11.529242],[-16.248036,11.583808],[-16.244537,11.552151],[-16.275543,11.49551]]],[[[-16.022125,11.512152],[-16.001332,11.569037],[-15.939605,11.604926],[-15.930898,11.578681],[-15.918446,11.591254],[-15.906077,11.578437],[-15.913442,11.498358],[-15.89802,11.453518],[-15.965688,11.426703],[-15.973785,11.447252],[-15.987416,11.43301],[-16.001088,11.447252],[-16.035227,11.419989],[-16.083608,11.46776],[-16.022125,11.512152]]],[[[-15.4735,11.63227],[-15.487782,11.594672],[-15.471669,11.566148],[-15.521311,11.570217],[-15.569692,11.549709],[-15.548411,11.535142],[-15.566314,11.510484],[-15.630279,11.528998],[-15.528717,11.624823],[-15.4735,11.63227]]],[[[-16.165517,11.871243],[-16.079945,11.873236],[-16.036977,11.899237],[-15.985585,11.887437],[-16.041412,11.755113],[-16.083608,11.755113],[-16.121165,11.799791],[-16.154775,11.807766],[-16.165517,11.871243]]]]}}]}
