{"type":"FeatureCollection","features":[{"type":"Feature","properties":{"name":"Honduras","ISO3166-1-Alpha-3":"HND","ISO3166-1-Alpha-2":"HN"},"geometry":{"type":"MultiPolygon","coordinates":[[[[-89.361621,14.415478],[-89.355497,14.475448],[-89.323044,14.487463],[-89.245685,14.572988],[-89.160393,14.581282],[-89.144502,14.708302],[-89.23243,14.8485],[-89.169152,14.95206],[-89.188582,14.996088],[-89.160806,15.060245],[-88.973427,15.140395],[-88.398992,15.572797],[-88.316672,15.6746],[-88.241586,15.688242],[-88.220937,15.725653],[-88.145253,15.684516],[-88.118886,15.695868],[-88.036285,15.770941],[-88.041615,15.786689],[-87.992258,15.784613],[-87.933909,15.818793],[-87.92455,15.84219],[-87.950999,15.867174],[-87.760081,15.899563],[-87.722157,15.922919],[-87.626047,15.887681],[-87.636301,15.90351],[-87.591298,15.935492],[-87.617299,15.894599],[-87.4794,15.786038],[-87.345082,15.850328],[-87.151723,15.796861],[-86.91686,15.760403],[-86.799631,15.784613],[-86.77066,15.806545],[-86.699086,15.788642],[-86.47057,15.804185],[-86.374745,15.770941],[-86.172597,15.887519],[-85.994862,15.900702],[-85.933258,15.936672],[-85.903188,15.983466],[-85.919179,16.00373],[-86.012766,16.019965],[-86.007924,16.031073],[-85.703196,15.976467],[-85.687001,15.935492],[-85.656221,15.948768],[-85.608464,15.907072],[-85.488578,15.869567],[-85.25425,15.884085],[-85.07578,15.986247],[-84.999949,15.987942],[-84.676552,15.876203],[-84.662277,15.865637],[-84.68108,15.794267],[-84.660054,15.774494],[-84.615713,15.779518],[-84.609409,15.808983],[-84.575485,15.783895],[-84.477437,15.778756],[-84.452811,15.795648],[-84.577975,15.82258],[-84.64183,15.862907],[-84.294638,15.81101],[-83.894171,15.485181],[-83.72997,15.401557],[-83.750803,15.386786],[-83.862782,15.448879],[-83.906361,15.451972],[-83.945953,15.517768],[-84.004018,15.537584],[-84.055247,15.510932],[-84.089345,15.524604],[-84.068837,15.548163],[-84.103627,15.551215],[-84.075754,15.490424],[-84.089345,15.482978],[-84.13036,15.551215],[-84.21288,15.551215],[-84.180409,15.514472],[-84.185536,15.482978],[-84.146555,15.535102],[-84.127797,15.53262],[-84.092152,15.450914],[-84.124176,15.430243],[-84.099517,15.37759],[-84.03539,15.341864],[-84.03539,15.380561],[-84.010081,15.356757],[-83.999908,15.308824],[-83.931752,15.311672],[-83.958974,15.298041],[-83.938385,15.259223],[-83.90099,15.243394],[-83.821889,15.270697],[-83.891672,15.323391],[-84.0006,15.360093],[-84.026519,15.408677],[-83.994374,15.421536],[-83.814076,15.321682],[-83.795155,15.298041],[-83.815663,15.278144],[-83.774526,15.285712],[-83.759836,15.202094],[-83.747385,15.222886],[-83.731028,15.203437],[-83.690256,15.245917],[-83.633778,15.256415],[-83.623362,15.296088],[-83.527659,15.284369],[-83.532867,15.211249],[-83.592519,15.237209],[-83.621449,15.176174],[-83.595937,15.209296],[-83.574452,15.160468],[-83.481801,15.215562],[-83.529612,15.301011],[-83.610219,15.304877],[-83.610219,15.325344],[-83.725331,15.375881],[-83.702992,15.402004],[-83.40803,15.266425],[-83.356313,15.229722],[-83.284291,15.068345],[-83.130444,14.997012],[-83.266153,14.982497],[-83.285661,14.992109],[-83.272974,15.003039],[-83.349352,14.996812],[-83.390306,15.03097],[-83.415472,14.996941],[-83.45919,14.982497],[-83.509084,15.01154],[-83.526861,14.948365],[-83.54735,14.955212],[-83.540477,14.94157],[-83.604272,14.909194],[-83.615615,14.872685],[-83.691967,14.886974],[-83.714498,14.867233],[-83.705015,14.838527],[-83.746563,14.852195],[-83.765296,14.828786],[-83.821055,14.825479],[-83.801211,14.803775],[-83.869475,14.777109],[-83.924718,14.803775],[-83.924718,14.763441],[-84.040757,14.76034],[-84.11176,14.793413],[-84.122716,14.784525],[-84.095431,14.736104],[-84.168191,14.714969],[-84.261803,14.758532],[-84.267281,14.677736],[-84.338387,14.674687],[-84.362934,14.715615],[-84.408435,14.649417],[-84.482694,14.619471],[-84.534215,14.633733],[-84.52742,14.660398],[-84.680847,14.685461],[-84.699321,14.674687],[-84.792132,14.82106],[-84.904219,14.816978],[-85.015659,14.728172],[-85.033048,14.669571],[-85.053925,14.66306],[-85.020206,14.633733],[-85.048163,14.605776],[-85.022222,14.605802],[-85.029637,14.588956],[-85.086378,14.54454],[-85.119322,14.573969],[-85.14547,14.564254],[-85.151826,14.485964],[-85.205828,14.407158],[-85.159035,14.361063],[-85.169629,14.321763],[-85.321351,14.281326],[-85.384008,14.226445],[-85.431732,14.132834],[-85.510641,14.093792],[-85.527953,14.050901],[-85.593608,14.03346],[-85.651486,13.98199],[-85.727347,13.965014],[-85.747449,13.888275],[-85.723006,13.863418],[-85.742462,13.823705],[-85.824162,13.847683],[-85.861602,13.904424],[-85.929401,13.912098],[-86.028413,13.996072],[-86.020197,14.055164],[-86.121689,14.027207],[-86.284108,13.845719],[-86.340126,13.756655],[-86.410096,13.749033],[-86.448233,13.772959],[-86.490814,13.759497],[-86.541664,13.782131],[-86.727234,13.768256],[-86.766198,13.74526],[-86.774053,13.654594],[-86.751573,13.624415],[-86.756586,13.55938],[-86.724288,13.439413],[-86.740205,13.381923],[-86.709922,13.348902],[-86.704031,13.298828],[-86.7493,13.261285],[-86.8495,13.288828],[-86.910789,13.239581],[-86.934921,13.185527],[-86.922932,13.086386],[-87.035045,12.979777],[-87.084654,12.995926],[-87.314036,12.981553],[-87.269154,13.029446],[-87.31668,13.034206],[-87.352813,13.072537],[-87.351064,13.088406],[-87.303944,13.098334],[-87.419342,13.111355],[-87.43578,13.189399],[-87.512237,13.286689],[-87.440419,13.359036],[-87.379018,13.372016],[-87.400624,13.41116],[-87.447296,13.420478],[-87.482045,13.359036],[-87.547597,13.355007],[-87.557159,13.365871],[-87.542836,13.372016],[-87.581329,13.38288],[-87.61856,13.372016],[-87.60558,13.406806],[-87.624013,13.466254],[-87.660146,13.440945],[-87.65099,13.412543],[-87.692779,13.366482],[-87.738881,13.362372],[-87.817169,13.406562],[-87.721153,13.460833],[-87.733426,13.507704],[-87.779469,13.509978],[-87.789934,13.532819],[-87.755026,13.689915],[-87.703608,13.814998],[-87.790606,13.870472],[-87.817891,13.91587],[-87.860911,13.890187],[-87.925326,13.879619],[-87.954782,13.892461],[-88.015321,13.866364],[-88.099036,13.989819],[-88.235075,13.992868],[-88.236367,13.938143],[-88.285433,13.905974],[-88.355067,13.890962],[-88.360106,13.872384],[-88.392946,13.879774],[-88.496816,13.851197],[-88.504361,13.983695],[-88.633862,14.014469],[-88.690938,14.009999],[-88.704865,14.038033],[-88.746645,14.052477],[-88.746387,14.111336],[-88.838759,14.100407],[-88.881263,14.1842],[-88.906016,14.199574],[-88.965986,14.191383],[-89.032985,14.323675],[-89.09448,14.344862],[-89.107476,14.39597],[-89.153985,14.351296],[-89.361621,14.415478]]],[[[-87.615142,13.290107],[-87.624338,13.252916],[-87.667063,13.256008],[-87.673818,13.283881],[-87.615142,13.290107]]],[[[-87.622304,13.368883],[-87.57079,13.372016],[-87.588124,13.357978],[-87.576283,13.318549],[-87.591298,13.304389],[-87.659006,13.331692],[-87.643463,13.367743],[-87.622304,13.368883]]],[[[-86.878733,16.127265],[-86.878733,16.093166],[-86.963721,16.066388],[-86.997405,16.083959],[-86.944251,16.116508],[-86.878733,16.127265]]],[[[-86.606542,16.285029],[-86.570447,16.33244],[-86.44039,16.396545],[-86.332125,16.429448],[-86.181751,16.428225],[-86.312123,16.412502],[-86.548153,16.312853],[-86.600504,16.269449],[-86.606542,16.285029]]],[[[-85.911473,16.462043],[-85.851131,16.517218],[-85.81695,16.498309],[-85.947068,16.40319],[-85.911473,16.462043]]],[[[-83.941151,17.418647],[-83.926137,17.416327],[-83.921946,17.409084],[-83.941151,17.418647]]]]}}]}
