{"type":"FeatureCollection","features":[{"type":"Feature","properties":{"name":"Hungary","ISO3166-1-Alpha-3":"HUN","ISO3166-1-Alpha-2":"HU"},"geometry":{"type":"Polygon","coordinates":[[[22.877601,47.946739],[22.836053,47.902452],[22.763602,47.874753],[22.75182,47.827676],[22.637719,47.771555],[22.562994,47.757215],[22.454371,47.787394],[22.423675,47.782563],[22.395873,47.735692],[22.27309,47.723755],[22.207874,47.673732],[22.162089,47.586244],[22.007886,47.517411],[21.988869,47.492942],[22.001582,47.393827],[21.862159,47.297424],[21.819887,47.172729],[21.763767,47.105214],[21.632819,47.022686],[21.671369,46.99336],[21.648528,46.942976],[21.589927,46.908869],[21.583416,46.847943],[21.502904,46.80531],[21.470451,46.743014],[21.505178,46.723247],[21.501767,46.703507],[21.436241,46.673741],[21.396037,46.626354],[21.300953,46.603926],[21.291341,46.546721],[21.245142,46.47688],[21.280695,46.416393],[21.195636,46.398099],[21.144476,46.283739],[21.099208,46.27635],[21.051459,46.236094],[20.819638,46.271699],[20.739333,46.237489],[20.744707,46.192272],[20.710291,46.188086],[20.698819,46.15646],[20.663989,46.137753],[20.600117,46.12964],[20.468549,46.174134],[20.444157,46.1469],[20.283237,46.1438],[20.242826,46.108091],[20.188462,46.140389],[20.098442,46.154962],[20.034983,46.142973],[19.92915,46.16354],[19.79045,46.129072],[19.669321,46.1731],[19.549948,46.16416],[19.487523,46.134239],[19.499305,46.108608],[19.453727,46.07755],[19.378899,46.033677],[19.306966,46.026649],[19.263454,45.981432],[19.148009,45.984068],[19.088478,46.018846],[19.049721,45.993111],[19.048584,45.963449],[18.981818,45.950788],[18.981818,45.921849],[18.886526,45.930428],[18.828339,45.905726],[18.804878,45.913633],[18.775525,45.882834],[18.655636,45.907587],[18.57347,45.816688],[18.530269,45.79085],[18.481797,45.791418],[18.404385,45.741809],[18.367178,45.75819],[18.317672,45.747286],[18.211219,45.785372],[18.080477,45.771729],[17.889791,45.792141],[17.858062,45.771729],[17.809176,45.814414],[17.656524,45.84542],[17.645775,45.891825],[17.591102,45.936215],[17.345328,45.955697],[17.337887,45.984636],[17.327138,45.972027],[17.290138,45.984636],[17.316803,45.997659],[17.275875,46.012025],[17.24859,46.080238],[17.208593,46.116566],[17.101209,46.128193],[16.974808,46.210565],[16.889232,46.292163],[16.875073,46.342857],[16.837659,46.381873],[16.769343,46.39611],[16.75508,46.381873],[16.659272,46.464193],[16.594263,46.482978],[16.577623,46.470653],[16.515302,46.501711],[16.500832,46.544809],[16.368437,46.642994],[16.410502,46.668367],[16.314177,46.743324],[16.298157,46.775802],[16.325339,46.839442],[16.272009,46.863962],[16.094035,46.862774],[16.22395,46.941064],[16.274903,47.004315],[16.486363,46.998554],[16.424661,47.024082],[16.493184,47.049145],[16.454323,47.081701],[16.509514,47.137537],[16.433653,47.145754],[16.441818,47.177121],[16.412776,47.187173],[16.421354,47.243138],[16.473237,47.276805],[16.424351,47.345199],[16.433963,47.39685],[16.456597,47.411836],[16.481919,47.392302],[16.640875,47.452919],[16.636845,47.4932],[16.677359,47.509866],[16.689141,47.53803],[16.65059,47.566555],[16.63023,47.622004],[16.407815,47.66133],[16.43913,47.690475],[16.512924,47.706004],[16.531115,47.742978],[16.567805,47.754192],[16.689865,47.729568],[16.730379,47.685902],[16.797455,47.675463],[16.850165,47.712929],[16.864738,47.686729],[16.902668,47.682026],[17.075371,47.708484],[17.050566,47.730989],[17.040644,47.801114],[17.05563,47.812354],[17.004057,47.863281],[17.067619,47.881626],[17.095731,47.95573],[17.085603,47.970148],[17.184821,48.020274],[17.337887,47.998725],[17.572601,47.829536],[17.604227,47.834239],[17.676678,47.789177],[17.825713,47.750006],[18.23592,47.753882],[18.552593,47.792846],[18.692843,47.777963],[18.816453,47.83256],[18.748757,47.870723],[18.743176,47.971052],[18.794232,47.993144],[18.838467,48.040015],[18.996494,48.066214],[19.222526,48.060582],[19.29322,48.087764],[19.428199,48.085852],[19.481735,48.111328],[19.513982,48.203958],[19.623226,48.227006],[19.686994,48.196904],[19.756551,48.200315],[19.776084,48.149517],[19.821663,48.157914],[19.928633,48.130087],[20.105263,48.202795],[20.134512,48.246669],[20.22908,48.270905],[20.272385,48.252456],[20.324268,48.279948],[20.420593,48.429241],[20.481674,48.478747],[20.481674,48.526083],[20.800311,48.569233],[20.945832,48.518978],[21.109336,48.489109],[21.219924,48.518719],[21.261782,48.50319],[21.32183,48.54758],[21.424563,48.561275],[21.49939,48.535075],[21.521818,48.50009],[21.591684,48.49301],[21.613388,48.440352],[21.67757,48.372346],[21.759012,48.333769],[21.929338,48.372914],[22.077856,48.375808],[22.201983,48.418157],[22.271849,48.403455],[22.25676,48.357282],[22.298721,48.349143],[22.308126,48.293694],[22.357116,48.243103],[22.481449,48.242586],[22.55576,48.177164],[22.605472,48.097039],[22.745722,48.116289],[22.801429,48.090968],[22.85476,48.047301],[22.861581,48.028387],[22.832435,47.978933],[22.877601,47.946739]]]}}]}
