{"type":"FeatureCollection","features":[{"type":"Feature","properties":{"name":"Israel","ISO3166-1-Alpha-3":"ISR","ISO3166-1-Alpha-2":"IL"},"geometry":{"type":"Polygon","coordinates":[[[34.248351,31.211449],[34.350905,31.289254],[34.345841,31.357725],[34.367339,31.392814],[34.556032,31.539825],[34.481204,31.583141],[34.60963,31.76553],[34.711925,31.951606],[34.837657,32.280707],[34.942068,32.724514],[34.94752,32.814154],[34.97047,32.841376],[35.02768,32.826606],[35.062755,32.858344],[35.09962,33.087592],[35.283665,33.101185],[35.34516,33.05558],[35.480139,33.087387],[35.549489,33.281019],[35.603852,33.240091],[35.698523,33.32267],[35.769423,33.342643],[35.8211,33.406722],[35.809938,33.360032],[35.763842,33.334401],[35.802083,33.31249],[35.768597,33.272699],[35.803633,33.248463],[35.807664,33.201721],[35.830195,33.189991],[35.811488,33.111908],[35.848902,33.098678],[35.85903,32.99021],[35.888073,32.944941],[35.849729,32.895823],[35.834226,32.827946],[35.75759,32.744347],[35.635995,32.679143],[35.611758,32.6819],[35.560547,32.640903],[35.579978,32.560391],[35.551969,32.525587],[35.579978,32.497733],[35.545148,32.409573],[35.560961,32.384717],[35.406862,32.414793],[35.392909,32.494478],[35.363143,32.51011],[35.270436,32.510471],[35.190751,32.54171],[35.044713,32.43412],[35.021562,32.34459],[34.996551,32.323041],[34.989936,32.27847],[35.009366,32.267644],[35.007609,32.24439],[34.961411,32.201576],[35.007245,32.020772],[34.986695,31.967228],[35.039006,31.908637],[35.034323,31.861114],[34.977433,31.833366],[35.07632,31.854158],[35.112472,31.823963],[35.186167,31.80874],[35.183587,31.825116],[35.215764,31.82011],[35.205255,31.877254],[35.222023,31.879178],[35.233353,31.842611],[35.264935,31.826272],[35.262811,31.748625],[35.23797,31.709332],[35.125742,31.733103],[34.973606,31.63037],[34.93733,31.582001],[34.926788,31.494409],[34.867153,31.396431],[34.878832,31.362841],[34.927408,31.34491],[35.164913,31.362273],[35.390118,31.487071],[35.458538,31.491619],[35.452854,31.400823],[35.3957,31.25768],[35.436214,31.159546],[35.438488,31.103736],[35.391565,31.023947],[35.385261,30.963279],[35.322216,30.88995],[35.316635,30.822823],[35.279531,30.780241],[35.205324,30.617099],[35.140005,30.430185],[35.162122,30.361404],[35.125225,30.244667],[35.145276,30.123382],[35.086261,30.034034],[34.989833,29.651964],[34.951345,29.54564],[34.910818,29.489936],[34.886729,29.490058],[34.855267,29.545717],[34.824365,29.7417],[34.741373,29.940241],[34.733208,30.012588],[34.599469,30.344506],[34.526915,30.409618],[34.536217,30.482172],[34.504384,30.530334],[34.480407,30.651205],[34.248351,31.211449]]]}}]}
