{"type":"FeatureCollection","features":[{"type":"Feature","properties":{"name":"Isle of Man","ISO3166-1-Alpha-3":"IMN","ISO3166-1-Alpha-2":"IM"},"geometry":{"type":"Polygon","coordinates":[[[-4.612131,54.056952],[-4.704498,54.084866],[-4.766225,54.059231],[-4.790151,54.071234],[-4.737172,54.124905],[-4.710276,54.220649],[-4.598378,54.276597],[-4.530995,54.366116],[-4.442006,54.404364],[-4.351308,54.413804],[-4.3756,54.348334],[-4.31192,54.287177],[-4.399159,54.222073],[-4.390777,54.194729],[-4.590932,54.091051],[-4.612131,54.056952]]]}}]}
