{"type":"FeatureCollection","features":[{"type":"Feature","properties":{"name":"British Indian Ocean Territory","ISO3166-1-Alpha-3":"IOT","ISO3166-1-Alpha-2":"IO"},"geometry":{"type":"MultiPolygon","coordinates":[[[[72.46754,-7.383884],[72.480317,-7.364679],[72.480642,-7.390558],[72.432872,-7.432224],[72.426036,-7.322931],[72.357677,-7.268324],[72.432872,-7.316095],[72.432872,-7.425388],[72.46754,-7.383884]]],[[[72.484223,-7.278253],[72.479015,-7.361912],[72.468028,-7.34059],[72.486501,-7.302423],[72.439708,-7.226739],[72.484223,-7.278253]]],[[[71.350352,-6.65252],[71.362071,-6.652927],[71.351736,-6.655694],[71.350352,-6.65252]]],[[[71.261404,-6.388604],[71.26238,-6.373956],[71.268809,-6.378106],[71.261404,-6.388604]]],[[[71.33839,-6.195896],[71.347016,-6.182224],[71.3567,-6.188735],[71.33839,-6.195896]]],[[[71.773204,-5.440199],[71.76238,-5.431736],[71.774587,-5.435724],[71.773204,-5.440199]]],[[[72.221446,-5.327813],[72.230968,-5.319268],[72.225352,-5.327244],[72.221446,-5.327813]]],[[[71.737071,-5.285252],[71.747081,-5.269952],[71.742361,-5.283136],[71.737071,-5.285252]]],[[[71.760265,-5.236586],[71.768565,-5.234145],[71.764496,-5.239679],[71.760265,-5.236586]]],[[[71.966156,-5.234796],[71.962738,-5.231215],[71.966482,-5.227472],[71.966156,-5.234796]]]]}}]}
