{"type":"FeatureCollection","features":[{"type":"Feature","properties":{"name":"Iraq","ISO3166-1-Alpha-3":"IRQ","ISO3166-1-Alpha-2":"IQ"},"geometry":{"type":"Polygon","coordinates":[[[44.766135,37.14192],[44.752544,37.113136],[44.766549,37.078952],[44.801895,37.043528],[44.840601,37.047197],[44.887368,37.015933],[44.869178,36.967357],[44.883441,36.886845],[44.834141,36.834032],[44.831248,36.791916],[44.996199,36.741686],[45.045911,36.668047],[44.991393,36.53374],[45.03816,36.494001],[45.083739,36.412817],[45.221301,36.42093],[45.238871,36.402999],[45.25701,36.311687],[45.282693,36.274893],[45.258508,36.262232],[45.297369,36.22673],[45.304604,36.140379],[45.348322,36.087514],[45.320313,35.994031],[45.359587,35.976875],[45.47927,36.012015],[45.53999,35.99398],[45.646857,35.933208],[45.718739,35.828305],[45.749021,35.810994],[45.834752,35.810528],[45.878315,35.83523],[46.004923,35.837969],[46.060423,35.857244],[46.115045,35.846444],[46.163518,35.797506],[46.281392,35.828305],[46.327074,35.8035],[46.313379,35.771513],[46.23788,35.715547],[46.003786,35.674258],[45.999238,35.572145],[45.959344,35.578708],[45.984562,35.531062],[45.963995,35.494165],[46.040993,35.381562],[46.120161,35.318517],[46.127396,35.289062],[46.101454,35.234285],[46.169254,35.216249],[46.130393,35.131397],[46.151064,35.111605],[46.009212,35.06091],[45.913197,35.087317],[45.899089,35.046906],[45.857025,35.021274],[45.868962,34.968358],[45.850203,34.906811],[45.835011,34.890171],[45.755119,34.909963],[45.745404,34.840975],[45.666752,34.80692],[45.662825,34.763254],[45.627375,34.720828],[45.687629,34.653235],[45.70153,34.551277],[45.500664,34.591688],[45.503455,34.494175],[45.417052,34.444359],[45.46077,34.340463],[45.521541,34.342504],[45.55756,34.311964],[45.561022,34.264602],[45.526657,34.17931],[45.544537,34.139494],[45.454879,34.06986],[45.419946,33.994257],[45.380361,33.97356],[45.423718,33.938782],[45.485781,33.938653],[45.616729,33.768689],[45.645151,33.697918],[45.721116,33.640764],[45.734552,33.583119],[45.815787,33.625804],[45.885964,33.63092],[45.882036,33.600198],[45.927925,33.550873],[45.852581,33.494365],[45.899399,33.476304],[45.974434,33.490799],[46.019392,33.438399],[46.036239,33.367939],[46.155301,33.260219],[46.167187,33.168338],[46.105382,33.118393],[46.030296,33.105681],[46.043267,33.08346],[46.12042,33.061678],[46.119489,33.031008],[46.075719,32.994499],[46.09701,32.95432],[46.273433,32.959488],[46.479312,32.891792],[46.715887,32.756012],[47.090593,32.474556],[47.152553,32.455178],[47.265311,32.484685],[47.343342,32.458692],[47.410832,32.395285],[47.40246,32.323506],[47.509224,32.213797],[47.491344,32.148633],[47.578057,32.106155],[47.617796,32.04187],[47.668077,32.012414],[47.76528,31.864103],[47.834475,31.805708],[47.831323,31.761835],[47.678929,31.407851],[47.672935,30.994698],[48.012242,30.989066],[48.013586,30.463878],[48.130581,30.447497],[48.170475,30.406672],[48.200086,30.323938],[48.305713,30.312828],[48.408704,30.202344],[48.381108,30.145345],[48.453145,30.001426],[48.559255,29.946601],[48.520518,29.9289],[48.411876,29.938422],[48.119151,30.044989],[48.038259,30.036851],[47.969005,30.004055],[47.934825,30.107082],[47.948009,29.994045],[47.674175,30.098216],[47.358225,30.092118],[47.197098,30.03424],[47.110488,29.960911],[46.97737,29.657984],[46.85345,29.44456],[46.711856,29.271393],[46.532436,29.095745],[46.357459,29.063137],[44.691825,29.201836],[42.858707,30.494677],[42.075395,31.079861],[40.424126,31.920533],[40.029008,31.994482],[39.146375,32.118144],[39.291999,32.244519],[39.256342,32.342678],[39.235775,32.352858],[39.046329,32.308494],[39.028759,32.328338],[38.97822,32.47497],[39.057181,32.496596],[38.774511,33.371685],[40.690467,34.331497],[40.965282,34.401855],[41.204234,34.793123],[41.20134,35.243018],[41.243095,35.366525],[41.261078,35.494165],[41.34221,35.593694],[41.363501,35.655241],[41.354509,35.825566],[41.236687,36.060332],[41.276994,36.354785],[41.385411,36.516377],[41.789935,36.589292],[41.843781,36.617869],[42.377186,37.062235],[42.357238,37.109984],[42.561257,37.146623],[42.715666,37.355292],[42.792457,37.374335],[42.814058,37.346817],[42.937048,37.320152],[43.114815,37.371131],[43.270309,37.30868],[43.336145,37.32023],[43.479599,37.243361],[43.529518,37.253903],[43.594217,37.22946],[43.746921,37.230648],[43.809398,37.199694],[43.89363,37.224912],[43.990369,37.312504],[44.088037,37.31116],[44.184465,37.279173],[44.235005,37.236772],[44.248337,37.16967],[44.18922,37.129208],[44.180021,37.087608],[44.234281,36.983661],[44.284821,36.969166],[44.306628,36.977227],[44.343112,37.042443],[44.454423,37.076343],[44.610279,37.178352],[44.733786,37.167242],[44.766135,37.14192]]]}}]}
