{"type":"FeatureCollection","features":[{"type":"Feature","properties":{"name":"Iran","ISO3166-1-Alpha-3":"IRN","ISO3166-1-Alpha-2":"IR"},"geometry":{"type":"MultiPolygon","coordinates":[[[[44.806993,39.639902],[44.872279,39.625076],[44.928399,39.488237],[44.961627,39.453769],[44.957028,39.434493],[45.006379,39.417957],[45.087976,39.350726],[45.135828,39.278482],[45.152727,39.213525],[45.311115,39.200528],[45.311115,39.176292],[45.348219,39.163916],[45.345273,39.138439],[45.396381,39.073327],[45.434518,39.052785],[45.438601,39.004235],[45.530843,38.969276],[45.716878,38.954781],[46.126052,38.862668],[46.378233,38.924705],[46.514039,38.882176],[46.553726,38.889824],[46.599202,38.919693],[46.65217,38.992944],[46.744826,39.040254],[46.866162,39.165362],[46.953754,39.16066],[47.020468,39.18996],[47.10222,39.308403],[47.291356,39.379613],[47.406904,39.476816],[47.54116,39.51516],[47.823106,39.680318],[47.922945,39.684142],[47.971418,39.704554],[48.288608,39.445035],[48.33894,39.378941],[48.153525,39.319048],[48.10619,39.26918],[48.104329,39.234841],[48.142157,39.181201],[48.271296,39.108312],[48.306798,39.045396],[48.293672,39.004597],[48.243184,38.973875],[48.058544,38.948373],[47.990745,38.891219],[47.993122,38.850085],[48.077974,38.780941],[48.222979,38.721462],[48.228043,38.662189],[48.310312,38.600151],[48.415267,38.618109],[48.433715,38.569972],[48.607865,38.395978],[48.683209,38.398019],[48.777725,38.444812],[48.874278,38.434068],[48.874848,38.242743],[48.949067,37.966864],[48.944509,37.903388],[48.987478,37.842475],[49.014496,37.739163],[49.132498,37.623358],[49.441742,37.494859],[49.826182,37.453559],[49.933767,37.474433],[49.969493,37.459703],[49.935313,37.453559],[50.195649,37.38935],[50.227306,37.365424],[50.245128,37.279283],[50.322276,37.153266],[50.478852,37.03498],[51.004731,36.767646],[51.088634,36.737006],[51.909028,36.582709],[52.094086,36.602525],[52.258556,36.650946],[53.447602,36.881903],[53.885916,36.905829],[53.957774,36.919623],[54.006521,36.952623],[54.004242,36.914618],[53.947602,36.898749],[53.818207,36.87523],[53.609141,36.876899],[53.663829,36.863227],[53.635997,36.857001],[53.70102,36.816596],[53.889171,36.793606],[54.014334,36.821112],[54.033051,36.845771],[54.033539,36.949123],[53.994395,36.979153],[54.02003,37.027737],[53.927745,37.243801],[53.913748,37.34276],[54.206438,37.324596],[54.261525,37.354827],[54.364154,37.362682],[54.533343,37.440817],[54.653956,37.438905],[54.788314,37.524636],[54.809398,37.603339],[54.787281,37.651863],[54.826658,37.735269],[55.006802,37.843092],[55.130309,37.95231],[55.219709,37.969983],[55.447395,38.083671],[55.708672,38.118656],[55.963023,38.066515],[56.121463,38.086462],[56.214067,38.06884],[56.299747,38.080235],[56.328995,38.123772],[56.303364,38.179428],[56.436482,38.255082],[56.528156,38.257408],[56.585207,38.234567],[56.729384,38.27105],[56.812377,38.22896],[57.038409,38.187283],[57.174939,38.277561],[57.218347,38.265081],[57.344334,38.081062],[57.327074,37.994116],[57.352395,37.967529],[57.496263,37.922312],[57.691186,37.92027],[57.763016,37.899393],[57.800017,37.867638],[57.884146,37.865338],[58.040932,37.805704],[58.156687,37.788186],[58.181182,37.774853],[58.206814,37.678735],[58.357812,37.633311],[58.479665,37.644112],[58.529791,37.700387],[58.68172,37.642716],[58.779802,37.65964],[58.801093,37.694651],[59.034567,37.624526],[59.211714,37.516316],[59.312276,37.530346],[59.356304,37.480633],[59.348346,37.409294],[59.37036,37.319429],[59.469372,37.2407],[59.461724,37.207601],[59.501205,37.190212],[59.555982,37.197782],[59.604971,37.123885],[59.653237,37.149672],[59.797207,37.112206],[59.899527,37.050556],[60.019209,37.025803],[60.132588,36.873409],[60.238524,36.769746],[60.309218,36.651976],[60.34229,36.637145],[61.165806,36.636318],[61.187614,36.565108],[61.146686,36.357265],[61.153507,36.314942],[61.185443,36.283988],[61.224717,36.123688],[61.198156,36.060797],[61.173971,36.048033],[61.173971,36.006485],[61.129839,35.970519],[61.188337,35.953569],[61.241047,35.893883],[61.256343,35.769497],[61.231745,35.671881],[61.277014,35.609197],[61.290036,35.548064],[61.195055,35.390089],[61.187097,35.300379],[61.108342,35.277951],[61.112373,35.202038],[61.096353,35.193202],[61.147306,35.102096],[61.115887,35.059877],[61.074752,34.933114],[61.06545,34.814724],[61.034755,34.806249],[60.959927,34.723205],[60.947525,34.63799],[60.895435,34.628327],[60.838488,34.570914],[60.739269,34.548022],[60.699685,34.516396],[60.77937,34.455081],[60.890474,34.318914],[60.643667,34.306641],[60.650592,34.28535],[60.552407,34.220057],[60.492772,34.139028],[60.528016,33.84145],[60.486881,33.71138],[60.511789,33.638387],[60.574834,33.587796],[60.655553,33.559891],[60.846032,33.555782],[60.92086,33.514105],[60.832183,33.484495],[60.829082,33.416282],[60.757046,33.366337],[60.5676,33.151285],[60.562949,33.058268],[60.830323,32.248885],[60.81482,32.087862],[60.774926,32.027194],[60.792599,32.011277],[60.805311,31.733981],[60.792599,31.660084],[60.821744,31.494668],[61.686911,31.373177],[61.742308,31.32088],[61.742722,31.239541],[61.78768,31.158616],[61.826438,31.014956],[61.800186,30.961419],[61.802253,30.847059],[60.844379,29.858179],[61.279184,29.40663],[61.337372,29.374384],[61.332824,29.274907],[61.386981,29.206642],[61.397937,29.159074],[61.48775,29.080655],[61.46801,29.041743],[61.510901,29.007378],[61.566505,28.870978],[61.653012,28.756334],[61.89279,28.5426],[62.049111,28.486324],[62.362787,28.418887],[62.46428,28.349821],[62.492288,28.300703],[62.575643,28.229027],[62.739302,28.258328],[62.761523,28.246442],[62.735684,27.994985],[62.780281,27.829724],[62.814698,27.494964],[62.756045,27.348099],[62.778783,27.299833],[62.742351,27.266812],[62.800642,27.225161],[62.829322,27.233636],[62.892419,27.213482],[63.177105,27.258441],[63.271259,27.203405],[63.319628,27.117312],[63.260924,27.115607],[63.231365,27.065843],[63.234982,26.941147],[63.264851,26.890039],[63.246661,26.85955],[63.182272,26.83025],[63.163772,26.645093],[63.141344,26.625404],[62.753564,26.644163],[62.70194,26.60401],[62.418495,26.562307],[62.291991,26.501226],[62.297882,26.474044],[62.248996,26.416528],[62.265119,26.360976],[62.243415,26.350641],[62.123835,26.373999],[62.094173,26.314829],[61.832949,26.225377],[61.754504,25.819975],[61.681434,25.795481],[61.66035,25.769178],[61.676369,25.6928],[61.643193,25.613321],[61.620042,25.285486],[61.588227,25.202094],[61.554454,25.254096],[61.537283,25.220364],[61.55836,25.200507],[61.504242,25.208808],[61.482595,25.193671],[61.524181,25.173163],[61.489513,25.118598],[61.420584,25.096869],[61.435069,25.087714],[61.411717,25.059408],[61.185068,25.123249],[61.170269,25.16444],[61.03061,25.209784],[60.633474,25.27497],[60.616954,25.283189],[60.632335,25.296088],[60.608165,25.327582],[60.601573,25.405951],[60.549653,25.446926],[60.445649,25.428168],[60.395274,25.377875],[60.402029,25.344672],[60.437673,25.33393],[60.467246,25.290276],[60.319223,25.329851],[60.290294,25.351304],[60.303966,25.371161],[60.289399,25.377183],[60.201508,25.371161],[60.20921,25.319689],[60.11671,25.33983],[60.082038,25.36595],[59.940823,25.354911],[59.903806,25.329863],[59.774873,25.389869],[59.613997,25.383777],[59.53799,25.39975],[59.453902,25.461607],[59.195323,25.422919],[59.117198,25.394192],[59.043956,25.399604],[58.994314,25.419623],[58.923513,25.513373],[58.840343,25.532904],[58.825206,25.56037],[58.546397,25.593655],[58.430512,25.587958],[58.411794,25.596015],[58.418956,25.612006],[58.170421,25.544094],[58.07309,25.563625],[58.046235,25.574937],[57.963227,25.693183],[57.884044,25.691636],[57.771739,25.635565],[57.783051,25.699774],[57.755626,25.742743],[57.520681,25.743557],[57.459972,25.769029],[57.311534,25.784125],[57.253591,25.95897],[57.198578,25.995022],[57.166759,26.082994],[57.170909,26.115627],[57.212901,26.166246],[57.133067,26.263739],[57.118175,26.364325],[57.080333,26.415351],[57.090017,26.618801],[57.024913,26.850979],[56.925548,26.955146],[56.973318,26.968817],[56.973318,27.002997],[56.932384,26.989325],[56.89088,27.017035],[56.865489,27.011868],[56.844086,27.040229],[56.884613,27.07807],[56.831391,27.096137],[56.808849,27.139553],[56.757335,27.12523],[56.716075,27.153144],[56.582856,27.153144],[56.353038,27.201606],[56.123709,27.160631],[55.939301,27.026679],[55.665863,26.995429],[55.554454,26.899888],[55.582367,26.91356],[55.580414,26.859117],[55.521739,26.784573],[55.442231,26.759914],[55.270844,26.792548],[55.232921,26.776435],[55.205903,26.726386],[55.103282,26.701321],[54.930675,26.572659],[54.791026,26.495836],[54.619965,26.508246],[54.56129,26.584662],[54.389415,26.605129],[54.308116,26.714993],[54.150401,26.708197],[54.015798,26.749457],[53.842784,26.702094],[53.716075,26.708564],[53.491547,26.854315],[53.444102,26.975653],[53.028656,27.104071],[52.992198,27.146959],[52.932628,27.160346],[52.914724,27.191962],[52.848318,27.215277],[52.732188,27.301337],[52.601329,27.352932],[52.579112,27.392768],[52.605235,27.412055],[52.666515,27.415351],[52.670095,27.448635],[52.598399,27.485826],[52.567638,27.540717],[52.459646,27.632636],[52.244884,27.681383],[52.011241,27.832709],[51.85963,27.845893],[51.683443,27.830581],[51.585134,27.849311],[51.570323,27.877631],[51.496424,27.893041],[51.428156,27.961147],[51.420405,27.933201],[51.399876,27.931713],[51.345222,28.052669],[51.269759,28.140454],[51.28533,28.240912],[51.141856,28.400784],[51.08074,28.533922],[51.058849,28.735907],[50.978689,28.816636],[50.87615,28.832017],[50.804861,28.93358],[50.802582,28.985826],[50.823253,28.996649],[50.888682,28.941392],[50.899262,28.949449],[50.929942,29.054633],[50.901703,29.064887],[50.87436,29.113267],[50.850841,29.105455],[50.840343,29.140611],[50.693696,29.12344],[50.643809,29.143459],[50.635753,29.207709],[50.667491,29.25727],[50.682628,29.243069],[50.689464,29.290839],[50.661469,29.318793],[50.655284,29.449123],[50.607432,29.499498],[50.606944,29.469631],[50.456065,29.634101],[50.396983,29.654731],[50.243826,29.866848],[50.144867,29.938056],[50.133962,29.983547],[50.153331,29.991034],[50.133962,30.004055],[50.144786,30.037909],[50.127696,30.120673],[50.073416,30.195746],[49.988292,30.219916],[49.914561,30.203925],[49.600759,30.030097],[49.532237,30.022935],[49.50408,30.058661],[49.501231,30.120063],[49.479828,30.156073],[49.349946,30.175279],[49.245128,30.15648],[49.237071,30.206366],[49.215994,30.223782],[49.221202,30.264553],[49.209158,30.27147],[49.192882,30.237738],[49.161388,30.223782],[49.017345,30.298285],[48.979503,30.361762],[48.921153,30.380764],[48.948578,30.401068],[49.062022,30.408108],[49.176443,30.372748],[49.202891,30.346625],[49.263845,30.449652],[49.228282,30.454413],[49.211192,30.506334],[49.168224,30.476996],[49.166759,30.508775],[49.134044,30.497463],[49.110118,30.517971],[48.981456,30.515611],[48.945649,30.479722],[49.004405,30.464016],[49.037283,30.432522],[49.017345,30.414944],[48.934825,30.418647],[48.862315,30.345608],[48.867035,30.294745],[48.921153,30.250434],[48.936046,30.21011],[48.934825,30.079739],[48.915294,30.042182],[48.87672,30.024482],[48.791352,30.024482],[48.643321,30.055406],[48.658702,29.983629],[48.61085,29.957017],[48.531016,29.96133],[48.464307,29.989127],[48.383072,30.13842],[48.410616,30.191543],[48.397025,30.220999],[48.296359,30.319753],[48.200086,30.323938],[48.140916,30.441916],[48.013586,30.463878],[48.012242,30.989066],[47.672935,30.994698],[47.678929,31.407851],[47.831323,31.761835],[47.834475,31.805708],[47.76528,31.864103],[47.668077,32.012414],[47.617796,32.04187],[47.578057,32.106155],[47.491344,32.148633],[47.509224,32.213797],[47.40246,32.323506],[47.410832,32.395285],[47.343342,32.458692],[47.265311,32.484685],[47.152553,32.455178],[47.090593,32.474556],[46.715887,32.756012],[46.479312,32.891792],[46.273433,32.959488],[46.09701,32.95432],[46.075719,32.994499],[46.119489,33.031008],[46.12042,33.061678],[46.043267,33.08346],[46.030296,33.105681],[46.105382,33.118393],[46.167187,33.168338],[46.155301,33.260219],[46.036239,33.367939],[46.019392,33.438399],[45.974434,33.490799],[45.899399,33.476304],[45.852581,33.494365],[45.927925,33.550873],[45.882036,33.600198],[45.885964,33.63092],[45.815787,33.625804],[45.734552,33.583119],[45.721116,33.640764],[45.645151,33.697918],[45.616729,33.768689],[45.485781,33.938653],[45.423718,33.938782],[45.380361,33.97356],[45.419946,33.994257],[45.454879,34.06986],[45.544537,34.139494],[45.526657,34.17931],[45.561022,34.264602],[45.55756,34.311964],[45.521541,34.342504],[45.46077,34.340463],[45.417052,34.444359],[45.503455,34.494175],[45.500664,34.591688],[45.70153,34.551277],[45.687629,34.653235],[45.627375,34.720828],[45.662825,34.763254],[45.666752,34.80692],[45.745404,34.840975],[45.755119,34.909963],[45.835011,34.890171],[45.850203,34.906811],[45.868962,34.968358],[45.857025,35.021274],[45.899089,35.046906],[45.913197,35.087317],[46.009212,35.06091],[46.151064,35.111605],[46.130393,35.131397],[46.169254,35.216249],[46.101454,35.234285],[46.127396,35.289062],[46.120161,35.318517],[46.040993,35.381562],[45.963995,35.494165],[45.984562,35.531062],[45.959344,35.578708],[45.999238,35.572145],[46.003786,35.674258],[46.23788,35.715547],[46.313379,35.771513],[46.327074,35.8035],[46.281392,35.828305],[46.163518,35.797506],[46.115045,35.846444],[46.060423,35.857244],[46.004923,35.837969],[45.878315,35.83523],[45.834752,35.810528],[45.749021,35.810994],[45.718739,35.828305],[45.646857,35.933208],[45.53999,35.99398],[45.47927,36.012015],[45.359587,35.976875],[45.320313,35.994031],[45.348322,36.087514],[45.304604,36.140379],[45.297369,36.22673],[45.258508,36.262232],[45.282693,36.274893],[45.25701,36.311687],[45.238871,36.402999],[45.19598,36.422429],[45.110817,36.402534],[45.072266,36.423411],[45.03816,36.494001],[44.991393,36.53374],[45.04431,36.64934],[45.035266,36.689596],[44.996199,36.741686],[44.922715,36.775896],[44.851195,36.781219],[44.823393,36.809331],[44.883441,36.886845],[44.869178,36.967357],[44.887368,37.015933],[44.840601,37.047197],[44.801895,37.043528],[44.752699,37.103318],[44.772336,37.161247],[44.753526,37.215326],[44.798485,37.260311],[44.801585,37.292686],[44.721384,37.343277],[44.698026,37.380045],[44.661646,37.375653],[44.638184,37.412601],[44.572142,37.430791],[44.587438,37.584012],[44.540878,37.632717],[44.54527,37.663025],[44.59612,37.716381],[44.506461,37.779349],[44.43644,37.767799],[44.433029,37.806117],[44.4044,37.809735],[44.367142,37.860222],[44.219605,37.875312],[44.202087,37.897171],[44.225496,37.929314],[44.227564,37.98099],[44.29588,38.07902],[44.33381,38.10088],[44.327092,38.128397],[44.360579,38.147853],[44.372413,38.249501],[44.43675,38.29694],[44.458764,38.338333],[44.409051,38.381793],[44.363369,38.36461],[44.289524,38.382258],[44.297017,38.622321],[44.244307,38.658959],[44.260481,38.679242],[44.248648,38.721824],[44.275002,38.843573],[44.205756,38.875664],[44.151961,38.964625],[44.139197,38.993952],[44.179143,39.034931],[44.186636,39.145131],[44.077702,39.200063],[44.069434,39.287009],[44.014863,39.374084],[44.061372,39.400284],[44.176507,39.411549],[44.29495,39.381215],[44.387967,39.414495],[44.404814,39.43439],[44.414012,39.560894],[44.457627,39.638719],[44.459487,39.698457],[44.565734,39.765894],[44.590435,39.771527],[44.646504,39.719541],[44.806993,39.639902]]],[[[54.526378,26.309638],[54.547374,26.290432],[54.521007,26.250963],[54.492198,26.26557],[54.488129,26.298041],[54.506847,26.321234],[54.526378,26.309638]]],[[[54.036876,26.48843],[53.955414,26.49258],[53.902843,26.5362],[53.945486,26.56509],[54.018809,26.555569],[54.050466,26.517768],[54.036876,26.48843]]],[[[53.317149,26.799994],[53.22283,26.799547],[53.149425,26.847886],[53.337413,26.828681],[53.382009,26.803127],[53.317149,26.799994]]],[[[56.322276,26.834418],[56.341156,26.87934],[56.404145,26.893052],[56.40919,26.86225],[56.379161,26.83869],[56.322276,26.834418]]],[[[56.212413,27.002997],[56.25766,26.988715],[56.287446,26.955146],[56.193533,26.924547],[56.080821,26.785346],[55.947032,26.696275],[55.876638,26.742906],[55.772716,26.688381],[55.685557,26.690497],[55.50294,26.594875],[55.290538,26.548489],[55.284679,26.660224],[55.351899,26.647447],[55.774181,26.796942],[55.781016,26.889635],[55.732595,26.940904],[55.757986,26.954047],[55.897716,26.906806],[56.041026,26.975653],[56.212413,27.002997]]],[[[56.472992,27.106024],[56.504649,27.088935],[56.504731,27.061672],[56.466156,27.043931],[56.434581,27.054836],[56.43686,27.080024],[56.472992,27.106024]]],[[[50.305817,29.271275],[50.334651,29.258661],[50.326427,29.20893],[50.30663,29.215446],[50.283267,29.268939],[50.305817,29.271275]]],[[[54.54656,25.9265],[54.553233,25.899848],[54.513682,25.902655],[54.54656,25.9265]]],[[[55.894298,26.679429],[55.903982,26.64525],[55.889659,26.623765],[55.853201,26.621039],[55.868337,26.666449],[55.894298,26.679429]]],[[[53.639415,26.688788],[53.65919,26.66885],[53.646251,26.657172],[53.601248,26.679592],[53.639415,26.688788]]],[[[55.048676,25.885769],[55.054373,25.86461],[55.018403,25.859605],[55.012055,25.881619],[55.048676,25.885769]]]]}}]}
