{"type":"FeatureCollection","features":[{"type":"Feature","properties":{"name":"Jamaica","ISO3166-1-Alpha-3":"JAM","ISO3166-1-Alpha-2":"JM"},"geometry":{"type":"Polygon","coordinates":[[[-76.263743,18.012356],[-76.234039,17.953925],[-76.187978,17.915473],[-76.307362,17.870103],[-76.325185,17.874498],[-76.311513,17.894965],[-76.363026,17.860826],[-76.414906,17.877509],[-76.602773,17.867621],[-76.654775,17.929145],[-76.707672,17.94595],[-76.832265,17.936591],[-76.722401,17.949612],[-76.849967,17.992276],[-76.942128,17.833564],[-77.038319,17.846584],[-77.017201,17.860826],[-77.064198,17.899482],[-77.141652,17.881134],[-77.161977,17.840766],[-77.154408,17.813056],[-77.181711,17.799994],[-77.174916,17.778266],[-77.216461,17.772121],[-77.140736,17.765286],[-77.133656,17.710435],[-77.178944,17.704169],[-77.216054,17.716702],[-77.320872,17.812445],[-77.417714,17.861721],[-77.50182,17.841946],[-77.588368,17.860989],[-77.730702,17.854804],[-77.795562,17.891547],[-77.816151,17.939195],[-77.83967,17.949612],[-77.84557,18.017035],[-77.956288,18.032172],[-77.987864,18.095364],[-78.020579,18.113105],[-78.050282,18.185126],[-78.193756,18.203925],[-78.234039,18.193183],[-78.340728,18.221869],[-78.374664,18.26557],[-78.34732,18.292222],[-78.335439,18.36343],[-78.271637,18.389065],[-78.230621,18.444241],[-77.96996,18.443061],[-77.902333,18.518785],[-77.81607,18.523424],[-77.408274,18.457343],[-77.272613,18.459377],[-77.137359,18.408922],[-76.894919,18.409251],[-76.890948,18.376441],[-76.812754,18.32801],[-76.782826,18.277818],[-76.351145,18.155992],[-76.263743,18.012356]]]}}]}
