{"type":"FeatureCollection","features":[{"type":"Feature","properties":{"name":"Cambodia","ISO3166-1-Alpha-3":"KHM","ISO3166-1-Alpha-2":"KH"},"geometry":{"type":"MultiPolygon","coordinates":[[[[107.520393,14.704582],[107.532433,14.677942],[107.504011,14.602107],[107.505252,14.541026],[107.464737,14.449042],[107.443136,14.423669],[107.386912,14.421912],[107.351773,14.341968],[107.358594,14.238615],[107.31994,14.119837],[107.344745,14.081312],[107.354563,14.002402],[107.430734,13.984471],[107.448046,13.909307],[107.44324,13.783475],[107.514295,13.69255],[107.604315,13.498531],[107.606951,13.369754],[107.460396,13.021609],[107.481067,12.988769],[107.466081,12.952182],[107.487371,12.870559],[107.535947,12.799633],[107.565093,12.606415],[107.55667,12.472676],[107.522253,12.366585],[107.415851,12.254085],[107.39301,12.252845],[107.320198,12.329223],[107.211884,12.30571],[107.152508,12.27703],[106.953399,12.081072],[106.879295,12.062727],[106.771963,12.065828],[106.70158,11.970795],[106.504537,11.973379],[106.473738,11.952088],[106.442061,11.974877],[106.394002,11.969813],[106.438753,11.863721],[106.397774,11.762126],[106.435033,11.677273],[106.425834,11.66208],[106.354314,11.69014],[106.274112,11.676808],[106.223624,11.72497],[106.01542,11.770497],[105.934081,11.642856],[105.85791,11.661563],[105.80489,11.624925],[105.790421,11.587408],[105.853208,11.546867],[105.872173,11.443463],[105.844423,11.28988],[105.886746,11.267944],[105.899871,11.218593],[105.988755,11.176967],[106.08663,11.056329],[106.113502,11.086921],[106.160321,11.053512],[106.187864,10.976308],[106.131434,10.96928],[106.121822,10.925226],[106.177322,10.766863],[106.0179,10.819806],[105.931342,10.896364],[105.908656,10.838383],[105.878684,10.828074],[105.752904,11.015608],[105.473851,10.94091],[105.410496,10.963001],[105.317891,10.838849],[105.253296,10.883523],[105.097543,10.914348],[105.077906,10.946904],[105.011399,10.883833],[105.066227,10.746425],[105.066744,10.713947],[105.042456,10.690821],[104.931352,10.630696],[104.854406,10.531322],[104.773842,10.515328],[104.566826,10.528067],[104.469571,10.415774],[104.363129,10.487738],[104.297699,10.480862],[104.286306,10.540473],[104.249848,10.570258],[104.207042,10.549994],[104.089041,10.554633],[103.945567,10.588121],[103.894298,10.658393],[103.873383,10.660061],[103.866384,10.699368],[103.862804,10.603827],[103.820567,10.544013],[103.7671,10.535468],[103.701915,10.562812],[103.747081,10.508979],[103.623871,10.500922],[103.606293,10.555976],[103.570079,10.55508],[103.543793,10.596177],[103.501964,10.617133],[103.567393,10.726508],[103.688731,10.740953],[103.672211,10.75788],[103.678071,10.801215],[103.722423,10.84455],[103.722423,10.894843],[103.659516,11.029771],[103.674571,11.063666],[103.604015,11.090644],[103.583507,11.134101],[103.53297,11.162746],[103.502696,11.166083],[103.49643,11.138821],[103.468516,11.151801],[103.448009,11.090399],[103.470225,11.089057],[103.40211,10.884345],[103.352306,10.871894],[103.344086,10.895453],[103.277354,10.932685],[103.219005,10.892483],[103.222667,10.878119],[103.181163,10.864447],[103.12672,10.881293],[103.140147,10.898586],[103.095551,10.933987],[103.112804,10.970893],[103.098481,11.080471],[103.117686,11.149115],[103.088634,11.217678],[103.057628,11.220771],[103.078868,11.273505],[103.134044,11.316148],[103.153168,11.30268],[103.15211,11.318101],[103.140147,11.357896],[103.112804,11.343655],[103.100271,11.356024],[103.064464,11.447252],[103.084972,11.43301],[103.129893,11.460354],[103.174327,11.426174],[103.140147,11.508734],[103.112804,11.46776],[103.064464,11.503607],[103.057628,11.591254],[103.03712,11.604926],[103.030284,11.542873],[102.975108,11.529242],[102.9546,11.557115],[102.975108,11.570217],[103.00294,11.549709],[102.982432,11.583808],[102.993826,11.635728],[103.043305,11.624823],[102.989268,11.673245],[102.968761,11.638495],[102.986339,11.702867],[103.021658,11.720526],[103.066661,11.708197],[103.084972,11.727851],[103.056,11.716132],[103.023448,11.734687],[102.982432,11.714179],[102.893077,11.830268],[102.968761,11.714179],[102.9546,11.570217],[102.913585,11.645901],[102.928787,11.668695],[102.9138,11.765536],[102.699963,12.138743],[102.715053,12.342194],[102.762078,12.43609],[102.588549,12.609826],[102.486385,12.661192],[102.477961,12.719638],[102.506642,12.787515],[102.464836,12.927532],[102.478892,12.953629],[102.467213,12.969468],[102.490157,12.996081],[102.38205,13.136615],[102.328203,13.27516],[102.330115,13.496361],[102.313424,13.541009],[102.332234,13.5646],[102.513205,13.567157],[102.597747,13.60545],[102.541058,13.6486],[102.54235,13.669709],[102.69862,13.761797],[102.772827,13.936076],[102.869772,14.020618],[102.934058,14.200969],[103.004854,14.228771],[103.118026,14.313236],[103.273675,14.351063],[103.362869,14.353466],[103.422503,14.384834],[103.449685,14.371579],[103.533401,14.419069],[103.596136,14.404342],[103.637064,14.44328],[103.67148,14.42956],[103.674891,14.386487],[103.824029,14.368039],[103.885162,14.340418],[103.919837,14.364577],[103.973994,14.36729],[104.001383,14.345069],[104.110213,14.380441],[104.140909,14.365998],[104.177031,14.404212],[104.201267,14.377987],[104.247466,14.401086],[104.452621,14.356928],[104.492619,14.374007],[104.542848,14.360391],[104.610441,14.418966],[104.66837,14.409638],[104.692865,14.433978],[104.712864,14.406848],[104.771672,14.439869],[104.97383,14.380648],[104.975949,14.301118],[105.047314,14.214069],[105.101419,14.230528],[105.155007,14.33047],[105.184308,14.34574],[105.197434,14.270293],[105.256913,14.182443],[105.337787,14.109993],[105.422175,14.107874],[105.533175,14.16433],[105.561391,14.138156],[105.594567,14.136348],[105.617253,14.10299],[105.643143,14.113455],[105.744015,14.086945],[105.787113,14.010154],[105.899665,13.922614],[106.069163,13.916542],[106.081979,13.980957],[106.149469,14.053562],[106.076191,14.174511],[106.012474,14.225774],[106.004516,14.289982],[105.96917,14.33202],[105.973975,14.365843],[106.038158,14.347652],[106.063531,14.372922],[106.17324,14.369667],[106.203936,14.399897],[106.230084,14.49046],[106.306462,14.445476],[106.41922,14.466457],[106.445161,14.499478],[106.43648,14.523817],[106.484849,14.523817],[106.47224,14.564073],[106.512496,14.590351],[106.54376,14.512113],[106.6344,14.450902],[106.707161,14.429301],[106.806896,14.312926],[106.835835,14.307061],[106.895676,14.33631],[106.933607,14.320161],[107.027245,14.43527],[107.078559,14.400776],[107.131424,14.427544],[107.180568,14.496171],[107.219739,14.497979],[107.233899,14.544927],[107.28728,14.598516],[107.414921,14.543429],[107.451766,14.632183],[107.520393,14.704582]]],[[[103.784434,10.515041],[103.805919,10.48432],[103.794688,10.453559],[103.743419,10.480862],[103.760427,10.513821],[103.784434,10.515041]]],[[[103.29713,10.731024],[103.318207,10.706773],[103.277354,10.672675],[103.198497,10.762356],[103.245128,10.777981],[103.29713,10.731024]]],[[[103.03712,11.357896],[103.043305,11.273424],[103.007579,11.255072],[102.988536,11.30093],[102.989268,11.426174],[103.024181,11.417182],[103.03712,11.357896]]],[[[103.030284,11.501899],[103.050792,11.46776],[103.030284,11.426174],[102.99586,11.513739],[103.009125,11.529242],[103.030284,11.501899]]],[[[103.334158,10.58393],[103.323497,10.545152],[103.289073,10.612738],[103.319509,10.617336],[103.312511,10.579088],[103.334158,10.58393]]]]}}]}
