{"type":"FeatureCollection","features":[{"type":"Feature","properties":{"name":"Kiribati","ISO3166-1-Alpha-3":"KIR","ISO3166-1-Alpha-2":"KI"},"geometry":{"type":"MultiPolygon","coordinates":[[[[173.038259,1.341051],[173.011241,1.337348],[173.160655,1.374945],[173.153168,1.386542],[173.171723,1.374172],[173.162934,1.356513],[173.078624,1.360012],[173.038259,1.341051]]],[[[-151.807729,-11.385919],[-151.780955,-11.454685],[-151.800893,-11.461114],[-151.819529,-11.420994],[-151.807729,-11.385919]]],[[[-155.899322,-5.616795],[-155.859812,-5.625095],[-155.906443,-5.635349],[-155.933461,-5.609145],[-155.899322,-5.616795]]],[[[-155.011708,-4.047052],[-154.940297,-4.031996],[-154.953359,-4.094822],[-155.011708,-4.047052]]],[[[-171.677805,-2.833185],[-171.712717,-2.822198],[-171.626943,-2.855727],[-171.666697,-2.793145],[-171.714589,-2.772882],[-171.721913,-2.78631],[-171.715077,-2.759047],[-171.649851,-2.797296],[-171.625722,-2.86891],[-171.677805,-2.833185]]],[[[176.786143,-2.608168],[176.850922,-2.654067],[176.827322,-2.656183],[176.772309,-2.608168],[176.786143,-2.608168]]],[[[175.9817,-2.505955],[175.973155,-2.489679],[175.993175,-2.510349],[175.9817,-2.505955]]],[[[175.591482,-1.8742],[175.586274,-1.922459],[175.586274,-1.870782],[175.552257,-1.819268],[175.591482,-1.8742]]],[[[175.058767,-1.436293],[175.060557,-1.531671],[175.012543,-1.549249],[175.020844,-1.499933],[175.045095,-1.484145],[175.018565,-1.519627],[175.028005,-1.541192],[175.058279,-1.506768],[175.038259,-1.436293],[175.058767,-1.436293]]],[[[176.409353,-1.332696],[176.444835,-1.373793],[176.464041,-1.436293],[176.395681,-1.319594],[176.409353,-1.332696]]],[[[176.009288,-1.334242],[176.018321,-1.387872],[175.983572,-1.367446],[176.018321,-1.374282],[176.006358,-1.342706],[175.942149,-1.284845],[175.977306,-1.284845],[176.009288,-1.334242]]],[[[174.765147,-1.202895],[174.778819,-1.264418],[174.75587,-1.257501],[174.746755,-1.185968],[174.716645,-1.134698],[174.743988,-1.14837],[174.765147,-1.202895]]],[[[174.476573,-0.709568],[174.498383,-0.789158],[174.483409,-0.819431],[174.472341,-0.801853],[174.483409,-0.812595],[174.497732,-0.794773],[174.462901,-0.648126],[174.476573,-0.709568]]],[[[174.438731,-0.627618],[174.463634,-0.644789],[174.38087,-0.592869],[174.438731,-0.627618]]],[[[173.620616,0.133368],[173.609874,0.143052],[173.638357,0.195217],[173.606212,0.215969],[173.628673,0.219143],[173.640798,0.192125],[173.620616,0.133368]]],[[[173.832286,0.448676],[173.917247,0.399482],[173.921641,0.379788],[173.832042,0.436347],[173.804942,0.434394],[173.832286,0.448676]]],[[[172.987153,0.832343],[172.990245,0.83397],[172.990001,0.825426],[172.987153,0.832343]]],[[[172.977794,0.83633],[172.982432,0.831163],[172.972179,0.83454],[172.977794,0.83633]]],[[[173.075938,0.965888],[173.061209,0.914211],[172.990977,0.834418],[173.071788,0.962592],[173.025564,0.998033],[173.003673,0.989936],[172.990001,1.024075],[173.075938,0.965888]]],[[[172.983165,1.531195],[172.972992,1.53559],[172.959158,1.609687],[172.983165,1.531195]]],[[[173.036143,1.777167],[173.029307,1.716295],[172.993175,1.712063],[173.035492,1.743557],[173.027354,1.810452],[173.036143,1.777167]]],[[[172.980317,1.882025],[173.023448,1.821438],[172.934744,1.942694],[172.980317,1.882025]]],[[[-157.190989,1.763902],[-157.178782,1.718492],[-157.246409,1.713324],[-157.286855,1.75023],[-157.410593,1.781928],[-157.528269,1.862494],[-157.566029,1.863756],[-157.578236,1.907945],[-157.52123,1.92768],[-157.545359,1.90233],[-157.537302,1.86636],[-157.428538,1.838568],[-157.475209,1.880601],[-157.45165,1.87641],[-157.447336,1.901109],[-157.411977,1.858466],[-157.419993,1.929023],[-157.394724,1.935736],[-157.382069,1.902167],[-157.355051,1.947659],[-157.477528,2.018134],[-157.498891,2.002183],[-157.509389,2.024604],[-157.423818,2.020453],[-157.385854,1.990465],[-157.310129,1.97309],[-157.340443,1.930243],[-157.347727,1.860785],[-157.190989,1.763902]]],[[[172.750336,3.031968],[172.771495,3.023871],[172.829112,3.064276],[172.886974,3.072943],[172.880138,3.052476],[172.844412,3.059801],[172.770274,3.011461],[172.750336,3.031968]]],[[[172.962087,3.141832],[172.969412,3.12816],[172.886974,3.100246],[172.962087,3.141832]]],[[[-159.284535,3.874823],[-159.249989,3.81977],[-159.308705,3.784654],[-159.352854,3.79914],[-159.360789,3.819403],[-159.294789,3.805976],[-159.28718,3.837836],[-159.335439,3.871487],[-159.352854,3.909003],[-159.393788,3.888577],[-159.367136,3.840155],[-159.410024,3.862047],[-159.406321,3.902574],[-159.37682,3.933295],[-159.342275,3.925767],[-159.319895,3.879096],[-159.284535,3.874823]]],[[[-172.222768,-4.50628],[-172.174387,-4.513116],[-172.20344,-4.532159],[-172.229604,-4.497328],[-172.20047,-4.493422],[-172.222768,-4.50628]]],[[[-174.506418,-4.689142],[-174.501536,-4.697361],[-174.521555,-4.683852],[-174.506418,-4.689142]]],[[[-174.529286,-4.682712],[-174.527659,-4.683852],[-174.541737,-4.672784],[-174.529286,-4.682712]]],[[[-174.500844,-4.691095],[-174.528269,-4.667413],[-174.538401,-4.656508],[-174.500844,-4.691095]]],[[[-171.259958,-4.444106],[-171.230051,-4.460545],[-171.259633,-4.465265],[-171.259958,-4.444106]]],[[[-171.093577,-3.131443],[-171.085439,-3.111261],[-171.092478,-3.14544],[-171.093577,-3.131443]]],[[[169.53891,-0.874607],[169.522634,-0.860528],[169.545177,-0.847914],[169.555349,-0.866143],[169.53891,-0.874607]]],[[[173.289724,2.03384],[173.266124,2.04385],[173.257823,1.997016],[173.259613,2.043402],[173.278005,2.058661],[173.31837,1.976996],[173.304454,1.961575],[173.257498,1.974595],[173.261485,1.993232],[173.263927,1.978013],[173.307872,1.973293],[173.289724,2.03384]]],[[[-160.41039,4.709174],[-160.401194,4.72309],[-160.378896,4.713284],[-160.41039,4.709174]]]]}}]}
