{"type":"FeatureCollection","features":[{"type":"Feature","properties":{"name":"Saint Kitts and Nevis","ISO3166-1-Alpha-3":"KNA","ISO3166-1-Alpha-2":"KN"},"geometry":{"type":"MultiPolygon","coordinates":[[[[-62.599233,17.202948],[-62.546498,17.183783],[-62.547597,17.104641],[-62.612172,17.104153],[-62.626373,17.140692],[-62.599233,17.202948]]],[[[-62.650461,17.265611],[-62.624827,17.241848],[-62.647043,17.21719],[-62.703359,17.28913],[-62.756947,17.292304],[-62.831614,17.330146],[-62.861073,17.362291],[-62.853139,17.394721],[-62.819569,17.415839],[-62.71996,17.358547],[-62.650461,17.265611]]]]}}]}
