{"type":"FeatureCollection","features":[{"type":"Feature","properties":{"name":"North Korea","ISO3166-1-Alpha-3":"PRK","ISO3166-1-Alpha-2":"KP"},"geometry":{"type":"MultiPolygon","coordinates":[[[[128.364919,38.624335],[128.281089,38.584416],[128.281089,38.48437],[128.225589,38.399776],[128.172362,38.355954],[128.039864,38.304278],[127.800757,38.293917],[127.753731,38.325362],[127.47194,38.295906],[127.377113,38.318515],[127.157489,38.307224],[127.090464,38.285855],[126.971919,38.218909],[126.919829,38.134598],[126.847327,38.082018],[126.761906,37.979001],[126.665787,37.937634],[126.667459,37.82781],[126.651622,37.799262],[126.593272,37.7744],[126.436615,37.848375],[126.397716,37.89175],[126.259532,37.845445],[126.178477,37.840522],[126.147716,37.819037],[126.158214,37.733466],[126.110362,37.740912],[126.086925,37.80036],[126.062836,37.802232],[126.055756,37.870592],[126.012787,37.854315],[126.000743,37.885565],[125.959483,37.912177],[125.944102,37.901923],[125.972504,37.874335],[125.986176,37.822821],[125.921641,37.844875],[125.834972,37.943549],[125.805186,37.951565],[125.799327,37.992906],[125.596934,38.032213],[125.578217,38.009019],[125.596528,37.992255],[125.675385,37.977607],[125.678315,37.952541],[125.71933,37.952541],[125.698822,37.925238],[125.739757,37.925238],[125.685069,37.898586],[125.630626,37.925238],[125.641205,37.856391],[125.623057,37.837104],[125.644135,37.822821],[125.609223,37.806301],[125.620128,37.765326],[125.583995,37.767524],[125.570567,37.787095],[125.528901,37.772528],[125.527599,37.796129],[125.47462,37.731187],[125.385265,37.716376],[125.347504,37.675605],[125.335053,37.686265],[125.36378,37.760891],[125.444916,37.7744],[125.377289,37.781887],[125.389903,37.796129],[125.455821,37.822821],[125.524181,37.817816],[125.527599,37.843329],[125.497325,37.839667],[125.479096,37.857611],[125.510102,37.894273],[125.445649,37.920396],[125.424408,37.912177],[125.431895,37.898586],[125.383556,37.89175],[125.427989,37.874498],[125.444916,37.843329],[125.349376,37.864407],[125.377289,37.843329],[125.30836,37.809149],[125.239513,37.822821],[125.30836,37.878079],[125.257091,37.914618],[125.26002,37.932685],[125.176606,37.867621],[125.013194,37.905992],[125.01352,37.939521],[124.979503,37.925238],[124.992198,37.952948],[125.062022,37.978583],[125.1338,37.960028],[125.175385,37.969916],[125.177501,37.987942],[125.155284,37.979967],[125.115326,38.002387],[125.1067,38.034613],[125.201671,38.049384],[125.246349,38.020087],[125.253184,38.053941],[125.273692,38.062405],[125.264903,38.077948],[125.140636,38.097805],[125.01352,38.062405],[124.885265,38.131659],[124.865489,38.107082],[124.793793,38.097805],[124.667247,38.125718],[124.821788,38.18594],[124.855968,38.226955],[124.895274,38.221503],[124.920909,38.189358],[124.993012,38.226955],[124.91505,38.229071],[124.872325,38.257636],[124.879731,38.345201],[124.947276,38.450507],[124.972179,38.462144],[124.972667,38.440375],[125.016368,38.497952],[124.983949,38.591942],[125.037625,38.591271],[125.058241,38.568468],[125.102769,38.593523],[125.128009,38.580281],[125.123383,38.666327],[125.1566,38.631727],[125.179623,38.634655],[125.179797,38.670002],[125.203485,38.652553],[125.267295,38.67031],[125.301036,38.656806],[125.369108,38.694761],[125.441905,38.686225],[125.462657,38.707261],[125.507091,38.686225],[125.520763,38.652655],[125.545177,38.679389],[125.610362,38.63109],[125.657807,38.631008],[125.527599,38.720933],[125.479096,38.727729],[125.447765,38.777248],[125.410899,38.755072],[125.434174,38.736762],[125.419313,38.729265],[125.389244,38.717449],[125.356212,38.734565],[125.341075,38.717475],[125.301036,38.734565],[125.30836,38.707261],[125.27768,38.703315],[125.2435,38.728339],[125.266856,38.755072],[125.240977,38.793118],[125.22519,38.796088],[125.216557,38.739717],[125.18812,38.738608],[125.137218,38.803534],[125.151966,38.891529],[125.198643,38.986056],[125.270803,39.080606],[125.335053,39.083441],[125.28407,39.089556],[125.287364,39.15233],[125.343516,39.168891],[125.328868,39.193305],[125.343598,39.212877],[125.410899,39.213813],[125.393565,39.245795],[125.444916,39.310614],[125.41627,39.320258],[125.404633,39.364651],[125.424408,39.357123],[125.459239,39.385077],[125.357026,39.398749],[125.383556,39.440334],[125.34254,39.433539],[125.346039,39.459621],[125.451752,39.571275],[125.444916,39.584377],[125.285981,39.521186],[125.210297,39.573065],[125.22519,39.591213],[125.157563,39.591213],[125.171235,39.56387],[125.116954,39.565863],[125.097504,39.602729],[125.047699,39.604193],[124.958263,39.662014],[124.937836,39.645819],[124.901622,39.662055],[124.881602,39.704169],[124.77065,39.741811],[124.746104,39.782945],[124.744624,39.691356],[124.757115,39.687906],[124.729805,39.665293],[124.743907,39.644355],[124.695017,39.63754],[124.637452,39.590483],[124.610803,39.628651],[124.646983,39.697577],[124.62379,39.693549],[124.584809,39.723578],[124.589122,39.765855],[124.561615,39.786689],[124.564057,39.814276],[124.417735,39.82453],[124.396576,39.865546],[124.362559,39.871731],[124.321544,39.912665],[124.369965,39.940009],[124.405772,40.027777],[124.499604,40.022528],[124.410248,40.0362],[124.369965,40.098293],[124.570877,40.252428],[124.71247,40.310305],[124.741202,40.370353],[124.800837,40.394073],[124.895508,40.483628],[124.935299,40.455568],[125.041287,40.461097],[125.015294,40.508278],[125.025112,40.534374],[125.256106,40.615041],[125.293313,40.648579],[125.413254,40.631785],[125.418887,40.666563],[125.452993,40.673384],[125.469065,40.712917],[125.546476,40.725939],[125.571746,40.784902],[125.609935,40.761286],[125.682643,40.768882],[125.644816,40.810585],[125.760933,40.885671],[125.821963,40.869755],[125.885215,40.897505],[125.936168,40.877403],[126.007843,40.899313],[126.010013,40.913886],[125.980558,40.913628],[126.045515,40.944685],[126.075643,40.997085],[126.104065,41.009178],[126.138171,41.056978],[126.123753,41.07553],[126.274752,41.15258],[126.440892,41.348382],[126.472518,41.36652],[126.501301,41.366107],[126.487659,41.344403],[126.522127,41.351947],[126.501301,41.434371],[126.577266,41.561805],[126.567034,41.614154],[126.617883,41.665933],[126.669301,41.667122],[126.727954,41.701254],[126.679482,41.735981],[126.727282,41.736911],[126.788622,41.695906],[126.808879,41.729831],[126.864793,41.747272],[126.887118,41.784918],[126.929802,41.801041],[126.946132,41.766186],[127.042664,41.732648],[127.076615,41.68079],[127.048968,41.677741],[127.058993,41.643299],[127.17971,41.585163],[127.104675,41.537414],[127.134648,41.522014],[127.17971,41.51695],[127.207098,41.545941],[127.28146,41.531058],[127.28978,41.518552],[127.269058,41.504961],[127.305128,41.494678],[127.542891,41.491319],[127.558808,41.458246],[127.638338,41.429875],[127.662677,41.44698],[127.848868,41.431322],[127.881475,41.460881],[127.944211,41.470855],[127.974235,41.450339],[128.001416,41.470855],[128.015162,41.413287],[128.050612,41.420729],[128.064152,41.388431],[128.103943,41.399593],[128.118205,41.393444],[128.103943,41.379129],[128.14611,41.376339],[128.185695,41.404451],[128.303,41.583406],[128.25091,41.66012],[128.159133,41.711822],[128.091023,41.841737],[128.047822,41.863983],[128.020433,41.965062],[128.034593,41.993743],[128.261969,42.032862],[128.502368,41.996094],[128.56438,42.000797],[128.607891,42.030175],[128.70928,42.030175],[128.720959,42.04759],[128.940067,42.035368],[128.963838,42.088517],[129.026574,42.101876],[129.064711,42.153759],[129.119798,42.149366],[129.211162,42.219956],[129.180776,42.243107],[129.228008,42.297729],[129.193902,42.318245],[129.236276,42.323878],[129.23607,42.374366],[129.303766,42.389584],[129.326504,42.426765],[129.352135,42.420616],[129.340146,42.445472],[129.386241,42.428109],[129.434094,42.441106],[129.535173,42.36956],[129.587676,42.411366],[129.591707,42.447953],[129.703328,42.442372],[129.728856,42.475858],[129.736504,42.585154],[129.763066,42.606238],[129.741569,42.629001],[129.776709,42.647191],[129.787561,42.676854],[129.757588,42.703648],[129.757278,42.734705],[129.851743,42.961901],[129.907037,42.976138],[129.879751,42.996033],[129.934115,43.00841],[130.008219,42.960557],[130.121494,42.981848],[130.130485,42.959472],[130.098756,42.921516],[130.239006,42.90224],[130.256473,42.866894],[130.243037,42.743361],[130.262674,42.708609],[130.324789,42.650292],[130.427728,42.599365],[130.431242,42.561512],[130.452533,42.549342],[130.467933,42.554897],[130.455117,42.585154],[130.467829,42.600398],[130.516508,42.599365],[130.575626,42.445731],[130.645803,42.400876],[130.662753,42.32057],[130.699962,42.295111],[130.597544,42.26278],[130.594981,42.298163],[130.51019,42.33578],[130.465653,42.334752],[130.440098,42.309128],[130.40745,42.324577],[130.384157,42.291195],[130.40089,42.242499],[130.367992,42.255687],[130.369837,42.232011],[130.307026,42.183154],[130.315635,42.218883],[130.294182,42.237045],[130.202274,42.173551],[130.199311,42.101304],[130.17392,42.098782],[130.159432,42.072838],[130.120069,42.090081],[130.073041,42.078459],[130.033879,41.995514],[130.01495,42.014404],[129.982188,41.982652],[130.002696,41.962226],[129.974864,41.941636],[129.964692,41.898749],[129.89674,41.904263],[129.884532,41.824164],[129.85246,41.764923],[129.813315,41.777733],[129.77476,41.759417],[129.741361,41.684018],[129.690823,41.649716],[129.648798,41.549403],[129.659403,41.464647],[129.806163,41.376044],[129.759125,41.292873],[129.711925,41.122626],[129.728282,41.08515],[129.728282,40.978705],[129.764891,40.944414],[129.716558,40.834586],[129.571773,40.839716],[129.518081,40.795467],[129.426954,40.781296],[129.351687,40.745343],[129.303233,40.673651],[129.270138,40.70798],[129.233482,40.705714],[129.206426,40.675546],[129.172618,40.568915],[129.077564,40.472565],[128.975812,40.459933],[128.860532,40.371848],[128.636489,40.313217],[128.616447,40.271443],[128.66778,40.240309],[128.664561,40.201239],[128.628875,40.180266],[128.588611,40.186673],[128.434946,40.104002],[128.364765,40.09689],[128.327753,40.028216],[128.263444,40.077105],[128.227837,40.056206],[128.234386,40.029364],[128.155121,40.016303],[128.006847,40.045152],[127.940033,39.974758],[127.906659,39.983942],[127.874604,39.892808],[127.78183,39.885403],[127.794037,39.865668],[127.69575,39.848201],[127.663291,39.806801],[127.623749,39.830935],[127.503754,39.715522],[127.512218,39.649482],[127.552745,39.636786],[127.574555,39.595038],[127.520439,39.510465],[127.562104,39.31623],[127.543468,39.301947],[127.521821,39.31623],[127.542247,39.371487],[127.495128,39.433417],[127.378429,39.378852],[127.425548,39.357123],[127.46754,39.363837],[127.473399,39.347561],[127.425548,39.330471],[127.391938,39.341864],[127.37203,39.240426],[127.393403,39.201728],[127.45224,39.165961],[127.491303,39.194892],[127.531749,39.146145],[127.606944,39.152045],[127.675629,39.11815],[127.759288,39.117011],[127.888682,38.961371],[127.914317,38.964179],[128.014659,38.85814],[128.091156,38.843736],[128.210216,38.727729],[128.282807,38.755072],[128.35963,38.678656],[128.364919,38.624335]]],[[[124.926741,39.604786],[124.909674,39.593554],[124.933609,39.550543],[124.818563,39.495444],[124.85697,39.527899],[124.842773,39.538426],[124.880471,39.612455],[124.926741,39.604786]]],[[[124.883474,38.528551],[124.903982,38.494371],[124.790294,38.517401],[124.844249,38.555162],[124.883474,38.528551]]],[[[125.328787,37.766669],[125.295746,37.727607],[125.220551,37.703762],[125.328787,37.766669]]],[[[125.147716,37.78559],[125.141368,37.799506],[125.191417,37.815497],[125.147716,37.78559]]],[[[125.030447,37.836168],[125.041759,37.817288],[124.997732,37.808417],[125.030447,37.836168]]],[[[124.687673,39.527167],[124.707779,39.530399],[124.697765,39.50259],[124.680149,39.507726],[124.687673,39.527167]]],[[[124.687022,39.544745],[124.595876,39.537909],[124.673839,39.570624],[124.69809,39.562893],[124.687022,39.544745]]],[[[124.596039,39.430243],[124.612559,39.457139],[124.61907,39.43301],[124.596039,39.430243]]],[[[124.214651,39.807242],[124.230017,39.821172],[124.242751,39.804633],[124.223189,39.791557],[124.214651,39.807242]]]]}}]}
