{"type":"FeatureCollection","features":[{"type":"Feature","properties":{"name":"Kuwait","ISO3166-1-Alpha-3":"KWT","ISO3166-1-Alpha-2":"KW"},"geometry":{"type":"MultiPolygon","coordinates":[[[[47.948009,29.994045],[47.975271,29.942572],[47.995616,29.827704],[48.052419,29.742987],[48.078868,29.743964],[48.180917,29.562217],[48.176758,29.541916],[48.085948,29.575019],[47.965531,29.576298],[47.807043,29.467622],[47.704717,29.363633],[47.837304,29.387505],[47.851152,29.380198],[47.816434,29.337556],[47.857903,29.323029],[47.98574,29.393761],[48.025238,29.354885],[48.100266,29.349954],[48.095376,29.257746],[48.158458,29.017279],[48.225922,28.91828],[48.27947,28.894436],[48.276866,28.839586],[48.328787,28.759955],[48.393565,28.743394],[48.386729,28.675116],[48.366222,28.688707],[48.379893,28.66767],[48.352712,28.661444],[48.351817,28.64053],[48.386729,28.653998],[48.397146,28.583319],[48.432781,28.54048],[47.668129,28.533505],[47.581674,28.631483],[47.549945,28.770596],[47.494496,28.904025],[47.434086,28.994588],[46.532436,29.095745],[46.711856,29.271393],[46.85345,29.44456],[47.144698,30.003338],[47.358225,30.092118],[47.674175,30.098216],[47.948009,29.994045]]],[[[48.338227,29.462795],[48.389008,29.424872],[48.397356,29.387497],[48.316867,29.427013],[48.269242,29.429685],[48.281098,29.471096],[48.338227,29.462795]]],[[[48.352712,29.709784],[48.303071,29.645209],[48.229015,29.599921],[48.185802,29.603949],[48.161632,29.629706],[48.085134,29.767808],[48.046072,29.800482],[48.113292,29.839097],[48.119151,29.873603],[48.085134,29.879869],[48.095063,29.894721],[48.158702,29.879218],[48.160818,29.901557],[48.197439,29.92536],[48.147227,29.935126],[48.12086,29.981391],[48.16212,29.995673],[48.188731,29.983547],[48.344493,29.790595],[48.352712,29.709784]]],[[[48.078868,30.004055],[48.031098,29.971015],[48.010753,29.980455],[48.054698,30.024482],[48.109223,30.027981],[48.078868,30.004055]]]]}}]}
