{"type":"FeatureCollection","features":[{"type":"Feature","properties":{"name":"Lebanon","ISO3166-1-Alpha-3":"LBN","ISO3166-1-Alpha-2":"LB"},"geometry":{"type":"Polygon","coordinates":[[[35.105235,33.089016],[35.105805,33.112454],[35.147634,33.140326],[35.161794,33.176947],[35.174653,33.170152],[35.204763,33.224799],[35.209158,33.254625],[35.188324,33.280015],[35.224783,33.311998],[35.271007,33.457506],[35.349132,33.513861],[35.394379,33.64997],[35.438487,33.711371],[35.481293,33.823676],[35.47047,33.902086],[35.572032,33.90998],[35.613536,33.99315],[35.64088,33.999416],[35.626964,34.044257],[35.647716,34.119127],[35.627208,34.201117],[35.647716,34.222154],[35.665212,34.311347],[35.688731,34.328315],[35.705821,34.316596],[35.750743,34.389797],[35.806163,34.414984],[35.823578,34.434516],[35.805431,34.464911],[35.903331,34.477973],[35.983165,34.538642],[35.989594,34.599677],[35.9699,34.649849],[36.037934,34.62843],[36.26159,34.627242],[36.308925,34.687548],[36.367526,34.629205],[36.440184,34.62936],[36.436256,34.597838],[36.388921,34.596236],[36.383546,34.553809],[36.319881,34.514122],[36.335384,34.493477],[36.433466,34.49433],[36.449795,34.464538],[36.52514,34.422939],[36.518628,34.353641],[36.581984,34.299897],[36.56276,34.262949],[36.604101,34.199102],[36.488449,34.088644],[36.47522,34.053504],[36.391091,34.044719],[36.288565,33.946508],[36.275336,33.897209],[36.36763,33.857547],[36.369594,33.837006],[36.338278,33.821193],[36.231824,33.852534],[36.165678,33.829797],[36.13829,33.850622],[36.05044,33.816438],[35.948431,33.70921],[35.921559,33.640299],[36.029666,33.59764],[36.035247,33.567797],[35.933238,33.527825],[35.919492,33.462351],[35.8211,33.406722],[35.769423,33.342643],[35.698523,33.32267],[35.652143,33.27666],[35.620065,33.269536],[35.603852,33.240091],[35.549489,33.281019],[35.480139,33.087387],[35.34516,33.05558],[35.283665,33.101185],[35.105235,33.089016]]]}}]}
