{"type":"FeatureCollection","features":[{"type":"Feature","properties":{"name":"Liberia","ISO3166-1-Alpha-3":"LBR","ISO3166-1-Alpha-2":"LR"},"geometry":{"type":"Polygon","coordinates":[[[-11.476186,6.91942],[-11.436739,6.938544],[-11.434672,6.980815],[-11.397723,7.012803],[-11.389714,7.073523],[-11.355142,7.084065],[-11.373229,7.138842],[-11.317211,7.213566],[-11.217889,7.25408],[-11.126319,7.368027],[-10.977904,7.484919],[-10.874603,7.530859],[-10.730581,7.705474],[-10.615187,7.769036],[-10.612138,8.031862],[-10.56718,8.063204],[-10.529249,8.124286],[-10.384555,8.142114],[-10.320942,8.183119],[-10.331277,8.272287],[-10.282236,8.484625],[-10.240275,8.493746],[-10.23242,8.477055],[-10.164879,8.524649],[-10.091085,8.510102],[-10.069277,8.486873],[-10.079354,8.439951],[-10.061681,8.422174],[-9.944169,8.488346],[-9.872804,8.500361],[-9.858644,8.487054],[-9.806813,8.506252],[-9.790586,8.565396],[-9.773585,8.563018],[-9.722115,8.435636],[-9.703253,8.487261],[-9.650543,8.464807],[-9.645117,8.443413],[-9.67726,8.39153],[-9.619537,8.392719],[-9.600159,8.410883],[-9.499131,8.343471],[-9.539387,8.314584],[-9.509156,8.265595],[-9.530137,8.185496],[-9.481406,8.164697],[-9.459805,8.068785],[-9.474223,8.028813],[-9.451537,8.051758],[-9.424149,8.026178],[-9.446008,7.950058],[-9.43867,7.866239],[-9.355471,7.741906],[-9.376245,7.680566],[-9.353507,7.62243],[-9.490708,7.376037],[-9.438101,7.421564],[-9.407354,7.378052],[-9.375159,7.41929],[-9.349218,7.421564],[-9.319401,7.411952],[-9.299505,7.376605],[-9.234341,7.381308],[-9.206281,7.298367],[-9.11962,7.237957],[-9.125407,7.190208],[-8.981023,7.250566],[-8.9572,7.286481],[-8.91219,7.250153],[-8.857827,7.273046],[-8.860617,7.35764],[-8.729617,7.50869],[-8.727576,7.622017],[-8.686571,7.694364],[-8.567405,7.688214],[-8.566527,7.623412],[-8.44364,7.537112],[-8.425605,7.50192],[-8.387675,7.314955],[-8.305354,7.146903],[-8.284115,7.017867],[-8.319978,6.95999],[-8.333673,6.882578],[-8.314966,6.850281],[-8.337497,6.777262],[-8.461313,6.633421],[-8.61872,6.492835],[-8.556501,6.487021],[-8.497229,6.431366],[-8.467515,6.487073],[-8.418267,6.451209],[-8.405089,6.436327],[-8.419042,6.407646],[-8.405968,6.372248],[-8.423693,6.351991],[-8.411807,6.340028],[-8.352948,6.36106],[-8.302718,6.340648],[-8.29507,6.313363],[-8.170582,6.274011],[-8.033019,6.301761],[-7.91437,6.271737],[-7.846622,6.197478],[-7.861815,6.08149],[-7.809674,6.071207],[-7.786471,6.025111],[-7.800682,5.981729],[-7.786626,5.958165],[-7.717173,5.900752],[-7.680483,5.94093],[-7.584158,5.883699],[-7.559146,5.839851],[-7.527779,5.858842],[-7.494396,5.806184],[-7.478583,5.859876],[-7.446543,5.845949],[-7.449489,5.732364],[-7.384118,5.568964],[-7.41192,5.560359],[-7.393627,5.523979],[-7.419982,5.523127],[-7.408148,5.511784],[-7.449954,5.422771],[-7.429697,5.374298],[-7.396934,5.366444],[-7.389751,5.317144],[-7.418793,5.260455],[-7.439929,5.290169],[-7.475689,5.264228],[-7.488918,5.140669],[-7.515841,5.091809],[-7.546847,5.0977],[-7.575786,5.072069],[-7.549534,4.913887],[-7.574959,4.921561],[-7.6055,4.897428],[-7.606017,4.816193],[-7.579558,4.784283],[-7.572479,4.723356],[-7.564314,4.425829],[-7.579197,4.387149],[-7.540666,4.352845],[-7.712717,4.361518],[-7.801015,4.406317],[-7.832875,4.452216],[-7.942006,4.504869],[-8.257314,4.579983],[-8.300201,4.627265],[-8.438547,4.676174],[-8.607533,4.786933],[-8.778147,4.854315],[-8.874338,4.930121],[-8.991322,4.967515],[-9.10497,5.031562],[-9.278717,5.145738],[-9.292144,5.181627],[-9.354075,5.211168],[-9.470815,5.320461],[-9.508046,5.399604],[-9.593658,5.430325],[-9.580719,5.464504],[-9.596995,5.488349],[-9.696767,5.546373],[-9.979644,5.798082],[-10.046213,5.861721],[-10.055531,5.91177],[-10.226552,6.043606],[-10.353668,6.102362],[-10.36148,6.129218],[-10.333567,6.136054],[-10.444692,6.203843],[-10.463938,6.197496],[-10.389394,6.152167],[-10.381947,6.129218],[-10.456695,6.177476],[-10.659413,6.227484],[-10.788319,6.292955],[-10.807851,6.310858],[-10.800364,6.327826],[-10.772369,6.307359],[-10.792348,6.359036],[-10.759389,6.404202],[-10.800364,6.389879],[-10.82433,6.43773],[-10.895904,6.49901],[-11.053619,6.584174],[-11.353179,6.701158],[-11.374867,6.726874],[-11.368276,6.811347],[-11.381947,6.836819],[-11.476186,6.91942]]]}}]}
