{"type":"FeatureCollection","features":[{"type":"Feature","properties":{"name":"Lesotho","ISO3166-1-Alpha-3":"LSO","ISO3166-1-Alpha-2":"LS"},"geometry":{"type":"Polygon","coordinates":[[[28.980846,-28.909035],[29.040532,-28.922988],[29.055776,-28.965363],[29.125953,-28.992441],[29.208429,-29.068922],[29.311781,-29.089799],[29.316846,-29.147367],[29.357463,-29.183334],[29.435908,-29.342394],[29.399528,-29.430347],[29.282739,-29.485641],[29.275143,-29.532253],[29.296279,-29.571631],[29.278605,-29.613592],[29.1613,-29.666922],[29.113757,-29.750121],[29.105799,-29.825569],[29.132981,-29.852027],[29.144246,-29.919723],[28.795637,-30.089428],[28.639678,-30.131493],[28.540562,-30.113303],[28.456226,-30.146996],[28.383879,-30.144205],[28.294376,-30.242494],[28.200635,-30.282492],[28.238462,-30.352255],[28.125394,-30.457261],[28.141207,-30.500773],[28.120846,-30.553379],[28.081572,-30.586866],[28.078782,-30.658799],[27.936568,-30.640816],[27.858227,-30.603712],[27.743608,-30.600302],[27.598604,-30.490334],[27.529668,-30.382227],[27.477475,-30.356286],[27.452102,-30.310087],[27.366164,-30.311017],[27.343685,-30.212935],[27.381357,-30.142655],[27.312782,-30.131596],[27.265911,-30.033308],[27.198835,-29.978531],[27.080135,-29.735135],[27.002155,-29.666508],[27.022412,-29.616176],[27.042359,-29.628061],[27.062203,-29.600156],[27.085871,-29.614419],[27.128142,-29.578555],[27.263121,-29.541141],[27.316038,-29.487191],[27.350247,-29.480267],[27.417634,-29.396551],[27.406265,-29.363995],[27.445849,-29.331955],[27.45329,-29.291648],[27.528893,-29.260952],[27.521503,-29.21651],[27.61297,-29.133828],[27.630747,-29.07254],[27.664957,-29.065718],[27.63917,-29.035333],[27.711672,-28.990994],[27.720147,-28.945932],[27.754771,-28.925468],[27.747432,-28.908622],[27.861327,-28.915443],[27.926233,-28.853431],[27.977496,-28.880717],[28.013566,-28.878443],[28.154953,-28.70233],[28.297063,-28.706877],[28.382949,-28.626469],[28.562473,-28.606522],[28.634303,-28.570761],[28.66655,-28.59722],[28.699519,-28.68848],[28.743857,-28.689514],[28.787679,-28.748735],[28.872842,-28.783565],[28.980846,-28.909035]]]}}]}
