{"type":"FeatureCollection","features":[{"type":"Feature","properties":{"name":"Luxembourg","ISO3166-1-Alpha-3":"LUX","ISO3166-1-Alpha-2":"LU"},"geometry":{"type":"Polygon","coordinates":[[[6.117487,50.120456],[6.096403,50.048626],[6.15397,49.951216],[6.172677,49.956228],[6.2227,49.887137],[6.286779,49.86104],[6.302592,49.834944],[6.502579,49.79567],[6.485526,49.733761],[6.499686,49.712212],[6.402741,49.655782],[6.417933,49.639142],[6.350754,49.566588],[6.345307,49.455349],[6.193554,49.499409],[6.13609,49.495275],[6.078006,49.452021],[5.9607,49.441324],[5.928144,49.482304],[5.839571,49.499874],[5.790685,49.537753],[5.8374,49.56111],[5.846909,49.576717],[5.829959,49.582763],[5.885459,49.643534],[5.845772,49.666582],[5.850216,49.714021],[5.805361,49.721876],[5.778489,49.773035],[5.727743,49.800217],[5.731877,49.859955],[5.758129,49.858198],[5.718958,49.891374],[5.812596,49.977571],[5.802674,50.002479],[5.836367,50.01855],[5.872437,50.096892],[5.941063,50.128311],[5.96163,50.165621],[5.998321,50.174975],[6.038628,50.148413],[6.084207,50.159317],[6.117487,50.120456]]]}}]}
