{"type":"FeatureCollection","features":[{"type":"Feature","properties":{"name":"Latvia","ISO3166-1-Alpha-3":"LVA","ISO3166-1-Alpha-2":"LV"},"geometry":{"type":"Polygon","coordinates":[[[27.352935,57.527601],[27.528169,57.528479],[27.511323,57.430397],[27.640824,57.389005],[27.840295,57.290639],[27.824327,57.15907],[27.682217,57.103699],[27.745469,57.067991],[27.75074,57.042359],[27.715135,56.957403],[27.62837,56.844154],[27.786397,56.871258],[27.913521,56.82015],[27.918895,56.805888],[27.865461,56.742687],[27.98101,56.687006],[28.010982,56.587555],[28.126117,56.547764],[28.093251,56.501591],[28.164255,56.437952],[28.167148,56.369868],[28.217275,56.270727],[28.148907,56.142414],[28.110976,56.156806],[27.92706,56.109367],[27.880654,56.063866],[27.781229,56.016375],[27.744435,55.959738],[27.64501,55.922841],[27.592713,55.794244],[27.438821,55.79874],[27.349627,55.831219],[27.263018,55.787216],[27.151448,55.832459],[26.981071,55.826878],[26.822838,55.70611],[26.743049,55.682856],[26.64011,55.695568],[26.594531,55.666991],[26.48105,55.678308],[26.279718,55.743239],[26.178639,55.84959],[25.696602,56.087895],[25.661875,56.140812],[25.073125,56.197811],[24.973183,56.300751],[24.910138,56.421958],[24.870967,56.442602],[24.845852,56.40493],[24.678628,56.377283],[24.481327,56.26884],[24.414354,56.265507],[24.318546,56.29858],[24.138919,56.257446],[23.858109,56.334392],[23.724991,56.328811],[23.706697,56.354442],[23.481595,56.330103],[23.288428,56.373046],[23.17257,56.357956],[23.112728,56.310879],[23.062292,56.304161],[23.016714,56.32385],[22.956976,56.401985],[22.924523,56.412113],[22.666347,56.349094],[22.511731,56.395964],[22.214902,56.390383],[22.094082,56.41741],[21.684495,56.310104],[21.596025,56.307882],[21.419292,56.237395],[21.327618,56.224373],[21.229639,56.163188],[21.190365,56.084459],[21.053396,56.072618],[20.973399,56.232001],[20.970551,56.388983],[21.003184,56.434801],[21.006358,56.519965],[21.044688,56.462104],[21.030528,56.408108],[21.061778,56.38703],[21.079763,56.403062],[21.05836,56.503648],[20.992198,56.548896],[21.05836,56.688666],[21.052745,56.828925],[21.222911,56.907701],[21.382498,57.008938],[21.413585,57.073188],[21.401052,57.151313],[21.433604,57.306464],[21.729666,57.573798],[21.999278,57.600328],[22.483735,57.742499],[22.610362,57.754625],[22.590994,57.644761],[22.656098,57.585761],[23.031423,57.394477],[23.130219,57.370795],[23.198741,57.224189],[23.222423,57.207017],[23.260916,57.098944],[23.340099,57.05858],[23.508556,57.031236],[23.585134,56.979071],[23.69516,56.967271],[23.952891,57.013251],[24.035655,57.068996],[24.210785,57.123725],[24.400645,57.258124],[24.405528,57.344468],[24.358572,57.55036],[24.374766,57.613471],[24.357677,57.685492],[24.299571,57.743842],[24.285981,57.832587],[24.306159,57.868186],[24.378181,57.859441],[24.441639,57.908094],[24.53383,57.945069],[24.684829,57.947575],[24.733508,57.992198],[24.81681,57.976669],[24.949309,58.006435],[25.094209,58.067309],[25.16697,58.058731],[25.216786,57.985376],[25.284379,58.00814],[25.249549,58.051186],[25.250686,58.068498],[25.281692,58.073407],[25.324583,58.034753],[25.541676,57.96282],[25.601517,57.912203],[25.730295,57.923132],[25.792616,57.855979],[26.014515,57.842827],[26.024747,57.774356],[26.168511,57.70405],[26.297185,57.599147],[26.430924,57.561707],[26.49955,57.515819],[26.590087,57.520366],[26.666982,57.56486],[26.795759,57.571319],[26.872654,57.627181],[26.981071,57.608991],[27.085354,57.549434],[27.319965,57.516129],[27.352935,57.527601]]]}}]}
