{"type":"FeatureCollection","features":[{"type":"Feature","properties":{"name":"Morocco","ISO3166-1-Alpha-3":"MAR","ISO3166-1-Alpha-2":"MA"},"geometry":{"type":"Polygon","coordinates":[[[-8.817035,27.661464],[-8.773387,27.46003],[-8.801706,27.360424],[-8.795841,27.307688],[-8.752872,27.190486],[-8.752872,27.150463],[-8.793903,27.12018],[-9.000919,27.089924],[-9.412056,27.08796],[-9.734362,26.860429],[-9.816864,26.84968],[-9.899365,26.84968],[-10.031709,26.910219],[-10.188443,26.860429],[-10.250455,26.860429],[-10.550282,26.990292],[-10.756781,27.019592],[-10.921835,27.009825],[-11.391574,26.882908],[-11.36031,26.793043],[-11.315868,26.744208],[-11.3369,26.632897],[-11.510688,26.469807],[-11.683546,26.212975],[-11.717239,26.103576],[-12.029752,26.03035],[-12.060009,25.990301],[-12.080059,25.870205],[-12.169873,25.639728],[-12.310019,25.110432],[-12.430141,24.830165],[-12.629845,24.679761],[-12.990184,24.4698],[-13.060025,24.400476],[-13.229963,24.0899],[-13.31001,23.980553],[-13.769982,23.790125],[-13.839797,23.750076],[-13.890129,23.690493],[-14.019992,23.410252],[-14.100065,23.099676],[-14.169906,22.759852],[-14.189904,22.450259],[-14.220187,22.309647],[-14.310052,22.190507],[-14.439915,22.080152],[-14.629852,21.860424],[-14.609827,21.750069],[-14.669875,21.599665],[-14.749974,21.500084],[-14.839813,21.450268],[-14.970167,21.440501],[-15.45993,21.450268],[-15.749964,21.490317],[-16.040024,21.500084],[-16.189886,21.48055],[-16.729956,21.469802],[-17.013743,21.419971],[-16.947662,21.736029],[-16.966908,21.781155],[-16.92101,21.931301],[-16.81664,22.130561],[-16.706776,22.275458],[-16.659006,22.295071],[-16.631703,22.273912],[-16.52184,22.314887],[-16.466624,22.377387],[-16.429351,22.510443],[-16.357289,22.583075],[-16.336822,22.75373],[-16.296457,22.832099],[-16.289622,22.899807],[-16.238637,22.911566],[-16.163238,22.993232],[-16.159535,23.082465],[-16.220204,23.075873],[-16.213124,23.094428],[-16.139272,23.178534],[-16.060414,23.34455],[-15.981191,23.445787],[-15.956451,23.531724],[-15.830393,23.685981],[-15.772613,23.787828],[-15.775136,23.911933],[-15.795318,23.856635],[-15.888173,23.810736],[-15.939605,23.696234],[-15.994862,23.645006],[-16.003163,23.672105],[-15.939605,23.774807],[-15.840932,23.902655],[-15.768137,23.959866],[-15.620107,24.026272],[-15.444692,24.221869],[-15.298248,24.34516],[-15.203969,24.467475],[-15.014801,24.562445],[-14.999989,24.614488],[-14.895619,24.705715],[-14.836049,24.918687],[-14.829213,25.050238],[-14.849721,25.214179],[-14.819244,25.330227],[-14.782053,25.446926],[-14.68517,25.590888],[-14.620961,25.783596],[-14.513905,25.936957],[-14.486562,26.015448],[-14.492828,26.132717],[-14.466135,26.194241],[-14.400746,26.266303],[-14.29894,26.302232],[-14.180247,26.424384],[-14.046864,26.444403],[-13.923736,26.500881],[-13.619985,26.68891],[-13.561106,26.749091],[-13.480336,26.911689],[-13.402455,27.177191],[-13.301096,27.324449],[-13.307932,27.344957],[-13.240834,27.465399],[-13.171254,27.685004],[-13.045155,27.759833],[-12.952382,27.928616],[-12.838938,27.970404],[-12.657826,27.998033],[-12.513539,27.995429],[-12.335032,28.047268],[-12.061431,28.089016],[-12.023101,28.119574],[-11.485585,28.325629],[-11.325917,28.515204],[-11.266469,28.551581],[-11.0631,28.752387],[-10.573801,28.990424],[-10.450917,29.09219],[-10.320872,29.257961],[-10.248402,29.299384],[-10.086985,29.509955],[-10.052968,29.599921],[-9.820221,29.838935],[-9.655141,30.126899],[-9.611643,30.404364],[-9.666249,30.459296],[-9.700063,30.542711],[-9.888539,30.648261],[-9.886708,30.686672],[-9.812896,30.827135],[-9.827707,31.06745],[-9.847524,31.121283],[-9.80663,31.343451],[-9.847524,31.402411],[-9.694203,31.625718],[-9.667307,31.731147],[-9.366119,32.026313],[-9.328114,32.130439],[-9.27774,32.196601],[-9.26476,32.330634],[-9.291982,32.350816],[-9.24885,32.452541],[-9.27831,32.529527],[-9.259918,32.57689],[-9.112172,32.682847],[-8.998525,32.797105],[-8.867787,32.881903],[-8.62914,33.127631],[-8.621002,33.173529],[-8.529164,33.268704],[-8.45165,33.264228],[-8.284657,33.389838],[-7.891428,33.503363],[-7.86974,33.526557],[-7.700999,33.58275],[-7.667551,33.612698],[-7.606191,33.608344],[-7.529124,33.632636],[-7.406361,33.726996],[-7.35261,33.724677],[-7.229319,33.80093],[-7.031809,33.874254],[-6.822092,34.039618],[-6.557932,34.417711],[-6.292104,34.880805],[-6.205393,35.124579],[-6.023915,35.501166],[-5.927235,35.780748],[-5.873402,35.801988],[-5.769276,35.792792],[-5.693512,35.834296],[-5.598988,35.822333],[-5.468861,35.910346],[-5.398859,35.924504],[-5.340728,35.847357],[-5.318756,35.701728],[-5.276763,35.685207],[-5.24942,35.584621],[-5.150787,35.516099],[-5.066274,35.417467],[-4.988515,35.387885],[-4.909332,35.314521],[-4.770497,35.241034],[-4.376047,35.151842],[-3.919342,35.266832],[-3.909413,35.255276],[-3.929529,35.24382],[-3.903901,35.214173],[-3.787465,35.209215],[-3.764801,35.218451],[-3.747141,35.263658],[-3.699574,35.290839],[-3.590972,35.233303],[-3.412913,35.197943],[-3.319244,35.201809],[-3.195139,35.238227],[-3.118031,35.294135],[-3.077056,35.287909],[-2.968577,35.446438],[-2.952219,35.433051],[-2.963043,35.373481],[-2.947825,35.329779],[-2.96692,35.313866],[-2.963768,35.286219],[-2.899037,35.259996],[-2.90982,35.186713],[-2.856068,35.131293],[-2.748118,35.115953],[-2.868276,35.217353],[-2.878407,35.246324],[-2.761098,35.143256],[-2.666737,35.108222],[-2.517486,35.099351],[-2.416737,35.149156],[-2.275258,35.109565],[-2.222564,35.089301],[-2.193789,35.003601],[-2.061239,34.929704],[-2.01628,34.926241],[-1.979745,34.865263],[-1.769526,34.741343],[-1.871121,34.596649],[-1.750664,34.494175],[-1.702966,34.479679],[-1.809626,34.372451],[-1.746064,34.290311],[-1.669635,34.079213],[-1.718728,33.898087],[-1.703225,33.761816],[-1.746788,33.702388],[-1.6624,33.644692],[-1.617338,33.554439],[-1.612739,33.521469],[-1.683226,33.36923],[-1.674234,33.237972],[-1.623591,33.196605],[-1.571398,33.111985],[-1.499516,33.060205],[-1.502978,32.974629],[-1.558789,32.93365],[-1.423345,32.742395],[-1.32702,32.69891],[-1.031999,32.4944],[-1.123157,32.417945],[-1.217983,32.392623],[-1.244131,32.356915],[-1.276636,32.200852],[-1.309554,32.167443],[-1.305161,32.151165],[-1.232711,32.163723],[-1.195607,32.146049],[-1.210335,32.08967],[-2.516147,32.1322],[-2.695567,32.08967],[-2.881189,32.076286],[-2.938731,32.048639],[-2.827836,31.794586],[-3.511564,31.672745],[-3.591378,31.678274],[-3.659507,31.647821],[-3.673484,31.389234],[-3.747467,31.385166],[-3.815189,31.337158],[-3.814982,31.220524],[-3.842836,31.170192],[-3.810796,31.142906],[-3.731421,31.176341],[-3.689718,31.125595],[-3.624141,31.086527],[-3.608741,31.030872],[-3.554674,30.955927],[-3.659507,30.837116],[-3.645529,30.711317],[-3.834228,30.627452],[-4.001959,30.592507],[-4.155714,30.585519],[-4.274524,30.557563],[-4.372368,30.508641],[-4.484189,30.382842],[-4.623966,30.284999],[-4.875564,30.180166],[-5.176083,29.97749],[-5.273927,29.886635],[-5.43467,29.642026],[-5.539503,29.523216],[-5.637346,29.495261],[-5.721212,29.523216],[-5.756156,29.614071],[-6.000765,29.579127],[-6.27333,29.579127],[-6.699649,29.516227],[-6.783515,29.446339],[-6.958236,29.509238],[-7.146934,29.509238],[-7.258755,29.467305],[-7.34961,29.383439],[-7.619453,29.389422],[-7.653611,29.376193],[-8.036326,29.099853],[-8.182312,29.035541],[-8.368451,28.916531],[-8.430411,28.841006],[-8.667606,28.711685],[-8.682385,28.6659],[-8.682385,27.661439],[-8.817035,27.661464]]]}}]}
