{"type":"FeatureCollection","features":[{"type":"Feature","properties":{"name":"Montenegro","ISO3166-1-Alpha-3":"MNE","ISO3166-1-Alpha-2":"ME"},"geometry":{"type":"Polygon","coordinates":[[[18.49643,42.416327],[18.492855,42.442372],[18.437148,42.493402],[18.437355,42.559212],[18.492132,42.564767],[18.486654,42.58983],[18.538434,42.618304],[18.550009,42.668069],[18.453891,42.793151],[18.443659,42.834467],[18.473322,42.862553],[18.433531,42.954201],[18.483037,43.014637],[18.638996,43.020243],[18.620599,43.122563],[18.688399,43.224469],[18.664318,43.233176],[18.833506,43.324153],[18.821207,43.341387],[18.923423,43.346838],[18.992463,43.267102],[19.024709,43.298728],[19.069668,43.30883],[19.00993,43.410995],[18.968278,43.448098],[18.946264,43.443938],[18.951225,43.463808],[18.905647,43.490628],[18.977477,43.546232],[19.054991,43.5067],[19.122791,43.535948],[19.195345,43.532796],[19.175191,43.509619],[19.192244,43.454532],[19.372285,43.384226],[19.598111,43.176203],[19.713556,43.165609],[19.761202,43.108739],[19.805127,43.089955],[19.872203,43.090368],[19.92915,43.113907],[20.116942,42.976654],[20.223189,42.957663],[20.35362,42.890975],[20.345352,42.827439],[20.217608,42.802737],[20.183398,42.742508],[20.076325,42.773437],[20.026508,42.743206],[20.03612,42.707989],[20.10392,42.653108],[20.075704,42.603085],[20.077048,42.55991],[20.064956,42.546758],[20.039221,42.557765],[19.981757,42.510765],[19.907549,42.506399],[19.801406,42.468132],[19.75159,42.493402],[19.73433,42.524382],[19.746009,42.5989],[19.722134,42.64608],[19.676039,42.646675],[19.621779,42.604997],[19.588086,42.532857],[19.417243,42.374107],[19.400397,42.325893],[19.274926,42.191276],[19.282058,42.164559],[19.372491,42.104253],[19.350581,42.027823],[19.371045,41.98656],[19.346447,41.961548],[19.365082,41.852362],[19.310232,41.894517],[19.170258,41.937974],[19.13795,41.985297],[19.139171,42.042426],[19.08253,42.081204],[19.083832,42.110093],[19.048676,42.140204],[19.01059,42.139553],[18.913341,42.222235],[18.885997,42.284369],[18.831391,42.277533],[18.817638,42.291164],[18.778575,42.27147],[18.714529,42.325263],[18.678477,42.385972],[18.61671,42.368069],[18.545177,42.42357],[18.562836,42.438544],[18.70045,42.392971],[18.687348,42.482896],[18.654145,42.451809],[18.502452,42.455634],[18.529796,42.400377],[18.49643,42.416327]]]}}]}
