{"type":"FeatureCollection","features":[{"type":"Feature","properties":{"name":"Madagascar","ISO3166-1-Alpha-3":"MDG","ISO3166-1-Alpha-2":"MG"},"geometry":{"type":"MultiPolygon","coordinates":[[[[44.254731,-20.376072],[44.261241,-20.30755],[44.334239,-20.16961],[44.438975,-20.055352],[44.473888,-19.986261],[44.471853,-19.87949],[44.398285,-19.824151],[44.37086,-19.774021],[44.409679,-19.70143],[44.404959,-19.610121],[44.483735,-19.523207],[44.479747,-19.483982],[44.444672,-19.385837],[44.378103,-19.312595],[44.344005,-19.235528],[44.234386,-19.0888],[44.257335,-18.803888],[44.185883,-18.610772],[44.041759,-18.396905],[44.04184,-18.198012],[44.000987,-17.937921],[44.035655,-17.769464],[43.92921,-17.601658],[43.924001,-17.546482],[43.943126,-17.455743],[44.138194,-17.170505],[44.151703,-17.094415],[44.179698,-17.095147],[44.238048,-16.970961],[44.430675,-16.700372],[44.439789,-16.655532],[44.411794,-16.573012],[44.428477,-16.537693],[44.439789,-16.56699],[44.455577,-16.540948],[44.462901,-16.485447],[44.398204,-16.340427],[44.436046,-16.278985],[44.444672,-16.195733],[44.536957,-16.176528],[44.782074,-16.190851],[44.868337,-16.22088],[44.891368,-16.191176],[45.040212,-16.118097],[45.138682,-15.990899],[45.266368,-15.923923],[45.297862,-16.111993],[45.328949,-16.110121],[45.406261,-16.054864],[45.410411,-16.030532],[45.370779,-15.994561],[45.379405,-15.97381],[45.570079,-15.943048],[45.590343,-15.987563],[45.580414,-16.040785],[45.597911,-16.032403],[45.604747,-16.051853],[45.646251,-15.891209],[45.62143,-15.850763],[45.660899,-15.803806],[45.704275,-15.782485],[45.802013,-15.816583],[45.89796,-15.774591],[45.948578,-15.774184],[45.958751,-15.839939],[46.066091,-15.861912],[46.049815,-15.826349],[46.070974,-15.778578],[46.009939,-15.814386],[46.015798,-15.79225],[46.074474,-15.73089],[46.144216,-15.703709],[46.235525,-15.717462],[46.249034,-15.758071],[46.207367,-15.819513],[46.331065,-15.977227],[46.337901,-15.936212],[46.365082,-15.963556],[46.384939,-15.959161],[46.38559,-15.902114],[46.411957,-15.899672],[46.468761,-15.95672],[46.479177,-15.948907],[46.444347,-15.881036],[46.383149,-15.834893],[46.299001,-15.815688],[46.355642,-15.732517],[46.303722,-15.710219],[46.332693,-15.630141],[46.482432,-15.491143],[46.488617,-15.511651],[46.604747,-15.424249],[46.680431,-15.41546],[46.636241,-15.398533],[46.643321,-15.378025],[46.700938,-15.364353],[46.879405,-15.22503],[46.949474,-15.198419],[46.971446,-15.198419],[46.997325,-15.282159],[47.074718,-15.323989],[47.011567,-15.40545],[46.958263,-15.549574],[46.997244,-15.494724],[47.232107,-15.433282],[47.231456,-15.409763],[47.199474,-15.40016],[47.179047,-15.365492],[47.165538,-15.295668],[47.111827,-15.306248],[47.119884,-15.257908],[47.087901,-15.254653],[47.055919,-15.193617],[47.09197,-15.134942],[47.20574,-15.046645],[47.241384,-14.969659],[47.291759,-14.923435],[47.371837,-14.890558],[47.368337,-14.846612],[47.308604,-14.875177],[47.283702,-14.846938],[47.444835,-14.671563],[47.465343,-14.66546],[47.496104,-14.711602],[47.493012,-14.78338],[47.5171,-14.819594],[47.420665,-14.96559],[47.410411,-15.087823],[47.427745,-15.107599],[47.482432,-15.080255],[47.52296,-14.998712],[47.562511,-14.98504],[47.651866,-14.758884],[47.79713,-14.566339],[47.859141,-14.640802],[47.914399,-14.662042],[47.920665,-14.709731],[47.93629,-14.671563],[47.914399,-14.640802],[47.968598,-14.622166],[47.996267,-14.675388],[48.000255,-14.762302],[48.022472,-14.707696],[48.013031,-14.63006],[47.926036,-14.566502],[47.840017,-14.591404],[47.803884,-14.545587],[47.75294,-14.600518],[47.721365,-14.545343],[47.735606,-14.524835],[47.701508,-14.446384],[47.721934,-14.338067],[47.773692,-14.290297],[47.790863,-14.22324],[47.814464,-14.215997],[47.861013,-14.248793],[47.943533,-14.232517],[47.955333,-14.185235],[47.941742,-14.134861],[47.906993,-14.099705],[47.920095,-14.086033],[48.013682,-14.140558],[47.978526,-14.262384],[47.982758,-14.325372],[48.033946,-14.262384],[48.010509,-14.209568],[48.04477,-14.151625],[48.048188,-14.08408],[47.941091,-14.004083],[48.0171,-13.952813],[47.917491,-13.897638],[47.875824,-13.784275],[47.8838,-13.728448],[47.927501,-13.709242],[47.895193,-13.678969],[47.904307,-13.603204],[47.917817,-13.582615],[47.952973,-13.590265],[47.965587,-13.520766],[47.984874,-13.506768],[48.003103,-13.517348],[47.982595,-13.543145],[47.989513,-13.558364],[48.010509,-13.551528],[48.01531,-13.580173],[48.050955,-13.544122],[48.031261,-13.517185],[48.06837,-13.517348],[48.099376,-13.599379],[48.142426,-13.595392],[48.175304,-13.715997],[48.194021,-13.726983],[48.192393,-13.76686],[48.24822,-13.799981],[48.298676,-13.798272],[48.341156,-13.755548],[48.324555,-13.729669],[48.332042,-13.661391],[48.359548,-13.599379],[48.333344,-13.546319],[48.364268,-13.543552],[48.393565,-13.585707],[48.427582,-13.524184],[48.489757,-13.517348],[48.489757,-13.497003],[48.53419,-13.520766],[48.48227,-13.415134],[48.48227,-13.360447],[48.524425,-13.410903],[48.604991,-13.445489],[48.710948,-13.432306],[48.780121,-13.383884],[48.805024,-13.35296],[48.787608,-13.333103],[48.839203,-13.260431],[48.818696,-13.176365],[48.843516,-13.080824],[48.905528,-12.961114],[48.941661,-12.928399],[48.955333,-12.8117],[48.914724,-12.749607],[48.901866,-12.682387],[48.865896,-12.647231],[48.886974,-12.56463],[48.867931,-12.551446],[48.839203,-12.56463],[48.838715,-12.535252],[48.773692,-12.435235],[48.770844,-12.454767],[48.729991,-12.434991],[48.759613,-12.398126],[48.852712,-12.413751],[48.904063,-12.488946],[48.945811,-12.479913],[48.98463,-12.333429],[49.024181,-12.325779],[49.065196,-12.277276],[49.079926,-12.29518],[49.119802,-12.242608],[49.151215,-12.250746],[49.161388,-12.181736],[49.201508,-12.146661],[49.14088,-12.098565],[49.093028,-12.098565],[49.161388,-12.050714],[49.223399,-12.106052],[49.216807,-12.065037],[49.181895,-12.043878],[49.242524,-11.953709],[49.278087,-11.947686],[49.315929,-11.985935],[49.349132,-12.066176],[49.373057,-12.198175],[49.329438,-12.157159],[49.284923,-12.178399],[49.263845,-12.140232],[49.240001,-12.162856],[49.249197,-12.180271],[49.229666,-12.222101],[49.291759,-12.239435],[49.271251,-12.263604],[49.281505,-12.284845],[49.30714,-12.255141],[49.319509,-12.29518],[49.349376,-12.298517],[49.366873,-12.291599],[49.358409,-12.246189],[49.381358,-12.222833],[49.421723,-12.274347],[49.456228,-12.373468],[49.496593,-12.346124],[49.539399,-12.378188],[49.538097,-12.406996],[49.490408,-12.406996],[49.52768,-12.442641],[49.558604,-12.420668],[49.586436,-12.482029],[49.594981,-12.529718],[49.592459,-12.542657],[49.574718,-12.529718],[49.572113,-12.489516],[49.580903,-12.573663],[49.562511,-12.627862],[49.574718,-12.656671],[49.600271,-12.647231],[49.653331,-12.694757],[49.675304,-12.757094],[49.654796,-12.804864],[49.688813,-12.804864],[49.719493,-12.739923],[49.744151,-12.743422],[49.736664,-12.757094],[49.804942,-12.804864],[49.814708,-12.865818],[49.87379,-12.88836],[49.85255,-12.924412],[49.90447,-12.962335],[49.942149,-13.033868],[49.942149,-13.219496],[49.973155,-13.271091],[49.976899,-13.346124],[50.032888,-13.360528],[50.040538,-13.497003],[50.07252,-13.544122],[50.079356,-13.606134],[50.099294,-13.615167],[50.097423,-13.675714],[50.142914,-13.783136],[50.17628,-14.085626],[50.164236,-14.223077],[50.212901,-14.287205],[50.18922,-14.439142],[50.210785,-14.615167],[50.240896,-14.705987],[50.209727,-14.750665],[50.26531,-14.797784],[50.355235,-15.033136],[50.490001,-15.219496],[50.503917,-15.316176],[50.483409,-15.443455],[50.429861,-15.600274],[50.340994,-15.763604],[50.336762,-15.811293],[50.230154,-15.970961],[50.168142,-15.984633],[50.14796,-15.935317],[50.1067,-15.92254],[50.03891,-15.85947],[50.024669,-15.771173],[49.970225,-15.718032],[49.975841,-15.626642],[49.90561,-15.561619],[49.901134,-15.422296],[49.717784,-15.44671],[49.638438,-15.54461],[49.66212,-15.641778],[49.64796,-15.683038],[49.677257,-15.719334],[49.733735,-15.905694],[49.683604,-16.020278],[49.689789,-16.086847],[49.72877,-16.139418],[49.822765,-16.179864],[49.849864,-16.240818],[49.826915,-16.373305],[49.863129,-16.444513],[49.854015,-16.539646],[49.796641,-16.641046],[49.723155,-16.708103],[49.724946,-16.754002],[49.768321,-16.815606],[49.840343,-16.827569],[49.608409,-16.89658],[49.431326,-17.283868],[49.421397,-17.355157],[49.456228,-17.417169],[49.509613,-17.727716],[49.41391,-18.067071],[49.440766,-18.154229],[49.384125,-18.225518],[49.359223,-18.424005],[49.243175,-18.656834],[49.191173,-18.842543],[49.076915,-19.065606],[48.98585,-19.378839],[48.85963,-19.684666],[48.823741,-19.902765],[48.791352,-19.993097],[48.759532,-19.955499],[48.750499,-19.965753],[48.781749,-20.037205],[48.699229,-20.199884],[48.562266,-20.577081],[48.462413,-20.932224],[48.430186,-20.979181],[48.434418,-20.993585],[48.454926,-20.984552],[48.455577,-21.014093],[48.378591,-21.223891],[48.3567,-21.353692],[48.201834,-21.796157],[47.900645,-22.481134],[47.833832,-22.900974],[47.76238,-23.110121],[47.738048,-23.255466],[47.619477,-23.59059],[47.596528,-23.563165],[47.574962,-23.598728],[47.616059,-23.614435],[47.620128,-23.640395],[47.568696,-23.852634],[47.496755,-24.016371],[47.448497,-24.045099],[47.448253,-24.084649],[47.370779,-24.270115],[47.324718,-24.269627],[47.33839,-24.324314],[47.312266,-24.485935],[47.20338,-24.716485],[47.194102,-24.778253],[47.128917,-24.844903],[47.12615,-24.93434],[47.105642,-24.879164],[47.094574,-24.960138],[46.964692,-25.065688],[46.926606,-25.043715],[46.769786,-25.153497],[46.653656,-25.183852],[46.386567,-25.164809],[46.237641,-25.198175],[45.774181,-25.408136],[45.674001,-25.494399],[45.611583,-25.516534],[45.561209,-25.559991],[45.162608,-25.598565],[45.136078,-25.584161],[45.118175,-25.529555],[44.980968,-25.471856],[44.834727,-25.344008],[44.727794,-25.303643],[44.369477,-25.256768],[44.296397,-25.153497],[44.384044,-25.22088],[44.409434,-25.210545],[44.404959,-25.188165],[44.247569,-25.127211],[44.187185,-25.06699],[44.108572,-25.048028],[44.028819,-24.998956],[44.000987,-24.865411],[43.918305,-24.741957],[43.918305,-24.619073],[43.855479,-24.551202],[43.839854,-24.505792],[43.706716,-24.406183],[43.672862,-24.334893],[43.656261,-24.185317],[43.665212,-23.878595],[43.624766,-23.761895],[43.641612,-23.63893],[43.748302,-23.570082],[43.73463,-23.50921],[43.761241,-23.4638],[43.631033,-23.344822],[43.583181,-23.07586],[43.487559,-23.00156],[43.361176,-22.843194],[43.315684,-22.645278],[43.284923,-22.587498],[43.278005,-22.425877],[43.222911,-22.254815],[43.246837,-22.218357],[43.295177,-22.23447],[43.301768,-22.218845],[43.295177,-22.166111],[43.260916,-22.165623],[43.247244,-22.125584],[43.246837,-22.035089],[43.302094,-21.864435],[43.308849,-21.932061],[43.329275,-21.905043],[43.336192,-21.768813],[43.431488,-21.662286],[43.472667,-21.672052],[43.472667,-21.405206],[43.507498,-21.309503],[43.523285,-21.326755],[43.586925,-21.274835],[43.680024,-21.266046],[43.73463,-21.281671],[43.812755,-21.224298],[43.86378,-21.076267],[43.901541,-20.882908],[43.96461,-20.767348],[44.036388,-20.725518],[44.090343,-20.630548],[44.125824,-20.498305],[44.151703,-20.465997],[44.158539,-20.493341],[44.196788,-20.421645],[44.254731,-20.376072]]],[[[49.955821,-16.779718],[49.973155,-16.721124],[50.024099,-16.690362],[49.908458,-16.966974],[49.826182,-17.094415],[49.817393,-17.067153],[49.85727,-16.919692],[49.955821,-16.779718]]],[[[48.332042,-13.360447],[48.365001,-13.387953],[48.359548,-13.407973],[48.32838,-13.415134],[48.23585,-13.38714],[48.22462,-13.400486],[48.199718,-13.361505],[48.203868,-13.269789],[48.188731,-13.264255],[48.198904,-13.251072],[48.269216,-13.268324],[48.269298,-13.201104],[48.31837,-13.200291],[48.314952,-13.246759],[48.354177,-13.31227],[48.332042,-13.360447]]]]}}]}
