{"type":"FeatureCollection","features":[{"type":"Feature","properties":{"name":"Marshall Islands","ISO3166-1-Alpha-3":"MHL","ISO3166-1-Alpha-2":"MH"},"geometry":{"type":"MultiPolygon","coordinates":[[[[168.101085,5.599311],[168.121104,5.597357],[168.124522,5.631049],[168.12794,5.60163],[168.101085,5.599311]]],[[[171.72462,6.101711],[171.745128,6.079128],[171.72283,6.083441],[171.72462,6.101711]]],[[[171.909679,7.098782],[171.915375,7.125149],[171.928884,7.118313],[171.8921,7.090806],[171.909679,7.098782]]],[[[168.685395,4.573798],[168.735037,4.590522],[168.768077,4.629055],[168.741384,4.585842],[168.685395,4.573798]]],[[[169.590343,5.80093],[169.629649,5.840155],[169.655528,5.942857],[169.734548,6.013129],[169.721446,5.97663],[169.665212,5.938788],[169.615245,5.798774],[169.590343,5.80093]]],[[[172.029796,6.054145],[171.962413,6.051825],[171.948416,6.067776],[172.029796,6.054145]]],[[[171.756684,6.972113],[171.688731,7.006578],[171.613943,7.00609],[171.577322,7.047187],[171.611176,7.019924],[171.689464,7.019924],[171.756684,6.972113]]],[[[171.393565,7.109931],[171.235199,7.067694],[171.035655,7.155097],[171.050304,7.170722],[171.05714,7.143459],[171.22641,7.075751],[171.393565,7.109931]]],[[[168.757823,7.307929],[168.830089,7.307929],[168.791515,7.293402],[168.675059,7.320868],[168.67921,7.335191],[168.757823,7.307929]]],[[[168.576834,7.40412],[168.555186,7.430325],[168.562511,7.464342],[168.576834,7.40412]]],[[[166.904145,11.172919],[166.875255,11.144965],[166.835785,11.159247],[166.904145,11.172919]]],[[[169.114513,5.638129],[169.116466,5.649237],[169.120616,5.647406],[169.114513,5.638129]]],[[[171.792247,7.054999],[171.797862,7.061916],[171.785981,7.038235],[171.792247,7.054999]]],[[[168.965587,7.574652],[168.938487,7.596381],[168.965587,7.595364],[168.965587,7.574652]]],[[[167.401703,8.317816],[167.407725,8.307278],[167.399669,8.310777],[167.401703,8.317816]]],[[[167.731619,8.724595],[167.730317,8.735256],[167.740245,8.743842],[167.731619,8.724595]]],[[[170.851736,8.897773],[170.838552,8.888373],[170.837169,8.889594],[170.851736,8.897773]]],[[[170.240245,9.449774],[170.23878,9.466702],[170.243907,9.466376],[170.240245,9.449774]]],[[[170.874685,10.274604],[170.874522,10.286607],[170.878591,10.287177],[170.874685,10.274604]]],[[[165.540212,11.633775],[165.542817,11.633002],[165.550629,11.626939],[165.540212,11.633775]]],[[[165.282237,11.695787],[165.282237,11.708441],[165.286794,11.710883],[165.282237,11.695787]]],[[[169.010753,14.610175],[169.007335,14.602769],[168.987315,14.586859],[169.010753,14.610175]]]]}}]}
