{"type":"FeatureCollection","features":[{"type":"Feature","properties":{"name":"North Macedonia","ISO3166-1-Alpha-3":"MKD","ISO3166-1-Alpha-2":"MK"},"geometry":{"type":"Polygon","coordinates":[[[20.567147,41.873182],[20.602391,41.849876],[20.643422,41.873647],[20.681456,41.84401],[20.702953,41.849591],[20.750495,41.906797],[20.743054,41.993484],[20.784912,42.082032],[21.003916,42.141951],[21.098484,42.195953],[21.164423,42.16704],[21.237804,42.097354],[21.28886,42.089706],[21.294958,42.148979],[21.353766,42.215977],[21.429834,42.215848],[21.419912,42.240058],[21.436345,42.24688],[21.676886,42.234945],[21.8172,42.305145],[21.88438,42.309512],[21.929028,42.335117],[22.060906,42.301088],[22.268852,42.370335],[22.276914,42.341241],[22.345023,42.313439],[22.531058,42.129109],[22.718437,42.044463],[22.838223,42.019478],[22.880804,41.872691],[22.939716,41.776702],[22.991185,41.760992],[23.009582,41.71637],[22.932998,41.612345],[22.954598,41.432408],[22.937339,41.410755],[22.940852,41.349829],[22.780966,41.334894],[22.751303,41.315205],[22.727222,41.165809],[22.704898,41.139661],[22.64454,41.180227],[22.590176,41.125139],[22.451477,41.113667],[22.380163,41.131702],[22.308746,41.124984],[22.302649,41.1455],[22.205807,41.161416],[22.103384,41.121522],[22.048194,41.151856],[21.909081,41.097493],[21.894301,41.053826],[21.783714,40.964167],[21.765524,40.923911],[21.685115,40.927994],[21.581556,40.866292],[21.509519,40.900502],[21.404926,40.908615],[21.295372,40.860866],[21.183027,40.870168],[20.965262,40.849394],[20.939941,40.907065],[20.837415,40.924066],[20.766102,40.893732],[20.717216,40.913214],[20.65386,41.075272],[20.576966,41.093513],[20.565494,41.147412],[20.500071,41.23552],[20.481674,41.341199],[20.523429,41.356805],[20.540172,41.400678],[20.452012,41.493592],[20.444157,41.549661],[20.534694,41.585266],[20.500381,41.734095],[20.550921,41.793522],[20.541722,41.86158],[20.567147,41.873182]]]}}]}
