{"type":"FeatureCollection","features":[{"type":"Feature","properties":{"name":"Mali","ISO3166-1-Alpha-3":"MLI","ISO3166-1-Alpha-2":"ML"},"geometry":{"type":"Polygon","coordinates":[[[-12.26413,14.774939],[-12.224779,14.763441],[-12.138867,14.784525],[-12.070395,14.734399],[-12.049673,14.767213],[-11.991486,14.76804],[-11.935985,14.823618],[-11.877487,14.841524],[-11.820385,14.89997],[-11.81377,15.028541],[-11.860899,15.049005],[-11.845655,15.179075],[-11.727057,15.541171],[-11.644117,15.526444],[-11.614868,15.541171],[-11.515391,15.610082],[-11.524382,15.643465],[-11.458236,15.632949],[-11.409557,15.602201],[-11.298195,15.451048],[-11.045393,15.270206],[-10.915169,15.102904],[-10.827216,15.287698],[-10.746807,15.341132],[-10.725361,15.433064],[-10.322647,15.437095],[-10.067624,15.364748],[-9.951403,15.381207],[-9.835596,15.371104],[-9.672118,15.430661],[-9.42389,15.440532],[-9.451692,15.588326],[-9.356453,15.697854],[-9.332423,15.687571],[-9.329322,15.655247],[-9.349218,15.495644],[-5.510951,15.494197],[-5.353286,16.311977],[-5.60588,16.495893],[-5.623347,16.527829],[-5.949115,19.495633],[-6.593107,24.994134],[-4.821613,24.995065],[1.146524,21.101711],[1.180114,20.995309],[1.145284,20.795889],[1.154585,20.738787],[1.296696,20.733464],[1.363978,20.657707],[1.559729,20.597504],[1.643961,20.522676],[1.659154,20.397516],[1.778113,20.304291],[1.855008,20.294835],[1.891388,20.231789],[1.95526,20.254915],[2.071222,20.213263],[2.161346,20.274939],[2.200826,20.273906],[2.316478,20.180165],[2.400401,20.056555],[2.514812,20.015937],[2.946001,19.941652],[3.198802,19.820523],[3.216785,19.794064],[3.199422,19.553769],[3.260813,19.388327],[3.192911,19.325798],[3.17441,19.251643],[3.13927,19.221929],[3.10413,19.135526],[3.284895,18.995741],[3.358689,18.976853],[4.22861,19.142244],[4.235638,16.995863],[4.197811,16.965219],[4.202048,16.848895],[4.181998,16.809621],[4.183961,16.416053],[4.060558,16.298334],[3.971158,16.086099],[3.98325,15.983987],[3.909869,15.904767],[3.871215,15.714804],[3.808377,15.665582],[3.692208,15.63145],[3.614074,15.547734],[3.526534,15.495954],[3.507103,15.353973],[3.03354,15.42645],[3.010286,15.417665],[3.000158,15.339117],[1.331526,15.283616],[1.270857,15.259897],[0.973718,14.991257],[0.769183,14.969062],[0.670067,14.939735],[0.514831,14.993556],[0.353187,14.963429],[0.221257,14.995933],[0.218467,14.910977],[-0.236699,15.065619],[-0.425732,15.0026],[-0.4679,15.079908],[-0.719719,15.078461],[-0.782816,15.048385],[-1.07856,14.796359],[-1.350275,14.714969],[-1.69692,14.496119],[-1.997057,14.470694],[-2.035918,14.181229],[-2.104337,14.151179],[-2.151879,14.15614],[-2.385612,14.264712],[-2.46168,14.280912],[-2.597382,14.222311],[-2.69319,14.123196],[-2.840855,14.042994],[-2.867288,14.000542],[-2.855377,13.996175],[-2.89447,13.866571],[-2.928059,13.799624],[-2.895245,13.651648],[-2.97232,13.624467],[-3.019113,13.637515],[-3.067508,13.606767],[-3.08221,13.646222],[-3.125102,13.67728],[-3.195821,13.674903],[-3.267057,13.717045],[-3.286952,13.69777],[-3.259719,13.658315],[-3.283955,13.542198],[-3.248634,13.292781],[-3.448544,13.265781],[-3.449475,13.16881],[-3.54505,13.174494],[-3.798626,13.347145],[-3.971613,13.386755],[-3.984042,13.39647],[-3.917973,13.451066],[-3.956059,13.46166],[-3.981251,13.49897],[-3.997968,13.480522],[-3.97691,13.460627],[-4.087549,13.397995],[-4.16602,13.278157],[-4.205501,13.272989],[-4.253508,13.22909],[-4.234801,13.175605],[-4.327044,13.168551],[-4.351073,13.118322],[-4.229324,12.948952],[-4.211883,12.819193],[-4.23413,12.74235],[-4.257642,12.72093],[-4.297227,12.712145],[-4.36885,12.738991],[-4.485251,12.714677],[-4.482538,12.646258],[-4.42249,12.597217],[-4.387247,12.533965],[-4.451636,12.435314],[-4.406135,12.307467],[-4.488171,12.320696],[-4.493545,12.272844],[-4.585529,12.197241],[-4.560466,12.149492],[-4.636121,12.117556],[-4.653716,12.069135],[-4.714617,12.059007],[-4.761281,12.006607],[-4.95375,12.005108],[-5.004703,11.980665],[-5.089323,11.97927],[-5.167819,11.943665],[-5.275151,11.837418],[-5.412352,11.82853],[-5.370649,11.791064],[-5.334269,11.790806],[-5.28714,11.758922],[-5.280681,11.699494],[-5.307604,11.617638],[-5.233914,11.575987],[-5.218307,11.422198],[-5.263472,11.390184],[-5.262852,11.251588],[-5.306726,11.199395],[-5.332512,11.12157],[-5.504233,11.072684],[-5.501804,10.97021],[-5.479118,10.975533],[-5.431421,10.844688],[-5.482632,10.684233],[-5.460566,10.644571],[-5.48165,10.535327],[-5.522578,10.425489],[-5.594047,10.453937],[-5.806282,10.413474],[-5.87806,10.37606],[-5.904829,10.348284],[-5.904725,10.275291],[-5.963016,10.282733],[-6.015933,10.18987],[-6.105333,10.189276],[-6.240002,10.251933],[-6.240674,10.302576],[-6.206154,10.310819],[-6.180574,10.420218],[-6.200366,10.448769],[-6.190289,10.491144],[-6.261293,10.514088],[-6.231372,10.560235],[-6.238658,10.597985],[-6.204449,10.629611],[-6.246617,10.657619],[-6.25597,10.726478],[-6.341701,10.691442],[-6.427019,10.686093],[-6.435856,10.628706],[-6.399217,10.592481],[-6.402783,10.569123],[-6.445984,10.552251],[-6.537555,10.569692],[-6.598585,10.604909],[-6.633983,10.65302],[-6.669175,10.654157],[-6.697545,10.488301],[-6.683076,10.451689],[-6.647781,10.432698],[-6.668916,10.361022],[-6.700336,10.34167],[-6.782088,10.373037],[-6.862755,10.34384],[-6.96125,10.344874],[-6.997113,10.25276],[-6.95939,10.185503],[-7.015769,10.140881],[-7.040522,10.140054],[-7.106357,10.207259],[-7.363396,10.252192],[-7.372336,10.34477],[-7.444425,10.334202],[-7.46618,10.429494],[-7.501475,10.458639],[-7.556382,10.417272],[-7.664411,10.437142],[-7.679036,10.405929],[-7.736035,10.378282],[-7.735337,10.347096],[-7.777583,10.329862],[-7.764405,10.312912],[-7.778254,10.27834],[-7.829001,10.211652],[-7.929046,10.160957],[-7.989663,10.161991],[-7.962584,10.233252],[-7.996277,10.32826],[-8.115495,10.360247],[-8.135442,10.427323],[-8.228873,10.423422],[-8.295535,10.537446],[-8.311142,10.735289],[-8.341941,10.763246],[-8.303649,10.874893],[-8.305096,10.978246],[-8.326593,11.02385],[-8.369329,11.054236],[-8.505755,11.052789],[-8.55955,10.971605],[-8.696234,10.962743],[-8.696906,10.996048],[-8.63368,11.071289],[-8.624611,11.122035],[-8.578154,11.14206],[-8.551799,11.210738],[-8.498779,11.233501],[-8.492578,11.277788],[-8.406691,11.275282],[-8.376719,11.294661],[-8.371035,11.32055],[-8.42607,11.340472],[-8.375324,11.367654],[-8.427724,11.40008],[-8.527563,11.423387],[-8.549577,11.490127],[-8.575208,11.470283],[-8.656754,11.496431],[-8.726517,11.649471],[-8.777211,11.635932],[-8.847233,11.657946],[-8.797004,11.913227],[-8.819793,12.012653],[-8.922112,12.045364],[-8.913896,12.169853],[-8.942008,12.195846],[-8.97384,12.187578],[-8.99756,12.23481],[-8.963092,12.32421],[-8.975907,12.368704],[-9.147318,12.465493],[-9.327307,12.497533],[-9.398155,12.473245],[-9.407251,12.445133],[-9.309169,12.357748],[-9.336816,12.269846],[-9.360173,12.246644],[-9.438877,12.254757],[-9.515616,12.20706],[-9.628167,12.170163],[-9.675141,12.133989],[-9.686303,12.068153],[-9.722994,12.025417],[-9.870736,12.052082],[-10.060182,12.147528],[-10.26694,12.217808],[-10.31102,12.19104],[-10.323577,12.201995],[-10.353394,12.166494],[-10.381403,12.180136],[-10.445688,12.120708],[-10.511628,12.118073],[-10.51509,12.052909],[-10.566508,12.017252],[-10.55948,11.995186],[-10.613792,11.967694],[-10.655081,11.898965],[-10.711357,11.890386],[-10.807785,12.022833],[-10.804943,12.095955],[-10.869642,12.138433],[-10.909794,12.200135],[-10.952117,12.219462],[-11.052318,12.202512],[-11.072782,12.149492],[-11.159392,12.077507],[-11.191173,12.01441],[-11.274992,11.996271],[-11.334678,12.026192],[-11.391729,12.093733],[-11.489604,12.151197],[-11.507794,12.191608],[-11.444594,12.289484],[-11.447229,12.374543],[-11.388628,12.384465],[-11.377776,12.480221],[-11.390437,12.497533],[-11.400514,12.479549],[-11.416999,12.529314],[-11.429814,12.508333],[-11.467797,12.543525],[-11.437359,12.570758],[-11.436842,12.637473],[-11.461905,12.673129],[-11.402168,12.73173],[-11.408472,12.804491],[-11.432502,12.835523],[-11.415138,12.896656],[-11.427231,12.918618],[-11.387801,12.927119],[-11.388835,12.970553],[-11.401806,12.989492],[-11.411521,12.960709],[-11.438703,12.9589],[-11.422993,13.009414],[-11.45896,13.054682],[-11.450278,13.075095],[-11.533064,13.111811],[-11.538542,13.16297],[-11.572338,13.217101],[-11.554251,13.256866],[-11.605824,13.319653],[-11.613111,13.360813],[-11.643962,13.355594],[-11.649801,13.38412],[-11.70401,13.380373],[-11.741217,13.407813],[-11.775116,13.343347],[-11.828136,13.307277],[-11.854595,13.350556],[-11.897589,13.371175],[-11.890406,13.465148],[-12.015153,13.564444],[-12.097629,13.70441],[-12.012311,13.751177],[-11.962908,13.829467],[-11.962908,13.909152],[-12.025334,13.985246],[-11.997583,14.166165],[-12.044299,14.264919],[-12.119591,14.310575],[-12.115612,14.35512],[-12.22173,14.391242],[-12.236432,14.519451],[-12.165015,14.641872],[-12.18982,14.655954],[-12.180311,14.692825],[-12.222815,14.70329],[-12.26413,14.774939]]]}}]}
