{"type":"FeatureCollection","features":[{"type":"Feature","properties":{"name":"Myanmar","ISO3166-1-Alpha-3":"MMR","ISO3166-1-Alpha-2":"MM"},"geometry":{"type":"MultiPolygon","coordinates":[[[[92.575879,21.977574],[92.650913,22.019174],[92.683779,22.154308],[92.836121,22.046511],[92.877462,21.957007],[92.906194,22.017314],[92.968103,21.987238],[92.967172,22.062685],[92.985466,22.095965],[93.025464,22.112915],[93.024533,22.201902],[93.141735,22.187277],[93.123545,22.230686],[93.173672,22.259418],[93.16592,22.386593],[93.099154,22.51196],[93.110523,22.596348],[93.073936,22.671899],[93.079517,22.77272],[93.175532,22.881705],[93.138221,23.005264],[93.152381,23.049938],[93.196512,23.053839],[93.246535,23.004488],[93.272787,23.00591],[93.318262,23.03366],[93.3749,23.129726],[93.377897,23.296822],[93.407249,23.347258],[93.400221,23.454022],[93.432364,23.647317],[93.425956,23.690803],[93.374796,23.739017],[93.355986,23.906991],[93.302966,23.995281],[93.32219,24.080056],[93.368285,24.07848],[93.456652,23.95996],[93.543468,23.980889],[93.571063,23.968021],[93.612404,24.009052],[93.711106,24.005461],[93.803711,23.936059],[93.912334,23.939005],[94.055065,23.887949],[94.099713,23.842628],[94.131856,23.856969],[94.13506,23.919006],[94.19025,23.995281],[94.29536,24.332599],[94.330707,24.362855],[94.328743,24.394481],[94.361196,24.425409],[94.363676,24.46582],[94.397059,24.495069],[94.418453,24.560311],[94.474987,24.597389],[94.516329,24.704953],[94.581544,24.73012],[94.599011,24.813474],[94.654821,24.889154],[94.673528,24.974807],[94.708565,25.02589],[94.706808,25.109941],[94.689135,25.138518],[94.576893,25.173607],[94.553329,25.204147],[94.550125,25.245282],[94.608003,25.394627],[94.659472,25.455502],[94.764375,25.491675],[94.822356,25.559113],[94.860287,25.567174],[94.853466,25.586036],[94.961469,25.717966],[95.008805,25.737138],[95.00064,25.922036],[95.065856,25.953817],[95.151225,26.049936],[95.137479,26.082957],[95.08818,26.104093],[95.078361,26.171324],[95.094484,26.195043],[95.058724,26.217677],[95.041775,26.287596],[95.066062,26.407433],[95.040638,26.475594],[95.109574,26.5513],[95.122803,26.611607],[95.204865,26.667572],[95.260573,26.647625],[95.410641,26.701627],[95.489809,26.810716],[95.574765,26.816142],[95.624271,26.880738],[95.699305,26.896189],[95.777957,26.995149],[95.861466,27.014218],[95.91645,27.051373],[96.013188,27.190796],[96.142586,27.25751],[96.407789,27.29818],[96.510936,27.292495],[96.5869,27.353577],[96.649015,27.336214],[96.705239,27.36076],[96.776346,27.330633],[96.853757,27.248725],[96.842698,27.188522],[96.865332,27.171624],[97.038035,27.08703],[97.119167,27.087288],[97.134773,27.127338],[97.101287,27.183303],[96.881352,27.444114],[96.87019,27.61909],[96.990906,27.726629],[97.056742,27.746783],[97.06532,27.773991],[97.222933,27.899719],[97.276367,27.910339],[97.292903,27.87755],[97.333521,27.894164],[97.362253,27.994881],[97.292903,28.095082],[97.323496,28.217478],[97.384371,28.284838],[97.447829,28.297602],[97.445349,28.382971],[97.527721,28.529526],[97.546221,28.538466],[97.613607,28.481984],[97.670451,28.511284],[97.699597,28.48803],[97.765329,28.352431],[97.797265,28.34393],[97.85907,28.37013],[97.897518,28.355325],[97.992912,28.268922],[97.991052,28.214015],[98.048619,28.199624],[98.126961,28.124279],[98.107117,27.973074],[98.177294,27.912923],[98.140087,27.878558],[98.196621,27.823187],[98.204372,27.727301],[98.294703,27.536615],[98.328602,27.522869],[98.383276,27.555787],[98.410251,27.684254],[98.492313,27.64343],[98.522182,27.656298],[98.578406,27.591728],[98.647239,27.611727],[98.679279,27.577336],[98.674421,27.386598],[98.707701,27.337247],[98.672561,27.175603],[98.691371,27.092404],[98.737776,27.048686],[98.712662,26.995149],[98.736329,26.898256],[98.714522,26.862031],[98.750385,26.792009],[98.731989,26.713513],[98.755553,26.625043],[98.721137,26.538898],[98.713488,26.38945],[98.657781,26.311625],[98.642175,26.254523],[98.677005,26.23933],[98.70553,26.174941],[98.644449,26.097891],[98.624295,26.108485],[98.619334,26.145744],[98.563007,26.131223],[98.54554,26.105643],[98.582437,25.982291],[98.616233,25.979397],[98.692404,25.87899],[98.677832,25.843282],[98.610032,25.800597],[98.526833,25.838786],[98.498101,25.830724],[98.332633,25.566968],[98.276616,25.552447],[98.232381,25.586553],[98.140087,25.611461],[98.134196,25.534618],[98.099779,25.500047],[98.112078,25.396229],[98.075698,25.376075],[98.044899,25.311944],[97.90992,25.207558],[97.888939,25.205646],[97.82362,25.261612],[97.800986,25.237634],[97.754064,25.113559],[97.699597,25.065009],[97.708278,24.927291],[97.772977,24.854686],[97.765226,24.834661],[97.66394,24.829778],[97.536093,24.745028],[97.532785,24.723324],[97.538573,24.597259],[97.513252,24.438587],[97.6473,24.432334],[97.689572,24.346474],[97.638205,24.328103],[97.64451,24.302394],[97.718407,24.277667],[97.724091,24.241519],[97.701561,24.210926],[97.720061,24.147442],[97.516456,23.942829],[97.609887,23.883143],[97.624666,23.846711],[97.76781,23.946472],[97.817832,23.958151],[97.889973,24.022617],[98.10505,24.101527],[98.181531,24.118658],[98.330669,24.099486],[98.434952,24.13026],[98.503269,24.121268],[98.585227,24.075715],[98.716176,24.121345],[98.865727,24.145685],[98.873479,24.114498],[98.856219,24.083802],[98.658815,23.961123],[98.674524,23.936886],[98.663672,23.796947],[98.793173,23.758473],[98.800305,23.692715],[98.856012,23.610007],[98.780874,23.532854],[98.799995,23.480738],[98.86397,23.466605],[98.889602,23.406789],[98.890118,23.367903],[98.853428,23.324882],[98.896526,23.32328],[98.910686,23.297597],[98.860146,23.212279],[98.859009,23.179387],[99.026441,23.160448],[99.05507,23.109598],[99.194183,23.095775],[99.21661,23.057379],[99.333812,23.129623],[99.403265,23.068335],[99.493079,23.057379],[99.490392,23.012007],[99.538038,22.926431],[99.5153,22.90881],[99.413394,22.930746],[99.414428,22.856901],[99.35903,22.77489],[99.307974,22.745176],[99.355,22.608544],[99.344148,22.533251],[99.35779,22.495476],[99.282756,22.411915],[99.243068,22.393156],[99.243689,22.341221],[99.159353,22.184694],[99.175062,22.168674],[99.14447,22.153533],[99.252887,22.102786],[99.364922,22.098859],[99.438612,22.124232],[99.538968,22.106714],[99.633536,22.084751],[99.683868,22.039018],[99.723659,22.070592],[99.821018,22.017779],[99.847838,22.055037],[99.942406,22.045529],[99.934344,22.018864],[99.96566,21.963002],[99.917963,21.82916],[99.95026,21.721156],[99.996718,21.686119],[100.082345,21.684466],[100.142807,21.654907],[100.094851,21.598838],[100.089994,21.52892],[100.187145,21.427892],[100.341968,21.530367],[100.399122,21.518894],[100.456689,21.455022],[100.621744,21.469078],[100.703961,21.516414],[100.834909,21.657542],[100.992781,21.711441],[101.082801,21.766735],[101.118871,21.75981],[101.127656,21.695163],[101.173855,21.611912],[101.157112,21.519669],[101.003426,21.405981],[100.8146,21.3002],[100.725407,21.311672],[100.689388,21.15933],[100.625516,21.054117],[100.543454,21.0274],[100.557252,20.992001],[100.529243,20.968437],[100.517823,20.906322],[100.534204,20.873921],[100.623088,20.888545],[100.65213,20.876608],[100.536685,20.807672],[100.364809,20.828187],[100.21133,20.697394],[100.149266,20.548101],[100.099295,20.317805],[100.036147,20.373124],[99.985917,20.387025],[99.937135,20.445006],[99.837709,20.416843],[99.78717,20.334083],[99.651932,20.306824],[99.420629,20.375553],[99.466414,20.322172],[99.486258,20.245484],[99.525842,20.196184],[99.510339,20.15381],[99.441403,20.101617],[99.295675,20.062497],[99.177749,20.121796],[99.073466,20.101229],[99.016829,20.041],[99.000913,19.821013],[98.899317,19.748615],[98.80785,19.806544],[98.749248,19.763498],[98.623778,19.737504],[98.532621,19.675854],[98.488799,19.706705],[98.439603,19.68774],[98.307312,19.689988],[98.237548,19.664692],[98.213261,19.717764],[98.111355,19.77714],[98.072907,19.777295],[98.045622,19.807629],[98.024538,19.802978],[98.004591,19.723913],[98.008312,19.639112],[97.848632,19.567644],[97.84212,19.479381],[97.767086,19.397525],[97.806154,19.301097],[97.764089,19.266396],[97.812561,19.208467],[97.810804,19.11222],[97.727812,19.037082],[97.703318,18.964373],[97.657842,18.925719],[97.723368,18.851977],[97.759748,18.622792],[97.745692,18.571064],[97.617948,18.553158],[97.509531,18.491276],[97.427469,18.489519],[97.388918,18.542228],[97.351401,18.551169],[97.443075,18.403348],[97.452583,18.333611],[97.486483,18.29214],[97.528341,18.26532],[97.573816,18.333094],[97.637585,18.306326],[97.643269,18.27302],[97.617948,18.241678],[97.684301,18.146103],[97.694222,18.061508],[97.720061,18.053059],[97.754064,17.969034],[97.685541,17.880718],[97.69908,17.833331],[97.676136,17.830334],[97.74962,17.739849],[97.759335,17.691479],[97.982784,17.505444],[98.035494,17.405037],[98.08872,17.372791],[98.092648,17.312226],[98.278993,17.136578],[98.268348,17.107742],[98.294393,17.107587],[98.299664,17.064748],[98.417899,17.029039],[98.474537,16.950439],[98.484458,16.905894],[98.50947,16.892665],[98.524559,16.850445],[98.500582,16.862228],[98.49004,16.843211],[98.517531,16.803006],[98.474537,16.776652],[98.456657,16.723218],[98.56156,16.601727],[98.564247,16.551962],[98.631633,16.463131],[98.629463,16.402669],[98.663259,16.286656],[98.682379,16.273478],[98.788626,16.374557],[98.839579,16.472432],[98.843403,16.438378],[98.902521,16.381637],[98.883711,16.25875],[98.843093,16.208728],[98.835445,16.144545],[98.807229,16.110542],[98.679589,16.126149],[98.619127,16.051011],[98.546987,16.047497],[98.583781,15.976959],[98.574375,15.835985],[98.540269,15.711962],[98.567141,15.452546],[98.559906,15.355317],[98.533551,15.325965],[98.515464,15.363456],[98.474537,15.383481],[98.40343,15.360097],[98.377488,15.296458],[98.394748,15.280076],[98.38524,15.256253],[98.283024,15.289972],[98.232898,15.226798],[98.17719,15.220597],[98.19073,15.179178],[98.160447,15.106366],[98.198998,15.051382],[98.191143,14.98813],[98.243336,14.805118],[98.297493,14.721247],[98.418209,14.607559],[98.54771,14.377676],[98.601454,14.313649],[98.67039,14.267916],[98.706977,14.269983],[98.753693,14.200116],[98.935284,14.085395],[99.007114,13.949641],[99.090003,13.870111],[99.101165,13.778824],[99.152531,13.714875],[99.152015,13.581963],[99.187878,13.42714],[99.172789,13.300921],[99.190152,13.229504],[99.172789,13.199506],[99.102095,13.171342],[99.093207,13.038327],[99.16483,12.975514],[99.153151,12.913554],[99.175269,12.83343],[99.210719,12.792269],[99.224465,12.717468],[99.266736,12.702843],[99.276865,12.665585],[99.403265,12.575926],[99.387039,12.465907],[99.473752,12.187268],[99.452255,12.12939],[99.541655,12.140655],[99.518401,12.025934],[99.574004,11.976324],[99.561395,11.87292],[99.630022,11.815766],[99.606871,11.725694],[99.542585,11.640479],[99.449774,11.613763],[99.428173,11.496896],[99.243275,11.197664],[99.212993,11.108264],[99.076877,10.996513],[99.05507,10.94525],[98.992334,10.947963],[98.974454,10.824198],[98.892082,10.808515],[98.766715,10.688754],[98.747905,10.623125],[98.777257,10.583231],[98.790383,10.500265],[98.747406,10.350531],[98.718923,10.312567],[98.696056,10.2237],[98.543142,9.987454],[98.489594,10.197903],[98.528494,10.364203],[98.494151,10.45246],[98.495453,10.556871],[98.46339,10.630032],[98.459321,10.715399],[98.498302,10.731594],[98.528494,10.693101],[98.538341,10.718695],[98.521007,10.740953],[98.563243,10.727281],[98.599864,10.805487],[98.59669,10.837144],[98.63087,10.850816],[98.586436,10.861029],[98.581554,10.882025],[98.64796,10.919094],[98.673106,10.905463],[98.712413,10.924384],[98.720225,10.980536],[98.692882,11.00845],[98.722423,11.044867],[98.706554,11.097846],[98.67628,11.100572],[98.658214,11.131985],[98.724132,11.156195],[98.759288,11.268948],[98.721934,11.350084],[98.727061,11.385199],[98.698009,11.388007],[98.715343,11.443183],[98.774913,11.453518],[98.754405,11.522406],[98.717947,11.531887],[98.735606,11.642035],[98.752208,11.681708],[98.817149,11.677395],[98.822602,11.707953],[98.891612,11.693671],[98.87672,11.722642],[98.78297,11.755113],[98.825694,11.825873],[98.80893,11.851304],[98.816091,11.833808],[98.768077,11.761949],[98.712169,11.736518],[98.703136,11.697455],[98.674164,11.685248],[98.610362,11.731269],[98.605968,11.769192],[98.632091,11.792873],[98.603526,11.803616],[98.624034,11.830268],[98.651378,11.830268],[98.680919,11.877346],[98.706554,11.878648],[98.694102,11.89289],[98.549001,11.878648],[98.578136,11.906684],[98.664073,11.920356],[98.720225,11.964301],[98.721446,11.997789],[98.712738,12.063625],[98.66505,12.060248],[98.6338,12.090318],[98.629649,12.131985],[98.709727,12.20425],[98.703298,12.237779],[98.662934,12.236802],[98.59669,12.193996],[98.539073,12.241767],[98.56837,12.29092],[98.676768,12.315253],[98.706554,12.347886],[98.605154,12.428941],[98.616222,12.485745],[98.709727,12.512397],[98.639985,12.531887],[98.623057,12.558173],[98.651378,12.62226],[98.673106,12.625393],[98.667654,12.674791],[98.692882,12.725287],[98.648448,12.723334],[98.644542,12.742011],[98.678722,12.756293],[98.617849,12.766262],[98.651378,12.797309],[98.634288,12.878607],[98.589854,12.919582],[98.614024,12.954291],[98.583832,13.026597],[98.578461,13.186754],[98.500499,13.249172],[98.489919,13.297838],[98.479991,13.283881],[98.46046,13.35578],[98.473155,13.413031],[98.45281,13.379462],[98.41863,13.454576],[98.426443,13.490058],[98.336111,13.598578],[98.288259,13.69477],[98.302013,13.700995],[98.244802,13.714057],[98.254161,13.851793],[98.233653,14.002631],[98.192149,14.064683],[98.178966,14.019721],[98.198253,13.964911],[98.180186,13.925035],[98.199474,13.869208],[98.179454,13.732408],[98.196056,13.668362],[98.168468,13.584296],[98.18686,13.54385],[98.151052,13.557603],[98.144298,13.537095],[98.129731,13.582343],[98.151052,13.606024],[98.137462,13.626532],[98.158458,13.64232],[98.151052,13.673733],[98.168793,13.680813],[98.103282,13.700995],[98.116954,13.728949],[98.092052,13.739691],[98.082774,13.769965],[98.088878,13.795111],[98.110118,13.790351],[98.11085,13.902167],[98.082286,13.924465],[98.061697,14.010077],[98.107677,14.110012],[98.096446,14.167792],[98.110118,14.167792],[97.9935,14.330512],[97.979747,14.397406],[98.000255,14.468736],[97.966075,14.44831],[97.913585,14.586737],[97.925059,14.612779],[97.885509,14.655951],[97.885509,14.684068],[97.943126,14.720201],[98.027599,14.647528],[97.94988,14.798896],[97.931163,14.752183],[97.897227,14.797756],[97.902192,14.737698],[97.875499,14.716742],[97.850352,14.723619],[97.79477,14.880316],[97.812836,14.983344],[97.774262,15.017483],[97.80836,15.031155],[97.79477,15.058498],[97.822765,15.209296],[97.769379,15.223334],[97.72641,15.339586],[97.760753,15.394232],[97.79477,15.407904],[97.761404,15.490546],[97.774262,15.531399],[97.742931,15.604478],[97.733897,15.726304],[97.712901,15.75731],[97.727061,15.843207],[97.691417,15.912299],[97.575694,16.017401],[97.568858,16.062405],[97.61964,16.125434],[97.65089,16.271308],[97.623057,16.394477],[97.637218,16.477362],[97.673839,16.533433],[97.740245,16.559272],[97.712901,16.579779],[97.630382,16.531968],[97.423106,16.523424],[97.370291,16.483547],[97.329828,16.679847],[97.311194,16.652366],[97.255445,16.697869],[97.230173,16.769142],[97.240489,16.874579],[97.219493,16.826158],[97.2046,16.859809],[97.219493,16.901272],[97.19158,16.901272],[97.183279,16.921536],[97.198253,17.013495],[97.157237,17.086859],[97.17449,17.112494],[97.233653,17.09516],[97.260997,17.107327],[97.158051,17.129299],[97.130626,17.079413],[97.100271,17.133775],[97.10963,17.189276],[97.088715,17.193508],[97.068614,17.25137],[97.007172,17.278062],[97.013357,17.29914],[96.895518,17.38467],[96.883067,17.457424],[96.855724,17.388495],[96.842052,17.409003],[96.821544,17.394721],[96.910655,17.317084],[96.910899,17.284857],[96.849376,17.212958],[96.910167,17.06684],[96.910899,17.024807],[96.87908,16.934719],[96.835216,16.936021],[96.855724,16.901272],[96.807872,16.908677],[96.844005,16.873928],[96.84669,16.844916],[96.81129,16.764716],[96.789399,16.75609],[96.801036,16.737372],[96.716319,16.658352],[96.679473,16.574868],[96.615943,16.518005],[96.436261,16.477768],[96.265961,16.596829],[96.225759,16.761298],[96.28712,16.813137],[96.257579,16.815904],[96.171153,16.771552],[96.240896,16.650133],[96.23463,16.576361],[96.336436,16.439439],[96.3213,16.415269],[96.285336,16.365993],[96.118988,16.321763],[96.077403,16.360826],[96.006602,16.387356],[96.06658,16.335639],[96.067556,16.310248],[95.979991,16.223131],[95.942393,16.219062],[95.951427,16.257636],[95.907888,16.211737],[95.883067,16.209174],[95.889903,16.243964],[95.797699,16.144924],[95.755544,16.14525],[95.724864,16.222846],[95.73227,16.127265],[95.664724,15.949205],[95.523448,15.803656],[95.415782,15.722968],[95.310557,15.723212],[95.287934,15.740139],[95.282563,15.838324],[95.312673,15.866523],[95.313975,15.900702],[95.364268,15.984565],[95.3685,16.038804],[95.34547,16.104967],[95.361583,16.148383],[95.327485,16.107408],[95.348643,16.041571],[95.341807,15.983873],[95.29713,15.902981],[95.251638,15.868232],[95.23878,15.893948],[95.27589,15.970649],[95.27296,16.00373],[95.223969,15.918606],[95.212738,15.786566],[95.173595,15.777818],[95.125743,15.817613],[95.115245,15.893948],[95.137543,16.006659],[95.128917,16.03852],[95.107758,15.983873],[95.097667,16.025133],[95.13795,16.100328],[95.225922,16.11994],[95.135753,16.148383],[95.070567,16.074856],[95.072927,15.970649],[95.033946,15.805732],[94.997569,15.795315],[94.975597,15.764146],[94.846853,15.790595],[94.896332,15.847398],[94.882579,15.867174],[94.853201,15.840277],[94.834727,15.949164],[94.924083,16.03852],[94.889334,16.017401],[94.863129,16.127753],[94.900076,16.183783],[94.959239,16.200873],[94.992442,16.2508],[94.96697,16.220404],[94.893077,16.205756],[94.854666,16.160224],[94.848399,16.096503],[94.869395,16.040961],[94.846202,15.999986],[94.786876,15.962144],[94.721202,15.856676],[94.658702,15.854478],[94.635509,15.908149],[94.622406,15.891547],[94.601329,15.92121],[94.73227,16.017401],[94.793712,16.162014],[94.705333,16.020657],[94.614757,15.943671],[94.56658,15.935492],[94.562348,15.961859],[94.642345,16.044664],[94.678884,16.121283],[94.683849,16.209174],[94.665212,16.257636],[94.704926,16.353217],[94.73227,16.360663],[94.705821,16.47309],[94.73227,16.524563],[94.697276,16.508368],[94.677013,16.531968],[94.683849,16.364081],[94.62794,16.260199],[94.583995,16.236518],[94.635509,16.326483],[94.629731,16.344184],[94.583669,16.274848],[94.521169,16.295478],[94.507009,16.189602],[94.428071,16.074164],[94.360606,16.049262],[94.340017,15.996243],[94.239513,15.976304],[94.209809,16.028998],[94.215099,16.15766],[94.235362,16.348375],[94.273123,16.466498],[94.268321,16.527493],[94.331065,16.528632],[94.341319,16.548407],[94.346202,16.592434],[94.327647,16.606431],[94.36199,16.635484],[94.364431,16.701117],[94.40268,16.788275],[94.382335,16.901272],[94.423188,16.901272],[94.464692,16.949652],[94.444347,16.949652],[94.457856,17.059556],[94.48878,17.124213],[94.454356,17.18008],[94.510916,17.169013],[94.537852,17.187405],[94.508637,17.230129],[94.511974,17.275214],[94.545421,17.296088],[94.546153,17.319648],[94.594493,17.292304],[94.560313,17.582099],[94.615001,17.545559],[94.543956,17.748033],[94.50172,17.786607],[94.483409,17.902289],[94.444347,17.988105],[94.492198,18.025946],[94.490571,18.072496],[94.422862,18.242499],[94.327647,18.258734],[94.331065,18.303127],[94.389171,18.286038],[94.417003,18.313951],[94.389659,18.362698],[94.350597,18.37523],[94.331065,18.425971],[94.258962,18.509019],[94.24879,18.638861],[94.148936,18.731024],[94.279307,18.738511],[94.252452,18.752143],[94.212413,18.741848],[94.153087,18.821031],[94.148936,18.868232],[94.11964,18.816636],[94.038097,18.859117],[94.036632,18.918036],[94.053233,18.93651],[94.041189,18.997626],[94.060069,19.063707],[94.094249,19.087348],[94.04656,19.081122],[94.029063,19.095404],[94.066905,19.388983],[94.025238,19.286566],[94.033376,19.204535],[93.973481,19.146308],[93.947113,19.159654],[93.937266,19.204657],[93.910411,19.190985],[93.955414,19.126899],[93.952485,19.03205],[93.984386,18.967841],[93.930431,18.858629],[93.73463,18.981187],[93.703868,19.018459],[93.678884,19.019599],[93.642345,19.134223],[93.594005,19.176703],[93.487071,19.333726],[93.490896,19.40762],[93.552989,19.430569],[93.568044,19.406724],[93.611339,19.403266],[93.636974,19.349066],[93.621349,19.334377],[93.71754,19.293402],[93.754649,19.247138],[93.834239,19.238186],[93.929942,19.29975],[93.987315,19.386705],[93.984386,19.464057],[93.923839,19.462388],[93.9192,19.48428],[93.937266,19.492011],[93.882091,19.501899],[93.731212,19.632554],[93.756114,19.661078],[93.800059,19.65648],[93.794444,19.67357],[93.827403,19.718573],[93.806814,19.745836],[93.761078,19.674872],[93.720958,19.685289],[93.709483,19.713528],[93.751638,19.765692],[93.721934,19.768988],[93.693533,19.724799],[93.648448,19.725165],[93.635509,19.759508],[93.60141,19.718573],[93.606456,19.796129],[93.660655,19.870836],[93.738048,19.882473],[93.725597,19.905585],[93.740001,19.925116],[93.71754,19.93769],[93.70753,19.916571],[93.611339,19.910346],[93.58074,19.881334],[93.546723,19.902899],[93.565929,19.916571],[93.518321,19.939602],[93.531912,19.951361],[93.511974,19.970445],[93.525645,19.999172],[93.492198,19.964993],[93.47047,19.984849],[93.457042,19.95425],[93.423188,19.965318],[93.382335,20.088528],[93.361827,20.026435],[93.340668,20.1022],[93.272472,20.047512],[93.17628,20.053697],[93.128429,20.094672],[93.23585,19.847235],[93.238292,19.82099],[93.201427,19.862779],[93.148123,19.99433],[93.131521,20.006578],[93.109141,19.993801],[93.10613,19.93065],[93.168793,19.807318],[93.125011,19.846666],[93.038422,20.012926],[92.980724,20.077948],[92.970225,20.129462],[93.042491,20.129462],[93.080089,20.170478],[93.094249,20.14997],[93.120942,20.211982],[93.089203,20.210354],[93.018565,20.14997],[92.990489,20.154934],[93.001231,20.239325],[93.04127,20.332017],[93.091319,20.381008],[93.100434,20.431098],[93.059581,20.36225],[93.043224,20.364936],[93.031016,20.409654],[93.085623,20.532945],[93.073253,20.554633],[93.022634,20.452541],[93.016287,20.324856],[92.898448,20.135688],[92.867686,20.122016],[92.772146,20.201483],[92.778168,20.231635],[92.864024,20.300767],[92.942882,20.321234],[92.893321,20.329535],[92.846934,20.377346],[92.826915,20.495063],[92.792654,20.506252],[92.79656,20.483832],[92.769298,20.455064],[92.758556,20.472113],[92.778982,20.478258],[92.750987,20.498521],[92.720714,20.592231],[92.63502,20.697984],[92.708263,20.578681],[92.737478,20.44477],[92.731212,20.259182],[92.653168,20.41828],[92.539887,20.527533],[92.507009,20.60928],[92.453624,20.668524],[92.381114,20.700141],[92.281016,20.959418],[92.270518,21.049018],[92.180761,21.157883],[92.17828,21.299735],[92.236261,21.417092],[92.284527,21.419055],[92.322664,21.461895],[92.354703,21.451818],[92.400282,21.370996],[92.524512,21.361126],[92.570608,21.247283],[92.633756,21.282216],[92.639234,21.3187],[92.590245,21.495537],[92.575568,21.733972],[92.593035,21.886934],[92.575879,21.977574]]],[[[98.057465,9.796861],[98.018321,9.794908],[98.015391,9.826402],[98.046072,9.827948],[98.057465,9.796861]]],[[[98.228689,10.519965],[98.192719,10.482408],[98.189708,10.51557],[98.228689,10.519965]]],[[[98.429535,10.977729],[98.451427,11.001939],[98.440278,10.965562],[98.429535,10.977729]]],[[[97.464529,11.782457],[97.444347,11.800238],[97.479666,11.777981],[97.464529,11.782457]]],[[[97.836925,12.772447],[97.852794,12.806545],[97.868012,12.774807],[97.836925,12.772447]]],[[[98.295665,10.048896],[98.273936,10.048041],[98.288259,10.007961],[98.243907,9.96011],[98.178966,9.932807],[98.133474,9.845608],[98.117198,9.882025],[98.127452,9.96011],[98.23463,10.054185],[98.295665,10.048896]]],[[[98.185802,10.121161],[98.178966,10.192857],[98.240489,10.172349],[98.201427,10.118069],[98.185802,10.04206],[98.185802,10.121161]]],[[[97.911469,10.494534],[97.902599,10.479315],[97.943533,10.443793],[97.917735,10.433051],[97.931895,10.412014],[97.910167,10.401923],[97.889415,10.419989],[97.904063,10.439276],[97.896251,10.487535],[97.911469,10.494534]]],[[[98.493663,10.891099],[98.553233,10.832831],[98.52711,10.786933],[98.498383,10.793606],[98.528494,10.820054],[98.500499,10.823472],[98.493663,10.891099]]],[[[97.890391,10.884955],[97.911957,10.924262],[97.951834,10.919094],[97.927745,10.871975],[97.883556,10.84455],[97.890391,10.884955]]],[[[98.267751,10.837144],[98.276378,10.784491],[98.295665,10.781928],[98.28297,10.756537],[98.295665,10.734687],[98.250743,10.693101],[98.232188,10.708319],[98.233653,10.740953],[98.255544,10.746405],[98.233653,10.768256],[98.240489,10.830959],[98.198741,10.881659],[98.178966,10.898586],[98.17156,10.884955],[98.165294,10.919094],[98.146739,10.924506],[98.100271,10.882025],[98.077403,10.888088],[98.14088,10.977444],[98.171886,10.978664],[98.20574,10.960028],[98.231781,10.870266],[98.267751,10.837144]]],[[[98.528494,10.974311],[98.507986,10.946357],[98.477061,10.9737],[98.524669,11.086656],[98.544607,11.031195],[98.541515,10.953803],[98.528494,10.974311]]],[[[98.275157,11.248033],[98.302013,11.241197],[98.247325,11.214504],[98.219981,11.26911],[98.281423,11.275946],[98.275157,11.248033]]],[[[98.278331,11.799791],[98.323009,11.731269],[98.300304,11.704779],[98.283539,11.509426],[98.260916,11.46776],[98.233653,11.501899],[98.226817,11.473944],[98.201996,11.466254],[98.219981,11.453518],[98.176524,11.449164],[98.165294,11.473944],[98.199474,11.488227],[98.187511,11.53498],[98.213145,11.553412],[98.202647,11.589179],[98.240489,11.624823],[98.233653,11.666409],[98.278331,11.799791]]],[[[98.53533,11.803616],[98.556407,11.758734],[98.53533,11.529242],[98.458995,11.583808],[98.432384,11.566718],[98.431651,11.604926],[98.415701,11.604438],[98.41863,11.63227],[98.379405,11.691107],[98.405528,11.707953],[98.379893,11.750922],[98.413097,11.773383],[98.370779,11.789252],[98.53533,11.803616]]],[[[98.055431,11.701117],[98.08961,11.63227],[98.011729,11.704739],[98.028331,11.71719],[98.007091,11.761949],[97.999766,11.841783],[98.013927,11.864976],[98.013927,11.816596],[98.052257,11.776028],[98.057953,11.729071],[98.082286,11.734687],[98.055431,11.701117]]],[[[97.664399,11.905951],[97.678477,11.887885],[97.671886,11.837714],[97.642833,11.867662],[97.664399,11.905951]]],[[[98.254161,11.85814],[98.265391,11.908515],[98.289073,11.882392],[98.273692,11.853339],[98.254161,11.85814]]],[[[98.267751,11.933905],[98.246104,11.925442],[98.23585,11.968329],[98.260916,11.971137],[98.267751,11.933905]]],[[[98.603526,11.967434],[98.65919,11.948676],[98.658214,11.933905],[98.572602,11.931627],[98.478038,11.890937],[98.459727,11.933661],[98.470958,11.988105],[98.440278,12.015367],[98.439138,12.112006],[98.519867,12.007025],[98.603526,11.967434]]],[[[98.096446,12.187161],[98.131847,12.198554],[98.137462,12.138739],[98.11671,12.165473],[98.076671,12.161933],[98.039399,12.207343],[98.046153,12.26203],[98.07252,12.289537],[98.108246,12.284654],[98.12379,12.259467],[98.096446,12.187161]]],[[[98.065278,12.365302],[98.048025,12.330512],[98.010509,12.310045],[98.000255,12.269029],[97.982432,12.306383],[97.945567,12.310045],[97.971039,12.344875],[97.966075,12.358466],[97.938162,12.337958],[97.939952,12.366278],[98.017833,12.402655],[98.005382,12.367336],[98.041759,12.358466],[98.075938,12.427395],[98.104503,12.383043],[98.087738,12.360053],[98.065278,12.365302]]],[[[98.514171,12.495592],[98.514171,12.423651],[98.495616,12.405829],[98.474294,12.424994],[98.499848,12.513088],[98.514171,12.495592]]],[[[98.254161,12.567613],[98.289887,12.526313],[98.260509,12.495266],[98.230235,12.516995],[98.233653,12.553656],[98.254161,12.567613]]],[[[97.822765,12.58747],[97.849946,12.594631],[97.849946,12.537258],[97.822765,12.58747]]],[[[98.466319,12.583726],[98.455821,12.45775],[98.349946,12.325914],[98.302013,12.337958],[98.336111,12.450914],[98.315603,12.495592],[98.333018,12.519232],[98.302745,12.598578],[98.315603,12.687445],[98.405528,12.638983],[98.398123,12.58747],[98.425466,12.529731],[98.450938,12.60399],[98.466319,12.583726]]],[[[98.295665,13.084662],[98.318533,13.091376],[98.336436,13.073879],[98.302013,13.029446],[98.314301,12.925523],[98.302013,12.913316],[98.240489,13.139309],[98.247325,13.215033],[98.268809,13.19892],[98.295665,13.084662]]],[[[97.931895,13.85928],[97.928477,13.821112],[97.91505,13.800116],[97.931895,13.85928]]],[[[93.396007,14.140448],[93.394786,14.076361],[93.374848,14.064683],[93.39031,14.153754],[93.396007,14.140448]]],[[[93.675792,14.859198],[93.724376,14.913804],[93.704438,14.870998],[93.675792,14.859198]]],[[[97.664399,15.565579],[97.664399,15.504096],[97.65089,15.592231],[97.664399,15.565579]]],[[[94.827973,15.932034],[94.841563,15.877427],[94.803722,15.796576],[94.724864,15.811957],[94.806814,15.931098],[94.823253,15.945787],[94.827973,15.932034]]],[[[94.66212,16.221869],[94.667491,16.171942],[94.629649,16.075181],[94.569591,16.005194],[94.478038,15.966132],[94.478363,15.942328],[94.40268,15.83926],[94.417247,15.871772],[94.382335,15.969631],[94.389659,16.000922],[94.485362,16.058987],[94.611583,16.221747],[94.642833,16.24551],[94.66212,16.221869]]],[[[97.589366,16.415269],[97.571364,16.222693],[97.547461,16.199928],[97.516857,16.209823],[97.510509,16.254218],[97.459269,16.301362],[97.484874,16.363918],[97.454763,16.436916],[97.459646,16.477362],[97.520518,16.510891],[97.606293,16.483547],[97.610606,16.446234],[97.589366,16.415269]]],[[[93.745372,18.799994],[93.759044,18.755561],[93.731944,18.689683],[93.645274,18.679348],[93.484141,18.874986],[93.577159,18.881903],[93.621755,18.910346],[93.663341,18.873196],[93.742442,18.872301],[93.745372,18.799994]]],[[[93.970714,19.416938],[93.965831,19.363023],[93.917166,19.318305],[93.889415,19.299628],[93.862804,19.307766],[93.856944,19.278876],[93.802745,19.276679],[93.749848,19.333319],[93.725352,19.386868],[93.730479,19.419257],[93.669119,19.446479],[93.641775,19.492011],[93.688162,19.559475],[93.723643,19.556383],[93.819998,19.471503],[93.880219,19.479193],[93.970714,19.416938]]],[[[93.505219,19.807318],[93.511974,19.745836],[93.440684,19.81094],[93.402843,19.95307],[93.49879,19.88703],[93.505219,19.807318]]],[[[92.964041,20.036689],[93.024913,19.827826],[92.911957,20.084703],[92.946462,20.070502],[92.964041,20.036689]]]]}}]}
