{"type":"FeatureCollection","features":[{"type":"Feature","properties":{"name":"Mongolia","ISO3166-1-Alpha-3":"MNG","ISO3166-1-Alpha-2":"MN"},"geometry":{"type":"Polygon","coordinates":[[[116.684278,49.823265],[116.037806,48.870145],[116.048038,48.799761],[116.028194,48.767464],[115.800404,48.530372],[115.786555,48.49301],[115.799991,48.242328],[115.51422,48.131637],[115.575715,47.909738],[115.852701,47.705565],[115.914506,47.683912],[115.9729,47.709053],[116.084314,47.806928],[116.243891,47.862894],[116.49969,47.836358],[116.822047,47.876304],[117.069681,47.810158],[117.317107,47.654069],[117.360826,47.650865],[117.43648,47.730499],[117.527224,47.78649],[117.766899,47.993144],[117.972778,47.997898],[118.182481,48.028206],[118.280046,47.998131],[118.472799,47.989449],[118.542252,47.966246],[118.767406,47.756156],[119.08346,47.661562],[119.133896,47.527539],[119.310112,47.476095],[119.31776,47.462117],[119.281897,47.414859],[119.320654,47.40703],[119.475994,47.309206],[119.525086,47.250812],[119.587356,47.238358],[119.699959,47.159526],[119.753961,47.094439],[119.770136,46.992998],[119.852301,46.910729],[119.896433,46.898586],[119.881447,46.872851],[119.902893,46.842413],[119.883101,46.753013],[119.907027,46.718312],[119.872662,46.673225],[119.834421,46.650952],[119.782228,46.655629],[119.740267,46.613254],[119.680116,46.591628],[119.623478,46.616329],[119.501263,46.628008],[119.316934,46.611678],[119.036951,46.668729],[118.967239,46.740456],[118.890551,46.713532],[118.846523,46.765493],[118.720071,46.676739],[118.60938,46.705781],[118.472799,46.685679],[118.268987,46.722937],[118.005541,46.626974],[117.900638,46.607596],[117.797595,46.520262],[117.673365,46.516025],[117.625202,46.535662],[117.568151,46.603539],[117.510067,46.578476],[117.393795,46.57137],[117.412502,46.524629],[117.369197,46.475691],[117.337468,46.357275],[116.957853,46.366422],[116.814606,46.38673],[116.722002,46.328698],[116.568316,46.290871],[116.525114,46.226792],[116.357166,46.105559],[116.213195,45.908155],[116.207098,45.88087],[116.251643,45.803252],[116.169891,45.709097],[116.094856,45.676541],[116.002149,45.675559],[115.667389,45.454281],[115.33728,45.394698],[114.938855,45.373769],[114.703313,45.427151],[114.533711,45.3855],[114.502292,45.303231],[114.418886,45.20148],[114.149342,45.030069],[114.089294,44.961753],[114.01705,44.927285],[113.889306,44.908268],[113.604776,44.739699],[113.473208,44.770705],[113.104858,44.794373],[112.748497,44.865273],[112.586027,44.923822],[112.523912,44.993275],[112.412807,45.066036],[111.958261,45.084536],[111.843333,45.039526],[111.738533,44.9663],[111.551361,44.69319],[111.538235,44.58343],[111.424134,44.448037],[111.397055,44.387369],[111.410595,44.326081],[111.49059,44.282621],[111.543816,44.156737],[111.634457,44.065942],[111.838785,43.938792],[111.944309,43.786372],[111.933353,43.696636],[111.845813,43.666922],[111.753829,43.663202],[111.567691,43.50254],[111.401396,43.475513],[111.338558,43.438177],[110.973412,43.3156],[110.680096,43.057657],[110.608163,42.944667],[110.449413,42.837335],[110.406728,42.768605],[110.139871,42.682615],[110.060186,42.638355],[109.912701,42.62882],[109.667342,42.54898],[109.485131,42.449296],[109.253414,42.425939],[108.961287,42.447539],[108.796852,42.398369],[108.536455,42.435111],[108.319775,42.432553],[108.177355,42.454309],[106.767829,42.286619],[105.868607,41.993484],[105.358199,41.785848],[105.200896,41.743474],[105.014809,41.596144],[104.97383,41.586145],[104.892336,41.644772],[104.504918,41.656554],[104.500784,41.870598],[103.691427,41.759235],[103.073481,42.004517],[102.034164,42.18461],[101.97422,42.20789],[101.886473,42.278015],[101.735371,42.461156],[101.637599,42.515442],[101.524945,42.537456],[101.21871,42.529834],[100.016975,42.676518],[99.474476,42.564199],[97.193271,42.78726],[96.357767,42.724499],[96.318699,42.910069],[95.874385,43.247103],[95.832837,43.408902],[95.692484,43.630542],[95.535284,43.95768],[95.510273,43.979125],[95.318967,44.017108],[95.322688,44.158236],[95.397722,44.280502],[95.036814,44.254974],[94.69823,44.343496],[94.588055,44.4361],[94.430132,44.504468],[94.338458,44.512116],[94.27748,44.589579],[94.181879,44.660841],[94.058579,44.651281],[93.927424,44.672933],[93.714,44.874575],[93.525278,44.951263],[93.420582,44.955087],[93.341,44.984852],[93.244158,44.981545],[93.165713,45.007642],[92.945055,45.005833],[92.847593,45.039112],[92.475109,44.997461],[92.285354,45.019527],[92.218898,45.010122],[92.042991,45.074821],[91.662963,45.059525],[91.533978,45.0711],[91.43848,45.146134],[91.366547,45.11425],[91.249138,45.129701],[91.184336,45.153834],[91.135036,45.197862],[91.056798,45.217551],[90.873243,45.186184],[90.857637,45.215071],[90.866629,45.25357],[90.796556,45.292844],[90.753251,45.42095],[90.651138,45.493142],[90.710773,45.752196],[91.002435,46.021843],[90.995923,46.113724],[90.948794,46.168294],[90.896188,46.302033],[90.935772,46.343865],[91.047496,46.566409],[90.995923,46.594625],[91.01556,46.703197],[91.004812,46.74043],[90.925333,46.813139],[90.936495,46.864427],[90.885129,46.944733],[90.828182,46.982301],[90.742399,46.991861],[90.712116,47.014702],[90.46872,47.308922],[90.487221,47.378194],[90.448153,47.404033],[90.441228,47.493045],[90.381594,47.538391],[90.327437,47.623037],[90.3448,47.658642],[90.163416,47.710009],[90.082852,47.756104],[90.052157,47.8107],[90.064352,47.85062],[90.044612,47.879766],[89.946685,47.883177],[89.934438,47.844264],[89.889066,47.824317],[89.751296,47.824317],[89.723391,47.878164],[89.655282,47.899816],[89.627376,47.943948],[89.583245,47.962035],[89.571876,48.020455],[89.5418,48.031023],[89.425425,48.021644],[89.354266,48.038774],[89.243989,47.980225],[89.074697,47.984256],[88.916825,48.105954],[88.805411,48.105954],[88.709189,48.166363],[88.635809,48.175846],[88.580774,48.211994],[88.558759,48.288087],[88.57297,48.32532],[88.50269,48.392551],[88.416701,48.394101],[88.304873,48.469006],[88.165967,48.493734],[87.95182,48.575202],[87.942828,48.599489],[88.055018,48.673413],[88.05941,48.708087],[87.975488,48.755992],[87.821078,48.788289],[87.796067,48.839759],[87.737879,48.86937],[87.735709,48.886733],[87.756896,48.920374],[87.8726,48.96802],[87.872238,49.00409],[87.821905,49.02874],[87.835548,49.100725],[87.816324,49.165837],[87.956781,49.168886],[88.143953,49.27074],[88.148397,49.296579],[88.115531,49.356575],[88.174752,49.443857],[88.37877,49.475793],[88.538761,49.466542],[88.615759,49.492949],[88.69565,49.446957],[88.870627,49.436002],[88.858741,49.527366],[88.88892,49.54168],[88.975323,49.455845],[89.160738,49.502716],[89.215619,49.545452],[89.178205,49.598472],[89.216445,49.634491],[89.37194,49.581678],[89.4416,49.643586],[89.702411,49.719964],[89.701532,49.75314],[89.626446,49.788022],[89.643551,49.818872],[89.615336,49.84192],[89.623862,49.902692],[89.667684,49.92729],[89.969423,49.96708],[89.996243,49.992764],[90.020531,50.070743],[90.222947,50.11441],[90.475232,50.21461],[90.683901,50.216212],[90.712633,50.237968],[90.726586,50.291867],[90.839964,50.320806],[91.012046,50.425295],[91.129765,50.426174],[91.260093,50.466585],[91.415743,50.461365],[91.475067,50.535986],[91.575733,50.561979],[91.653144,50.640063],[91.749779,50.684091],[91.899951,50.707242],[92.15885,50.689103],[92.242772,50.720006],[92.294449,50.791268],[92.301683,50.843358],[92.360905,50.868369],[92.399869,50.850592],[92.443277,50.786307],[92.554588,50.743002],[92.649776,50.674066],[92.735249,50.705227],[92.76026,50.770752],[92.796123,50.788012],[92.921077,50.792456],[92.961695,50.777884],[92.973374,50.694374],[93.011408,50.623319],[93.104942,50.598825],[93.421512,50.609367],[93.536337,50.584717],[94.25867,50.557535],[94.327503,50.404366],[94.354478,50.223602],[94.391788,50.185568],[94.491731,50.152289],[94.509094,50.109862],[94.603455,50.019739],[94.921575,50.045887],[94.98059,50.024751],[95.028339,49.963411],[95.076398,49.945531],[95.354727,49.947702],[95.500661,49.886724],[95.583964,49.936695],[95.721423,49.958502],[95.787672,50.011729],[95.827876,50.020152],[95.867047,50.014984],[95.922651,49.944601],[95.946319,49.938503],[96.055976,49.99881],[96.235603,49.9492],[96.346294,49.888584],[96.503287,49.922122],[96.585143,49.857526],[96.701932,49.91375],[96.969202,49.886672],[97.057259,49.812723],[97.119891,49.793654],[97.152964,49.750246],[97.262311,49.726113],[97.343339,49.734175],[97.57361,49.847501],[97.566582,49.916799],[97.756338,49.961499],[97.829925,49.92331],[97.906199,49.973075],[98.047999,50.023046],[98.105567,50.06387],[98.262457,50.283805],[98.266281,50.400697],[98.298217,50.460125],[98.293462,50.518623],[98.251294,50.550559],[98.135953,50.570971],[98.038491,50.622958],[97.944026,50.774473],[97.984644,50.846923],[97.835713,50.940716],[97.80636,51.001126],[97.870129,51.086805],[97.92904,51.21504],[97.922839,51.318471],[98.039731,51.4573],[98.111355,51.484714],[98.220392,51.475205],[98.228247,51.583416],[98.33222,51.718317],[98.618714,51.780665],[98.682689,51.819474],[98.776637,51.930113],[98.800201,51.992745],[98.846504,52.039331],[98.855599,52.106691],[98.886398,52.128551],[98.962465,52.112557],[98.994712,52.058296],[99.232837,51.994243],[99.32389,51.934221],[99.709655,51.880581],[99.917911,51.749478],[100.005968,51.731727],[100.510898,51.726895],[101.117011,51.527838],[101.241551,51.515177],[101.350175,51.450452],[101.526392,51.475826],[102.074679,51.374824],[102.193379,51.307205],[102.135295,51.240284],[102.146509,51.097632],[102.229656,50.979267],[102.215238,50.938184],[102.239475,50.912294],[102.203043,50.829353],[102.216789,50.798864],[102.329392,50.718817],[102.275907,50.650191],[102.271566,50.620942],[102.302933,50.563892],[102.513101,50.503688],[102.617798,50.399302],[102.762595,50.374807],[102.927391,50.302977],[103.20169,50.296983],[103.276776,50.197557],[103.43873,50.192596],[103.601407,50.13353],[103.66807,50.131205],[103.785272,50.186137],[104.03952,50.141178],[104.121685,50.148258],[104.198115,50.170014],[104.268963,50.228873],[104.405802,50.300548],[104.610441,50.314191],[104.671884,50.348297],[104.789552,50.352638],[104.901586,50.389794],[105.10576,50.390052],[105.240739,50.458006],[105.32864,50.476455],[105.639371,50.421936],[105.779259,50.428913],[105.984879,50.399767],[106.038933,50.371397],[106.055934,50.33357],[106.135309,50.32711],[106.222281,50.292384],[106.439787,50.327937],[106.656518,50.327007],[106.788293,50.291505],[106.973656,50.196369],[107.057113,50.074102],[107.192196,50.006044],[107.30485,50.010023],[107.364071,49.976124],[107.729321,49.971938],[107.80792,49.943878],[107.946517,49.933491],[107.952614,49.897472],[107.930032,49.851429],[107.955767,49.745544],[107.927448,49.670044],[108.015815,49.65573],[108.015711,49.602245],[108.106197,49.554341],[108.23637,49.532482],[108.334865,49.436363],[108.538057,49.32743],[108.930488,49.348824],[109.032962,49.327895],[109.160603,49.346653],[109.286693,49.33854],[109.450714,49.305932],[109.474382,49.269138],[109.51624,49.255909],[109.728527,49.266451],[109.81772,49.227746],[110.181419,49.161962],[110.268339,49.177051],[110.371175,49.24175],[110.451273,49.194569],[110.603615,49.145322],[110.731359,49.137674],[110.965557,49.207385],[111.13857,49.291566],[111.273549,49.32283],[111.338454,49.36474],[111.479117,49.343346],[111.661019,49.396366],[112.030195,49.411869],[112.473269,49.534135],[112.58427,49.526332],[112.701472,49.491295],[112.777126,49.501372],[112.947348,49.576096],[113.06083,49.595992],[113.087495,49.687408],[113.182683,49.801974],[113.579661,50.019945],[113.75226,50.078598],[113.849825,50.080717],[113.973125,50.160505],[114.286285,50.276881],[114.473043,50.234041],[114.659699,50.251404],[114.75375,50.236211],[114.997352,50.144331],[115.210156,49.97168],[115.387819,49.891064],[115.716275,49.877784],[116.053619,49.998448],[116.21764,50.013848],[116.575447,49.92176],[116.684278,49.823265]]]}}]}
