{"type":"FeatureCollection","features":[{"type":"Feature","properties":{"name":"Mauritania","ISO3166-1-Alpha-3":"MRT","ISO3166-1-Alpha-2":"MR"},"geometry":{"type":"MultiPolygon","coordinates":[[[[-8.682385,27.285416],[-5.515964,25.423256],[-4.821613,24.995065],[-6.593107,24.994134],[-5.949115,19.495633],[-5.623347,16.527829],[-5.60588,16.495893],[-5.353286,16.311977],[-5.510951,15.494197],[-9.349218,15.495644],[-9.329322,15.655247],[-9.332423,15.687571],[-9.356453,15.697854],[-9.451692,15.588326],[-9.42389,15.440532],[-9.672118,15.430661],[-9.835596,15.371104],[-9.951403,15.381207],[-10.067624,15.364748],[-10.322647,15.437095],[-10.725361,15.433064],[-10.746807,15.341132],[-10.827216,15.287698],[-10.915169,15.102904],[-11.045393,15.270206],[-11.298195,15.451048],[-11.409557,15.602201],[-11.458236,15.632949],[-11.524382,15.643465],[-11.515391,15.610082],[-11.614868,15.541171],[-11.644117,15.526444],[-11.727057,15.541171],[-11.845655,15.179075],[-11.860899,15.049005],[-11.81377,15.028541],[-11.820385,14.89997],[-11.877487,14.841524],[-11.935985,14.823618],[-11.991486,14.76804],[-12.049673,14.767213],[-12.070395,14.734399],[-12.138867,14.784525],[-12.246793,14.767007],[-12.382495,14.84602],[-12.447633,14.907437],[-12.484892,15.017276],[-12.622946,15.102258],[-12.717049,15.10342],[-12.779758,15.146389],[-12.787225,15.214163],[-12.856782,15.221992],[-12.888356,15.250879],[-12.884196,15.270826],[-12.83345,15.269999],[-12.828049,15.283874],[-12.918974,15.365368],[-12.96432,15.509158],[-13.083845,15.49275],[-13.091806,15.575123],[-13.109712,15.596413],[-13.178235,15.628194],[-13.237844,15.62344],[-13.248747,15.65672],[-13.228258,15.71129],[-13.286135,15.769633],[-13.27996,15.82286],[-13.31603,15.881771],[-13.315927,15.93045],[-13.369774,15.985485],[-13.388558,16.052096],[-13.440028,16.101861],[-13.501703,16.095143],[-13.484934,16.154984],[-13.668954,16.105736],[-13.719571,16.135605],[-13.71058,16.188884],[-13.729416,16.189504],[-13.794941,16.131213],[-13.835766,16.120568],[-13.883825,16.193741],[-13.964078,16.23007],[-13.97785,16.33797],[-14.073038,16.400654],[-14.214166,16.534961],[-14.268065,16.54788],[-14.277961,16.581263],[-14.335322,16.586482],[-14.335529,16.631544],[-14.406635,16.660793],[-14.49309,16.632474],[-14.912496,16.640639],[-14.974301,16.691385],[-15.036933,16.632578],[-15.107574,16.665392],[-15.118271,16.642603],[-15.093208,16.600176],[-15.125093,16.58271],[-15.328026,16.571961],[-15.414532,16.548035],[-15.463987,16.58147],[-15.52481,16.522197],[-15.609663,16.521318],[-15.672191,16.481372],[-15.896932,16.518424],[-16.05377,16.495428],[-16.132266,16.554753],[-16.195363,16.522714],[-16.273808,16.523179],[-16.334941,16.455793],[-16.385378,16.234927],[-16.458758,16.194155],[-16.507541,16.010393],[-16.519736,15.846372],[-16.542348,15.808824],[-16.529286,16.332709],[-16.467152,16.492865],[-16.459218,16.643948],[-16.343088,16.942288],[-16.172597,17.262356],[-16.078969,17.544827],[-16.04898,17.667182],[-16.024159,17.96015],[-16.035227,18.141425],[-16.069407,18.484036],[-16.131988,18.628648],[-16.204579,18.982733],[-16.282786,19.130439],[-16.368276,19.221503],[-16.467193,19.259263],[-16.535471,19.380805],[-16.52184,19.39643],[-16.407786,19.389228],[-16.359202,19.415839],[-16.284901,19.529283],[-16.307281,19.543606],[-16.391469,19.464057],[-16.350494,19.546617],[-16.364654,19.539252],[-16.426259,19.482489],[-16.439931,19.413235],[-16.465077,19.412543],[-16.467193,19.464057],[-16.422515,19.54385],[-16.384633,19.57392],[-16.233795,19.793647],[-16.248036,19.827826],[-16.233795,19.861965],[-16.254872,19.848293],[-16.257802,19.864163],[-16.248036,19.902899],[-16.26651,19.913723],[-16.305572,19.873033],[-16.313303,19.889716],[-16.222483,20.003567],[-16.218373,20.057929],[-16.261138,20.135688],[-16.211659,20.175605],[-16.20226,20.233303],[-16.23762,20.289984],[-16.295074,20.330552],[-16.34789,20.417548],[-16.339955,20.441067],[-16.391184,20.569485],[-16.423899,20.601264],[-16.429555,20.644232],[-16.467193,20.649604],[-16.408681,20.675035],[-16.480824,20.675116],[-16.501332,20.725979],[-16.529286,20.738959],[-16.542348,20.560858],[-16.672678,20.677558],[-16.659006,20.697984],[-16.671132,20.737128],[-16.710194,20.770006],[-16.775054,20.937649],[-16.788686,20.923977],[-16.803212,20.937445],[-16.917592,21.159166],[-17.015859,21.031236],[-16.997182,21.0185],[-17.004384,20.93244],[-17.049428,20.90351],[-17.027903,20.854234],[-17.056874,20.766913],[-17.077428,20.904513],[-16.968339,21.324591],[-13.015247,21.333428],[-13.09333,22.495476],[-13.15498,22.688797],[-13.152293,22.820004],[-13.015247,23.018002],[-12.619432,23.270829],[-12.353892,23.322479],[-12.019339,23.460998],[-12.015308,25.9949],[-8.687656,26.000016],[-8.682385,27.285416]]],[[[-16.377797,19.813544],[-16.345937,19.868354],[-16.367055,19.721096],[-16.432485,19.601264],[-16.463979,19.684638],[-16.426259,19.748969],[-16.418202,19.805609],[-16.39094,19.826117],[-16.377797,19.813544]]],[[[-16.320912,19.728502],[-16.301625,19.722602],[-16.397694,19.599921],[-16.320912,19.728502]]],[[[-16.477162,19.731513],[-16.484242,19.67772],[-16.496897,19.705512],[-16.477162,19.731513]]],[[[-16.459299,20.614691],[-16.454172,20.571112],[-16.474233,20.594184],[-16.459299,20.614691]]]]}}]}
