{"type":"FeatureCollection","features":[{"type":"Feature","properties":{"name":"Mauritius","ISO3166-1-Alpha-3":"MUS","ISO3166-1-Alpha-2":"MU"},"geometry":{"type":"MultiPolygon","coordinates":[[[[57.795746,-20.222752],[57.781505,-20.335707],[57.729259,-20.363946],[57.71225,-20.387465],[57.723318,-20.434259],[57.672211,-20.479669],[57.503591,-20.517348],[57.378103,-20.507013],[57.307872,-20.444268],[57.303477,-20.430922],[57.36378,-20.414483],[57.370616,-20.260512],[57.400157,-20.200616],[57.490733,-20.140802],[57.528087,-20.030857],[57.596528,-19.982599],[57.679698,-19.999933],[57.708832,-20.089939],[57.744802,-20.105076],[57.744477,-20.143813],[57.795746,-20.222752]]],[[[56.524181,-10.330011],[56.535655,-10.323907],[56.569347,-10.406508],[56.524181,-10.330011]]],[[[63.476248,-19.67783],[63.493907,-19.681899],[63.469412,-19.722914],[63.366384,-19.767185],[63.332286,-19.736423],[63.343272,-19.709731],[63.389171,-19.684747],[63.476248,-19.67783]]]]}}]}
