{"type":"FeatureCollection","features":[{"type":"Feature","properties":{"name":"Maldives","ISO3166-1-Alpha-3":"MDV","ISO3166-1-Alpha-2":"MV"},"geometry":{"type":"MultiPolygon","coordinates":[[[[73.163097,-0.681817],[73.172537,-0.688572],[73.165863,-0.688409],[73.163097,-0.681817]]],[[[73.204112,-0.671157],[73.199229,-0.678643],[73.191417,-0.682794],[73.204112,-0.671157]]],[[[73.124278,-0.656183],[73.126964,-0.666274],[73.123302,-0.66253],[73.124278,-0.656183]]],[[[73.240001,-0.625584],[73.227306,-0.642836],[73.229991,-0.623305],[73.240001,-0.625584]]],[[[73.246755,-0.588637],[73.236339,-0.59238],[73.248383,-0.580824],[73.246755,-0.588637]]],[[[73.435069,-0.283624],[73.445079,-0.29754],[73.437999,-0.298598],[73.435069,-0.283624]]],[[[73.09547,0.228013],[73.10434,0.219631],[73.09783,0.218777],[73.09547,0.228013]]],[[[73.208995,0.239976],[73.217377,0.237698],[73.210948,0.232164],[73.208995,0.239976]]],[[[73.036794,0.269924],[73.040375,0.259345],[73.035411,0.26317],[73.036794,0.269924]]],[[[73.379161,0.285224],[73.36964,0.280015],[73.373709,0.286933],[73.379161,0.285224]]],[[[72.983653,0.305243],[72.987722,0.302232],[72.986013,0.299547],[72.983653,0.305243]]],[[[73.513438,0.387763],[73.508637,0.380683],[73.50587,0.386176],[73.513438,0.387763]]],[[[72.958344,0.403306],[72.961111,0.394273],[72.957774,0.396796],[72.958344,0.403306]]],[[[72.940929,0.496283],[72.940603,0.487291],[72.937022,0.491441],[72.940929,0.496283]]],[[[73.491954,0.508002],[73.49464,0.498969],[73.489757,0.50259],[73.491954,0.508002]]],[[[73.387869,0.64175],[73.386729,0.635403],[73.383556,0.638902],[73.387869,0.64175]]],[[[73.373057,0.763088],[73.371837,0.756578],[73.369802,0.761664],[73.373057,0.763088]]],[[[73.353852,0.847724],[73.353201,0.843207],[73.351166,0.840684],[73.353852,0.847724]]],[[[72.831391,3.510565],[72.834727,3.506781],[72.828054,3.505439],[72.831391,3.510565]]],[[[72.793712,3.516913],[72.795177,3.514635],[72.791189,3.510891],[72.793712,3.516913]]],[[[72.928396,3.551907],[72.911632,3.541653],[72.919932,3.552151],[72.928396,3.551907]]],[[[72.941905,3.618842],[72.94516,3.615139],[72.938487,3.613715],[72.941905,3.618842]]],[[[72.692556,3.726955],[72.696462,3.721015],[72.692475,3.716295],[72.692556,3.726955]]],[[[73.477306,3.942125],[73.469981,3.935126],[73.469249,3.936957],[73.477306,3.942125]]],[[[72.703136,4.003323],[72.706228,3.99844],[72.699474,3.998114],[72.703136,4.003323]]],[[[73.508149,4.103583],[73.508311,4.093329],[73.502452,4.098538],[73.508149,4.103583]]],[[[72.97047,4.265937],[72.974376,4.263251],[72.972504,4.260403],[72.97047,4.265937]]],[[[73.70281,4.434719],[73.700857,4.432278],[73.697602,4.431464],[73.70281,4.434719]]],[[[73.70281,4.45303],[73.702647,4.452908],[73.69988,4.449164],[73.70281,4.45303]]],[[[73.37672,4.474433],[73.373871,4.466986],[73.373871,4.468899],[73.37672,4.474433]]],[[[73.404959,4.634996],[73.405528,4.62995],[73.401215,4.629828],[73.404959,4.634996]]],[[[73.490489,4.723375],[73.490733,4.716742],[73.486664,4.718207],[73.490489,4.723375]]],[[[72.97934,4.895453],[72.969656,4.880723],[72.970063,4.890367],[72.97934,4.895453]]],[[[72.917491,4.898586],[72.922862,4.899075],[72.920909,4.897854],[72.917491,4.898586]]],[[[73.447276,4.97134],[73.436534,4.969875],[73.441173,4.974921],[73.447276,4.97134]]],[[[72.912852,5.034084],[72.909434,5.030788],[72.90919,5.030585],[72.912852,5.034084]]],[[[72.927745,5.036526],[72.927175,5.034247],[72.92571,5.033474],[72.927745,5.036526]]],[[[73.04477,5.121812],[73.04477,5.121649],[73.043468,5.118842],[73.04477,5.121812]]],[[[73.049083,5.133287],[73.051443,5.128079],[73.045258,5.128892],[73.049083,5.133287]]],[[[73.091319,5.161363],[73.090994,5.158515],[73.087901,5.157986],[73.091319,5.161363]]],[[[73.103852,5.173041],[73.106944,5.17178],[73.110199,5.170356],[73.103852,5.173041]]],[[[72.860118,5.237942],[72.860037,5.23782],[72.856863,5.234565],[72.860118,5.237942]]],[[[73.131847,5.244574],[73.131847,5.242499],[73.128429,5.241156],[73.131847,5.244574]]],[[[73.499766,5.246894],[73.499685,5.246812],[73.497244,5.245022],[73.499766,5.246894]]],[[[73.593598,5.282701],[73.577647,5.274563],[73.575938,5.279934],[73.593598,5.282701]]],[[[73.112804,5.29857],[73.112641,5.298448],[73.109223,5.295152],[73.112804,5.29857]]],[[[73.470225,5.307766],[73.464366,5.306871],[73.467052,5.308336],[73.470225,5.307766]]],[[[73.629568,5.332831],[73.629405,5.33275],[73.627208,5.331122],[73.629568,5.332831]]],[[[73.646658,5.343248],[73.646495,5.343248],[73.639903,5.34219],[73.646658,5.343248]]],[[[72.953136,5.352769],[72.952403,5.350084],[72.949555,5.349311],[72.953136,5.352769]]],[[[73.397472,5.362209],[73.400645,5.357652],[73.396169,5.357123],[73.397472,5.362209]]],[[[73.323253,5.368232],[73.327973,5.367011],[73.319347,5.362942],[73.323253,5.368232]]],[[[73.350759,5.42768],[73.3449,5.426825],[73.344574,5.426744],[73.350759,5.42768]]],[[[73.537446,5.451402],[73.534923,5.449856],[73.531261,5.450426],[73.537446,5.451402]]],[[[73.362966,5.46308],[73.362966,5.462795],[73.360932,5.457953],[73.362966,5.46308]]],[[[72.943126,5.467597],[72.941091,5.463568],[72.937022,5.465522],[72.943126,5.467597]]],[[[73.01588,5.492865],[73.013031,5.487454],[73.009939,5.49022],[73.01588,5.492865]]],[[[73.462413,5.543606],[73.459321,5.541734],[73.456472,5.542629],[73.462413,5.543606]]],[[[73.005626,5.713324],[73.002289,5.707099],[73.000173,5.713202],[73.005626,5.713324]]],[[[72.949392,6.349799],[72.951182,6.347602],[72.953136,6.343492],[72.949392,6.349799]]],[[[72.892589,6.452094],[72.896902,6.448188],[72.891775,6.446723],[72.892589,6.452094]]],[[[73.097504,-0.599705],[73.118663,-0.64129],[73.0949,-0.604669],[73.104991,-0.579197],[73.097504,-0.599705]]],[[[73.365001,1.791083],[73.375824,1.78856],[73.368256,1.782945],[73.365001,1.791083]]],[[[73.400238,1.806342],[73.40211,1.7956],[73.394786,1.798774],[73.400238,1.806342]]],[[[73.452647,1.826809],[73.463634,1.826321],[73.454112,1.820543],[73.452647,1.826809]]],[[[73.518077,1.842719],[73.49879,1.828111],[73.500092,1.832058],[73.518077,1.842719]]],[[[73.536469,1.870103],[73.53297,1.86164],[73.5324,1.865668],[73.536469,1.870103]]],[[[73.25172,1.892401],[73.243988,1.89411],[73.247406,1.893988],[73.25172,1.892401]]],[[[73.553071,1.93244],[73.545665,1.901557],[73.540863,1.892401],[73.553071,1.93244]]],[[[73.550059,1.976386],[73.549815,1.965684],[73.547699,1.968329],[73.550059,1.976386]]],[[[73.317231,1.9914],[73.322602,1.987982],[73.31544,1.985053],[73.317231,1.9914]]],[[[73.5442,2.026597],[73.542979,2.022162],[73.540294,2.022528],[73.5442,2.026597]]],[[[73.386974,2.033026],[73.386974,2.028632],[73.386241,2.030341],[73.386974,2.033026]]],[[[73.555675,2.082506],[73.551443,2.072414],[73.55128,2.07807],[73.555675,2.082506]]],[[[73.567638,2.109931],[73.58546,2.109605],[73.561778,2.094713],[73.567638,2.109931]]],[[[73.043712,2.166449],[73.041352,2.1647],[73.038259,2.164537],[73.043712,2.166449]]],[[[73.103852,2.186591],[73.102875,2.182115],[73.098888,2.184638],[73.103852,2.186591]]],[[[73.115489,2.199693],[73.12086,2.191799],[73.113943,2.193508],[73.115489,2.199693]]],[[[72.948416,2.274888],[72.946381,2.272406],[72.9463,2.272366],[72.948416,2.274888]]],[[[72.926117,2.32746],[72.927013,2.316067],[72.922374,2.322089],[72.926117,2.32746]]],[[[73.344005,2.348049],[73.343923,2.347439],[73.342296,2.342393],[73.344005,2.348049]]],[[[73.354259,2.437201],[73.365326,2.413886],[73.362641,2.385118],[73.354259,2.437201]]],[[[73.314789,2.505805],[73.315196,2.494045],[73.311778,2.496894],[73.314789,2.505805]]],[[[73.145518,2.55329],[73.143809,2.55036],[73.141124,2.55036],[73.145518,2.55329]]],[[[72.900076,2.682196],[72.905284,2.680813],[72.901134,2.676174],[72.900076,2.682196]]],[[[72.872569,2.694159],[72.873709,2.68358],[72.866954,2.688951],[72.872569,2.694159]]],[[[73.022309,2.741685],[73.032237,2.745022],[73.025401,2.737616],[73.022309,2.741685]]],[[[73.353526,2.778266],[73.353526,2.771918],[73.348481,2.775377],[73.353526,2.778266]]],[[[73.399262,2.785712],[73.390636,2.775377],[73.394379,2.784329],[73.399262,2.785712]]],[[[73.548595,2.892727],[73.550141,2.891343],[73.549083,2.888129],[73.548595,2.892727]]],[[[73.360362,2.903876],[73.362804,2.898383],[73.35727,2.899807],[73.360362,2.903876]]],[[[73.008474,2.953315],[73.010427,2.945258],[73.009044,2.946438],[73.008474,2.953315]]],[[[73.56422,2.954739],[73.56422,2.954617],[73.56129,2.948472],[73.56422,2.954739]]],[[[73.585948,2.961615],[73.577485,2.951158],[73.581309,2.96015],[73.585948,2.961615]]],[[[72.870128,2.969184],[72.870128,2.969062],[72.865082,2.958157],[72.870128,2.969184]]],[[[72.901622,3.083808],[72.904796,3.081285],[72.899913,3.07685],[72.901622,3.083808]]],[[[73.613048,3.106757],[73.612559,3.102973],[73.608409,3.100409],[73.613048,3.106757]]],[[[72.977875,3.110175],[72.981293,3.106635],[72.975108,3.104193],[72.977875,3.110175]]],[[[73.042247,3.205471],[73.045665,3.202867],[73.040701,3.198472],[73.042247,3.205471]]],[[[73.031749,3.252997],[73.035167,3.249335],[73.031749,3.245673],[73.031749,3.252997]]],[[[72.833263,3.312486],[72.837087,3.309638],[72.831554,3.305609],[72.833263,3.312486]]],[[[73.516368,3.361233],[73.517426,3.360297],[73.518891,3.358873],[73.516368,3.361233]]],[[[73.747569,3.451117],[73.753103,3.446438],[73.751231,3.44713],[73.747569,3.451117]]],[[[73.50587,3.501207],[73.508474,3.496568],[73.506196,3.497626],[73.50587,3.501207]]],[[[72.952403,3.733832],[72.955821,3.730129],[72.948985,3.728583],[72.952403,3.733832]]],[[[72.945811,3.772121],[72.949067,3.768378],[72.944916,3.765448],[72.945811,3.772121]]],[[[72.944591,3.836859],[72.947765,3.833075],[72.941173,3.831692],[72.944591,3.836859]]],[[[73.437266,3.846625],[73.433442,3.842719],[73.432465,3.846829],[73.437266,3.846625]]],[[[73.443533,3.920559],[73.443451,3.920478],[73.438487,3.916612],[73.443533,3.920559]]],[[[73.345063,3.944729],[73.3449,3.944566],[73.341482,3.942043],[73.345063,3.944729]]],[[[73.422618,4.118354],[73.422537,4.118191],[73.419119,4.115749],[73.422618,4.118354]]],[[[73.546197,4.243039],[73.538174,4.183312],[73.510891,4.162087],[73.431201,4.184649],[73.512015,4.186301],[73.546197,4.243039]]],[[[72.94516,4.266303],[72.958588,4.262519],[72.954356,4.261461],[72.94516,4.266303]]],[[[73.595876,4.342271],[73.595714,4.34219],[73.589366,4.340562],[73.595876,4.342271]]],[[[73.611501,4.363105],[73.61199,4.3581],[73.607677,4.3581],[73.611501,4.363105]]],[[[73.63795,4.370551],[73.637462,4.365465],[73.633637,4.364691],[73.63795,4.370551]]],[[[73.667979,4.3935],[73.668468,4.388495],[73.664317,4.388332],[73.667979,4.3935]]],[[[72.957042,4.4383],[72.956065,4.422105],[72.947113,4.423082],[72.957042,4.4383]]],[[[73.553559,4.62051],[73.554047,4.615465],[73.550955,4.613837],[73.553559,4.62051]]],[[[73.629568,5.418524],[73.636729,5.402899],[73.632498,5.386257],[73.629568,5.418524]]],[[[73.005626,5.463202],[73.002615,5.457587],[72.999034,5.461086],[73.005626,5.463202]]],[[[72.883962,5.494086],[72.881847,5.490058],[72.877696,5.492092],[72.883962,5.494086]]],[[[73.019054,5.617825],[73.016856,5.613756],[73.014008,5.611558],[73.019054,5.617825]]],[[[73.014659,5.676988],[73.012462,5.673],[73.008556,5.675035],[73.014659,5.676988]]],[[[73.392833,5.737698],[73.380707,5.714586],[73.379812,5.715074],[73.392833,5.737698]]],[[[72.986827,5.770738],[72.98585,5.76557],[72.982839,5.762559],[72.986827,5.770738]]],[[[73.382335,5.794989],[73.384288,5.789252],[73.380707,5.784125],[73.382335,5.794989]]],[[[72.976573,5.813625],[72.975108,5.804551],[72.970958,5.808417],[72.976573,5.813625]]],[[[73.44988,5.840766],[73.433767,5.830878],[73.438975,5.838284],[73.44988,5.840766]]],[[[72.963634,5.864325],[72.963715,5.86404],[72.962657,5.853461],[72.963634,5.864325]]],[[[73.429047,5.911363],[73.428477,5.908515],[73.42628,5.903266],[73.429047,5.911363]]],[[[72.931651,5.969062],[72.930186,5.956936],[72.925792,5.963284],[72.931651,5.969062]]],[[[73.389822,5.970282],[73.395333,5.957802],[73.386729,5.961982],[73.389822,5.970282]]],[[[72.915701,5.98135],[72.913422,5.977362],[72.909841,5.977932],[72.915701,5.98135]]],[[[73.250743,6.083401],[73.250662,6.083279],[73.249034,6.079535],[73.250743,6.083401]]],[[[73.252126,6.111233],[73.251964,6.111151],[73.246837,6.107733],[73.252126,6.111233]]],[[[73.22047,6.132066],[73.220388,6.131985],[73.219005,6.129299],[73.22047,6.132066]]],[[[73.270274,6.156928],[73.268077,6.152411],[73.265147,6.150621],[73.270274,6.156928]]],[[[73.219086,6.172349],[73.218923,6.172268],[73.214041,6.168769],[73.219086,6.172349]]],[[[73.270844,6.189439],[73.268077,6.178697],[73.265961,6.185004],[73.270844,6.189439]]],[[[73.03419,6.222357],[73.034028,6.222235],[73.028982,6.218817],[73.03419,6.222357]]],[[[73.24171,6.239691],[73.243663,6.234036],[73.236339,6.232123],[73.24171,6.239691]]],[[[73.128429,6.286851],[73.12615,6.284003],[73.123057,6.283352],[73.128429,6.286851]]],[[[73.21518,6.294827],[73.213064,6.289211],[73.208751,6.286444],[73.21518,6.294827]]],[[[73.083344,6.30858],[73.083263,6.308458],[73.078461,6.305121],[73.083344,6.30858]]],[[[73.197032,6.32746],[73.199311,6.324205],[73.195079,6.319648],[73.197032,6.32746]]],[[[73.124522,6.332506],[73.124197,6.332261],[73.119314,6.328925],[73.124522,6.332506]]],[[[73.187266,6.350775],[73.183604,6.347317],[73.181,6.34984],[73.187266,6.350775]]],[[[73.020518,6.368964],[73.023936,6.365871],[73.019298,6.363593],[73.020518,6.368964]]],[[[72.690929,6.411607],[72.687185,6.407416],[72.685883,6.411607],[72.690929,6.411607]]],[[[72.902843,6.440172],[72.906912,6.436428],[72.902029,6.43476],[72.902843,6.440172]]],[[[73.048813,6.441342],[73.046235,6.436265],[73.043305,6.433865],[73.048813,6.441342]]],[[[72.962087,6.559027],[72.958018,6.554348],[72.958344,6.560696],[72.962087,6.559027]]],[[[72.924001,6.565253],[72.927501,6.562079],[72.923106,6.559882],[72.924001,6.565253]]],[[[73.029959,6.582343],[73.030121,6.577541],[73.027354,6.576483],[73.029959,6.582343]]],[[[73.04477,6.621894],[73.040701,6.617174],[73.041026,6.623603],[73.04477,6.621894]]],[[[73.069509,6.667955],[73.061778,6.660956],[73.064138,6.668402],[73.069509,6.667955]]],[[[73.105968,6.709947],[73.102306,6.702338],[73.095876,6.698432],[73.105968,6.709947]]],[[[73.036632,6.759711],[73.036225,6.756781],[73.033865,6.753852],[73.036632,6.759711]]],[[[72.918468,6.763983],[72.914317,6.759223],[72.913259,6.764879],[72.918468,6.763983]]],[[[73.159516,6.786526],[73.165538,6.783149],[73.131847,6.725165],[73.159516,6.786526]]],[[[73.181651,6.830512],[73.197276,6.828111],[73.183767,6.821112],[73.181651,6.830512]]],[[[72.995779,6.841498],[72.992442,6.837877],[72.989431,6.837633],[72.995779,6.841498]]],[[[73.144379,6.843411],[73.141287,6.839911],[73.139008,6.844428],[73.144379,6.843411]]],[[[72.976085,6.852851],[72.976248,6.848049],[72.974132,6.845852],[72.976085,6.852851]]],[[[73.098155,6.8522],[73.095063,6.8487],[73.092947,6.853095],[73.098155,6.8522]]],[[[72.964692,6.860663],[72.960623,6.856065],[72.958344,6.857001],[72.964692,6.860663]]],[[[73.106212,6.896674],[73.106537,6.89053],[73.101736,6.893541],[73.106212,6.896674]]],[[[73.214041,6.918606],[73.208751,6.891099],[73.201915,6.902248],[73.214041,6.918606]]],[[[72.925955,6.957424],[72.925955,6.957017],[72.92628,6.953803],[72.925955,6.957424]]],[[[73.198497,6.97134],[73.19337,6.950995],[73.191905,6.951646],[73.198497,6.97134]]],[[[72.891938,6.991034],[72.891938,6.987698],[72.890554,6.98546],[72.891938,6.991034]]],[[[72.979747,7.027737],[72.981456,7.013983],[72.977224,7.02261],[72.979747,7.027737]]],[[[72.949962,7.056545],[72.949962,7.056423],[72.948497,7.050849],[72.949962,7.056545]]],[[[72.912852,7.092719],[72.911876,7.083197],[72.906586,7.09101],[72.912852,7.092719]]],[[[72.8838,7.107245],[72.884532,7.105699],[72.884532,7.103705],[72.8838,7.107245]]]]}}]}
