{"type":"FeatureCollection","features":[{"type":"Feature","properties":{"name":"Malawi","ISO3166-1-Alpha-3":"MWI","ISO3166-1-Alpha-2":"MW"},"geometry":{"type":"MultiPolygon","coordinates":[[[[34.964615,-11.573556],[34.616729,-11.57831],[34.60443,-11.732616],[34.563812,-11.830905],[34.35876,-12.154399],[34.354006,-12.199461],[34.494463,-12.68739],[34.549343,-13.159092],[34.545312,-13.325749],[34.640603,-13.492354],[34.863122,-13.515815],[35.084091,-13.704227],[35.455748,-14.136965],[35.522824,-14.262746],[35.847248,-14.650422],[35.863268,-14.876662],[35.904299,-14.886894],[35.784203,-15.171838],[35.84053,-15.417197],[35.785133,-16.042275],[35.687051,-16.112659],[35.529025,-16.140771],[35.514555,-16.171363],[35.4358,-16.123924],[35.374616,-16.140977],[35.258757,-16.271512],[35.266198,-16.356468],[35.238707,-16.394089],[35.228165,-16.47026],[35.131943,-16.537646],[35.174318,-16.625496],[35.222997,-16.642136],[35.278187,-16.700737],[35.310227,-16.850598],[35.285215,-16.871062],[35.270953,-16.944236],[35.314361,-16.98227],[35.298651,-17.013586],[35.304956,-17.104226],[35.291933,-17.129341],[35.234779,-17.135335],[35.066004,-17.109807],[35.069104,-17.084072],[35.036548,-17.03591],[35.044403,-17.004697],[35.113443,-16.960256],[35.125122,-16.932867],[35.1183,-16.833442],[35.095769,-16.817319],[35.004509,-16.814631],[34.905497,-16.740838],[34.893508,-16.705698],[34.844622,-16.678412],[34.732071,-16.529171],[34.65497,-16.48938],[34.524745,-16.300761],[34.44599,-16.293216],[34.426456,-16.273889],[34.385219,-16.186453],[34.404546,-16.059742],[34.304293,-15.952152],[34.244039,-15.917632],[34.233186,-15.88983],[34.247139,-15.794125],[34.34181,-15.730873],[34.404029,-15.646847],[34.419118,-15.575327],[34.410127,-15.481276],[34.565156,-15.297308],[34.548723,-15.057633],[34.584173,-14.984459],[34.5511,-14.918313],[34.542832,-14.796253],[34.505831,-14.700342],[34.519371,-14.640811],[34.501801,-14.575698],[34.426456,-14.497564],[34.372093,-14.401962],[34.344084,-14.387389],[34.18244,-14.439479],[34.109576,-14.441443],[34.050769,-14.495186],[33.916307,-14.481337],[33.802412,-14.532807],[33.720401,-14.489709],[33.684073,-14.518751],[33.672239,-14.600193],[33.64485,-14.601743],[33.595758,-14.511413],[33.439178,-14.380671],[33.354325,-14.225332],[33.290557,-14.156913],[33.280221,-14.060794],[33.202707,-14.013872],[33.140282,-13.924989],[32.999825,-14.050459],[32.9713,-14.005914],[32.976261,-13.944522],[32.93616,-13.926229],[32.923912,-13.880444],[32.874148,-13.820602],[32.763044,-13.777194],[32.757359,-13.750219],[32.813377,-13.711152],[32.769865,-13.646866],[32.67509,-13.628056],[32.663308,-13.596327],[32.677261,-13.567801],[32.722839,-13.573382],[32.813066,-13.528217],[32.819061,-13.471683],[32.874251,-13.443158],[32.892131,-13.404814],[32.937865,-13.255882],[32.998171,-13.202449],[32.965925,-13.116821],[33.013571,-12.917247],[32.947012,-12.843246],[32.941121,-12.769865],[33.024836,-12.612666],[33.057703,-12.583417],[33.081267,-12.604811],[33.13036,-12.583727],[33.173251,-12.620004],[33.255107,-12.531947],[33.350398,-12.532671],[33.451115,-12.452986],[33.465326,-12.409061],[33.527131,-12.355627],[33.525581,-12.335267],[33.458298,-12.31811],[33.384608,-12.340021],[33.349468,-12.327929],[33.299962,-12.195947],[33.25273,-12.139516],[33.2549,-12.072647],[33.312674,-11.898704],[33.297378,-11.846511],[33.314018,-11.7722],[33.296758,-11.593606],[33.212629,-11.563841],[33.233816,-11.514025],[33.230302,-11.416563],[33.239707,-11.402404],[33.265184,-11.423074],[33.273503,-11.369641],[33.298928,-11.353104],[33.390912,-11.164795],[33.303682,-11.034571],[33.280325,-10.913338],[33.239604,-10.903106],[33.232576,-10.883262],[33.241412,-10.865692],[33.288128,-10.856701],[33.319082,-10.81815],[33.43401,-10.808125],[33.500983,-10.769161],[33.528268,-10.711593],[33.674203,-10.577028],[33.665418,-10.515119],[33.622733,-10.494035],[33.532919,-10.342623],[33.533281,-10.231209],[33.480519,-10.177052],[33.304096,-10.063777],[33.309987,-10.012721],[33.365591,-9.898826],[33.343473,-9.83144],[33.287766,-9.803845],[33.216711,-9.727054],[33.214282,-9.654707],[33.175422,-9.602307],[33.09832,-9.588458],[33.08044,-9.662251],[33.03574,-9.616983],[32.986906,-9.628455],[32.97471,-9.601273],[32.99197,-9.501848],[32.927788,-9.479834],[32.920863,-9.4079],[32.936263,-9.391674],[32.97471,-9.381235],[33.103901,-9.487895],[33.172941,-9.511046],[33.202397,-9.493476],[33.300272,-9.492236],[33.438971,-9.62153],[33.480519,-9.624424],[33.559481,-9.593315],[33.650638,-9.610988],[33.734612,-9.584117],[33.911862,-9.717959],[33.954857,-9.660598],[33.964469,-9.594659],[33.945866,-9.55001],[34.012735,-9.477457],[34.079811,-9.511046],[34.317936,-9.719199],[34.331682,-9.769222],[34.4833,-9.946162],[34.536424,-10.043003],[34.524745,-10.094783],[34.58562,-10.290017],[34.565053,-10.409803],[34.592958,-10.481736],[34.581072,-10.539717],[34.600399,-10.578061],[34.624377,-10.583436],[34.660034,-10.665498],[34.647631,-10.708389],[34.67502,-10.752418],[34.656727,-10.769884],[34.645461,-10.913235],[34.592958,-11.016174],[34.613525,-11.102164],[34.714087,-11.202726],[34.72866,-11.253989],[34.757496,-11.277553],[34.737032,-11.296777],[34.765557,-11.345146],[34.80049,-11.331917],[34.886583,-11.375429],[34.960687,-11.498522],[34.964615,-11.573556]]],[[[34.69414,-12.000403],[34.738272,-12.009498],[34.762353,-12.040298],[34.732484,-12.109027],[34.688973,-12.12453],[34.669026,-12.117812],[34.6559,-12.076264],[34.69414,-12.000403]]],[[[34.561642,-11.978596],[34.598436,-11.970534],[34.627478,-11.987278],[34.641224,-12.01787],[34.611148,-12.072544],[34.544072,-12.011359],[34.561642,-11.978596]]]]}}]}
