{"type":"FeatureCollection","features":[{"type":"Feature","properties":{"name":"Mexico","ISO3166-1-Alpha-3":"MEX","ISO3166-1-Alpha-2":"MX"},"geometry":{"type":"MultiPolygon","coordinates":[[[[-97.139272,25.965806],[-97.16747,25.828599],[-97.165151,25.723334],[-97.319447,25.38996],[-97.458974,25.179389],[-97.651438,24.515855],[-97.716664,24.008124],[-97.725209,23.80565],[-97.750966,23.781928],[-97.822092,23.788398],[-97.75886,23.769029],[-97.76061,23.651923],[-97.733306,23.774807],[-97.722239,23.739325],[-97.768544,23.260077],[-97.74234,22.972073],[-97.753814,22.849311],[-97.753896,22.923245],[-97.838246,22.739691],[-97.876698,22.739447],[-97.855051,22.698554],[-97.890981,22.596096],[-97.850006,22.602932],[-97.853342,22.643948],[-97.834299,22.669745],[-97.850006,22.534613],[-97.774281,22.253485],[-97.76061,22.095852],[-97.610463,21.835761],[-97.508127,21.722805],[-97.342275,21.602973],[-97.316233,21.56094],[-97.34789,21.417914],[-97.418609,21.273383],[-97.472239,21.437812],[-97.419423,21.476752],[-97.390736,21.472642],[-97.370229,21.537502],[-97.486887,21.63642],[-97.625071,21.79442],[-97.658844,21.907457],[-97.685902,21.924506],[-97.781117,22.095852],[-97.719716,21.951809],[-97.708363,21.82746],[-97.657582,21.636542],[-97.562001,21.485663],[-97.48941,21.48078],[-97.496816,21.400621],[-97.404897,21.241889],[-97.338043,21.054999],[-97.197174,20.810207],[-97.177846,20.759467],[-97.198313,20.738959],[-97.150543,20.64704],[-97.034413,20.514553],[-96.940338,20.449164],[-96.910878,20.392808],[-96.676015,20.157864],[-96.456125,19.868801],[-96.405141,19.741848],[-96.360015,19.536851],[-96.3155,19.482245],[-96.319163,19.424709],[-96.290354,19.332587],[-96.157379,19.225165],[-96.131947,19.235907],[-96.061431,19.078518],[-95.977162,19.058254],[-95.941762,18.938951],[-95.903554,18.881903],[-95.84435,18.833401],[-95.752756,18.799994],[-95.752756,18.765815],[-95.914784,18.862494],[-95.958852,18.856391],[-95.807362,18.752143],[-95.877309,18.752387],[-95.85204,18.716783],[-95.774729,18.744045],[-95.646881,18.710598],[-95.585032,18.669664],[-95.568349,18.683295],[-95.728383,18.757229],[-95.732818,18.799994],[-95.583608,18.721666],[-95.190053,18.705146],[-95.051422,18.61225],[-95.024241,18.564032],[-94.786936,18.511949],[-94.738596,18.406806],[-94.628285,18.285346],[-94.580881,18.189846],[-94.466949,18.144232],[-94.134877,18.207994],[-93.86148,18.306545],[-93.885406,18.276068],[-93.878285,18.256903],[-93.781117,18.272773],[-93.738596,18.340644],[-93.683949,18.354926],[-93.657216,18.333319],[-93.592844,18.344957],[-93.56664,18.389065],[-93.576405,18.411851],[-93.847808,18.299709],[-93.839589,18.318549],[-93.552358,18.429389],[-93.155751,18.443061],[-93.183095,18.408922],[-93.176422,18.377672],[-93.121653,18.389065],[-93.128489,18.340644],[-93.088368,18.392768],[-93.137603,18.42886],[-92.855731,18.466047],[-92.759307,18.536672],[-92.716908,18.59219],[-92.690256,18.552924],[-92.669097,18.429389],[-92.662262,18.535834],[-92.695872,18.615627],[-92.40514,18.671063],[-92.060133,18.701617],[-91.94806,18.691225],[-91.860422,18.621812],[-91.866567,18.598375],[-91.932362,18.593899],[-91.950185,18.629543],[-92.008209,18.612982],[-91.990712,18.593899],[-92.039133,18.601304],[-92.031646,18.580797],[-92.052805,18.546698],[-92.031646,18.56037],[-91.990712,18.539252],[-91.95519,18.547675],[-91.888295,18.505764],[-91.964182,18.562323],[-91.970286,18.593899],[-91.926259,18.572333],[-91.901967,18.580797],[-91.915028,18.56037],[-91.874013,18.52558],[-91.894521,18.52558],[-91.826283,18.491441],[-91.860422,18.433173],[-91.81428,18.388658],[-91.792348,18.401557],[-91.812611,18.450507],[-91.771596,18.436835],[-91.805165,18.475898],[-91.798329,18.491441],[-91.68224,18.450507],[-91.592885,18.443061],[-91.504058,18.464179],[-91.48648,18.436428],[-91.483632,18.498277],[-91.497304,18.477769],[-91.538889,18.471015],[-91.504058,18.511949],[-91.345041,18.565619],[-91.301747,18.621812],[-91.251332,18.619696],[-91.181996,18.656562],[-91.298655,18.628648],[-91.265533,18.735663],[-91.302358,18.780951],[-91.367014,18.771226],[-91.414703,18.813625],[-91.380727,18.859442],[-91.311106,18.890815],[-91.237213,18.957587],[-91.391265,18.871283],[-91.416819,18.850165],[-91.414703,18.826646],[-91.464263,18.808295],[-91.505279,18.816555],[-91.431188,18.880117],[-91.16161,19.016262],[-91.079579,19.087348],[-90.935536,19.163072],[-90.856557,19.258287],[-90.769358,19.309231],[-90.730092,19.375922],[-90.709462,19.687486],[-90.683705,19.752916],[-90.477823,19.922101],[-90.462554,19.995673],[-90.500234,20.07925],[-90.474477,20.408515],[-90.489898,20.534125],[-90.459381,20.715522],[-90.379058,20.82746],[-90.339101,20.972357],[-90.398061,20.820746],[-90.442128,20.794257],[-90.332387,21.032457],[-90.099477,21.16413],[-89.785959,21.284573],[-89.11262,21.362779],[-88.702707,21.458564],[-88.605458,21.534084],[-88.447825,21.5751],[-88.300404,21.554592],[-88.149281,21.591132],[-88.084788,21.589301],[-88.152211,21.601142],[-88.235097,21.573798],[-88.129465,21.616034],[-87.962066,21.600084],[-87.706288,21.533433],[-87.73762,21.522406],[-87.865631,21.554592],[-87.778066,21.510647],[-87.628407,21.499498],[-87.611806,21.506781],[-87.690582,21.523586],[-87.61856,21.520453],[-87.501943,21.499335],[-87.474599,21.480129],[-87.501943,21.480129],[-87.492747,21.468492],[-87.256947,21.440619],[-87.155588,21.481757],[-87.129994,21.519436],[-87.138336,21.563056],[-87.199859,21.562323],[-87.256581,21.528022],[-87.331207,21.534084],[-87.337473,21.554592],[-87.402333,21.509467],[-87.413157,21.534084],[-87.365305,21.573961],[-87.272125,21.560777],[-87.11148,21.62344],[-86.997914,21.565904],[-86.918528,21.439602],[-86.827952,21.433295],[-86.810455,21.370266],[-86.815053,21.204779],[-86.790924,21.158352],[-86.741567,21.16413],[-86.789947,21.064887],[-86.783681,21.035956],[-86.827748,21.012641],[-86.875315,20.855048],[-87.067454,20.619208],[-87.234975,20.49258],[-87.384674,20.284166],[-87.379018,20.266669],[-87.430491,20.221015],[-87.471303,20.069037],[-87.467763,19.984849],[-87.434193,19.889228],[-87.479807,19.784329],[-87.48176,19.836656],[-87.447336,19.861965],[-87.443918,19.913479],[-87.478017,19.96483],[-87.474599,19.875637],[-87.454701,19.889309],[-87.525258,19.802883],[-87.549672,19.817613],[-87.579945,19.799018],[-87.667348,19.633775],[-87.680043,19.635972],[-87.658844,19.655463],[-87.660146,19.683783],[-87.7412,19.671698],[-87.731516,19.600531],[-87.660146,19.567776],[-87.673818,19.505683],[-87.564565,19.567776],[-87.509389,19.546617],[-87.495717,19.567776],[-87.454701,19.560289],[-87.467763,19.546617],[-87.441396,19.553656],[-87.425771,19.592108],[-87.440419,19.595038],[-87.443918,19.57392],[-87.529205,19.587592],[-87.447336,19.580797],[-87.440419,19.635972],[-87.41275,19.577623],[-87.458404,19.455024],[-87.534779,19.402045],[-87.57079,19.39643],[-87.536692,19.437445],[-87.617665,19.405463],[-87.65567,19.373236],[-87.667063,19.334377],[-87.646555,19.354885],[-87.675852,19.311184],[-87.660146,19.307034],[-87.687856,19.242133],[-87.638987,19.220933],[-87.567128,19.317206],[-87.495717,19.327582],[-87.516184,19.286566],[-87.460927,19.320705],[-87.533437,19.228095],[-87.548899,19.133043],[-87.606191,19.020413],[-87.662017,18.766832],[-87.73705,18.644965],[-87.762563,18.429389],[-87.84142,18.277655],[-87.844553,18.196682],[-87.858795,18.245063],[-87.887196,18.230048],[-87.865631,18.327582],[-87.885487,18.292222],[-87.879303,18.340644],[-87.89977,18.389065],[-87.935292,18.400051],[-87.93517,18.443101],[-88.077789,18.498603],[-88.07726,18.535834],[-88.043813,18.573432],[-88.050526,18.595771],[-88.002187,18.690131],[-88.016469,18.70718],[-88.004547,18.786851],[-88.036285,18.874986],[-88.103912,18.80272],[-88.127309,18.730211],[-88.142934,18.731635],[-88.134674,18.769517],[-88.247792,18.696275],[-88.255483,18.676459],[-88.187123,18.738511],[-88.194651,18.676459],[-88.150746,18.698554],[-88.283315,18.491441],[-88.390776,18.475695],[-88.413229,18.490759],[-88.489245,18.484506],[-88.527822,18.454146],[-88.554797,18.352214],[-88.607713,18.283381],[-88.616989,18.235426],[-88.696623,18.178065],[-88.726647,18.066728],[-88.776876,18.023759],[-88.80535,17.965003],[-88.856406,17.928312],[-88.871367,17.89095],[-89.049444,17.999213],[-89.132565,17.970274],[-89.153933,17.941077],[-89.160496,17.814314],[-90.98284,17.810542],[-90.991986,17.25192],[-91.430771,17.254969],[-91.442502,17.237967],[-91.372945,17.213576],[-91.364884,17.189753],[-91.279514,17.180089],[-91.259205,17.124331],[-91.229595,17.113995],[-91.1712,17.028006],[-91.126552,17.024595],[-91.054928,16.908013],[-90.993072,16.874372],[-90.98625,16.901088],[-90.955193,16.898763],[-90.968887,16.874372],[-90.919071,16.836338],[-90.79696,16.805435],[-90.80037,16.786832],[-90.73531,16.746576],[-90.667717,16.652576],[-90.654023,16.61661],[-90.6672,16.586999],[-90.633765,16.592167],[-90.648183,16.529586],[-90.612061,16.507624],[-90.633094,16.483336],[-90.543719,16.490209],[-90.532893,16.459927],[-90.497753,16.46804],[-90.475842,16.430729],[-90.394917,16.419206],[-90.379853,16.367271],[-90.418223,16.367167],[-90.404684,16.331511],[-90.444888,16.30836],[-90.414063,16.287844],[-90.434475,16.291565],[-90.42768,16.263608],[-90.459435,16.25906],[-90.434475,16.236323],[-90.465584,16.208107],[-90.42613,16.163149],[-90.448144,16.154416],[-90.435302,16.136277],[-90.459487,16.116795],[-90.437421,16.098863],[-90.485738,16.0707],[-91.739848,16.060985],[-92.211292,15.272066],[-92.20336,15.237159],[-92.073807,15.073706],[-92.103831,15.01787],[-92.154215,14.995933],[-92.15468,14.900797],[-92.191655,14.835297],[-92.160804,14.683498],[-92.226097,14.549346],[-92.250762,14.550727],[-92.840606,15.16116],[-92.840443,15.181952],[-92.780873,15.15884],[-92.737416,15.092597],[-92.768422,15.171454],[-92.840443,15.188788],[-92.854034,15.208523],[-92.846669,15.188788],[-92.863515,15.191107],[-92.983144,15.26557],[-93.199615,15.490994],[-93.656036,15.83926],[-93.943389,16.010565],[-93.878041,16.005398],[-93.854034,16.024848],[-93.898101,16.088935],[-94.073761,16.140937],[-94.142445,16.226752],[-94.224233,16.203559],[-94.266713,16.215277],[-94.399281,16.298611],[-94.417266,16.292507],[-94.416371,16.243964],[-94.436513,16.245551],[-94.414215,16.234036],[-94.436879,16.222846],[-94.345489,16.163153],[-94.292633,16.14114],[-94.265533,16.148383],[-94.341298,16.181912],[-94.219472,16.161322],[-94.169952,16.134711],[-94.183624,16.120429],[-94.082183,16.094753],[-93.963897,15.997504],[-94.392201,16.17768],[-94.722401,16.199652],[-94.711822,16.230292],[-94.587148,16.282416],[-94.580841,16.326483],[-94.670033,16.363837],[-94.793121,16.257636],[-94.807403,16.298611],[-94.772694,16.327175],[-94.814361,16.403103],[-94.852081,16.4289],[-94.878651,16.424628],[-94.974965,16.326483],[-95.033315,16.326483],[-95.027455,16.308539],[-95.063832,16.268256],[-94.902062,16.251744],[-94.834096,16.285549],[-94.828033,16.270331],[-94.858754,16.256293],[-94.930328,16.243964],[-94.805531,16.237128],[-94.776357,16.226589],[-94.766957,16.198676],[-94.895879,16.211688],[-95.149301,16.186952],[-95.149289,16.168284],[-95.233247,16.158248],[-95.28455,16.104223],[-95.353263,16.07949],[-95.378235,16.047454],[-95.372648,16.027458],[-95.425524,15.999388],[-95.434478,15.97538],[-95.572369,15.957122],[-95.662313,15.91157],[-95.755128,15.899321],[-95.778583,15.873256],[-95.959882,15.827914],[-96.116743,15.76195],[-96.125534,15.737889],[-96.236637,15.68333],[-96.431142,15.695868],[-96.504857,15.658054],[-96.556038,15.659025],[-96.680975,15.709413],[-96.845123,15.732571],[-96.930671,15.782665],[-97.022282,15.807167],[-97.062264,15.859414],[-97.266025,15.935912],[-97.772719,15.979454],[-98.172149,16.209174],[-98.082143,16.189276],[-98.068471,16.202338],[-98.552847,16.31475],[-98.776898,16.555135],[-98.846194,16.546531],[-98.85655,16.528179],[-98.906986,16.53479],[-99.37426,16.667911],[-99.663289,16.698164],[-99.858104,16.796029],[-99.8357,16.802109],[-99.876835,16.815336],[-99.851663,16.836353],[-99.858192,16.851425],[-99.897505,16.852804],[-99.906203,16.838502],[-99.891368,16.837338],[-99.913706,16.827167],[-99.991686,16.909737],[-101.059029,17.264237],[-101.055084,17.302639],[-101.182245,17.412536],[-101.455773,17.526338],[-101.440704,17.557156],[-101.45814,17.583343],[-101.496491,17.614406],[-101.55314,17.611376],[-101.644487,17.668294],[-101.67189,17.74027],[-101.74554,17.792204],[-101.811061,17.89026],[-101.989877,17.974751],[-102.036733,17.990668],[-102.100477,17.982327],[-102.145493,17.934169],[-102.190629,17.915988],[-102.475082,18.017777],[-102.742299,18.066962],[-103.024444,18.185818],[-103.113469,18.192098],[-103.36164,18.26682],[-103.4984,18.333483],[-103.575103,18.492255],[-103.629025,18.547985],[-103.706737,18.591221],[-103.686228,18.628552],[-103.700175,18.654327],[-103.979977,18.874938],[-104.331668,19.022256],[-104.329012,19.053299],[-104.299608,19.065755],[-104.328721,19.099297],[-104.356163,19.094884],[-104.354332,19.111913],[-104.386139,19.115433],[-104.398433,19.091243],[-104.415802,19.105658],[-104.439548,19.081607],[-104.503814,19.129665],[-104.672963,19.176581],[-104.733551,19.228461],[-104.799672,19.224555],[-104.801422,19.294745],[-104.880523,19.27912],[-104.993642,19.34219],[-105.039337,19.435614],[-105.070098,19.447781],[-105.08771,19.561073],[-105.11692,19.585564],[-105.151845,19.584174],[-105.250762,19.666083],[-105.525624,20.031928],[-105.558949,20.218207],[-105.655652,20.313181],[-105.698681,20.406911],[-105.575592,20.487738],[-105.328734,20.513738],[-105.243642,20.583564],[-105.234296,20.636127],[-105.283801,20.67005],[-105.341526,20.754639],[-105.361561,20.762751],[-105.410907,20.733999],[-105.544896,20.768096],[-105.486535,20.796223],[-105.455285,20.867023],[-105.358238,20.957734],[-105.309682,21.030666],[-105.270559,21.025323],[-105.234327,21.060966],[-105.232936,21.182952],[-105.216081,21.204379],[-105.243138,21.342064],[-105.219757,21.407497],[-105.184967,21.44302],[-105.217559,21.517239],[-105.243766,21.527245],[-105.263504,21.513401],[-105.448417,21.631032],[-105.632264,21.955737],[-105.657261,22.047253],[-105.655032,22.256298],[-105.732696,22.504055],[-105.716664,22.514187],[-105.732452,22.541449],[-105.757598,22.534613],[-105.766957,22.590481],[-105.80016,22.638454],[-106.001617,22.823188],[-105.98412,22.856757],[-106.031972,22.830105],[-106.220326,23.051947],[-106.277333,23.083686],[-106.370839,23.183987],[-106.429799,23.185126],[-106.43517,23.244289],[-106.486928,23.307685],[-106.478505,23.328396],[-106.522817,23.407538],[-106.611846,23.469062],[-106.732574,23.606513],[-106.793243,23.632351],[-106.813385,23.699652],[-106.860992,23.755154],[-106.902008,23.846625],[-107.035878,23.98078],[-107.377756,24.206855],[-107.404286,24.252509],[-107.543202,24.346584],[-107.775014,24.477444],[-107.799672,24.512152],[-107.789906,24.523017],[-107.769154,24.489325],[-107.498036,24.34394],[-107.553293,24.378079],[-107.498036,24.357611],[-107.505483,24.370592],[-107.478261,24.400092],[-107.529693,24.521918],[-107.592641,24.520087],[-107.601674,24.50845],[-107.553293,24.50845],[-107.624135,24.458482],[-107.676747,24.501614],[-107.718821,24.492377],[-107.820546,24.59516],[-107.848053,24.590318],[-107.936838,24.638821],[-107.806508,24.528957],[-107.908559,24.577867],[-107.995188,24.648383],[-108.01887,24.730862],[-108.060292,24.786444],[-107.978871,24.756985],[-107.976308,24.79678],[-108.013173,24.836819],[-107.985219,24.953437],[-108.048695,25.001451],[-108.032338,24.917955],[-108.041127,24.838365],[-108.087636,24.823147],[-108.155588,24.883002],[-108.23412,25.028388],[-108.32787,25.111151],[-108.266184,25.096869],[-108.183258,24.981391],[-108.130605,24.976793],[-108.132476,25.019355],[-108.163401,25.022366],[-108.13679,25.059963],[-108.10554,25.026923],[-108.013173,25.001899],[-108.003529,25.03144],[-108.119537,25.123481],[-108.149078,25.104315],[-108.172922,25.113593],[-108.218007,25.173163],[-108.305776,25.156968],[-108.351796,25.169501],[-108.355214,25.206732],[-108.314198,25.186225],[-108.317454,25.228502],[-108.361399,25.269355],[-108.399241,25.14525],[-108.396148,25.214179],[-108.435048,25.26081],[-108.614003,25.343329],[-108.731923,25.35814],[-108.708608,25.373847],[-108.594146,25.351304],[-108.687245,25.398505],[-108.765736,25.380927],[-108.779693,25.398505],[-108.729888,25.405992],[-108.746938,25.444648],[-108.779693,25.433254],[-108.768951,25.540188],[-108.838368,25.563625],[-108.896311,25.560248],[-108.884755,25.496772],[-108.929677,25.466376],[-108.951812,25.503892],[-109.001861,25.499945],[-109.018788,25.482489],[-109.006256,25.467353],[-109.034657,25.465237],[-109.116119,25.536322],[-109.057769,25.584662],[-109.00536,25.577948],[-108.980458,25.544623],[-108.971547,25.584662],[-108.896392,25.652981],[-108.873118,25.736721],[-108.833323,25.768866],[-108.838043,25.804633],[-108.900868,25.70067],[-109.009674,25.649563],[-109.062123,25.590277],[-109.131256,25.583401],[-109.171213,25.648749],[-109.250152,25.686184],[-109.24592,25.659166],[-109.15274,25.576483],[-109.156484,25.556789],[-109.227528,25.628648],[-109.410308,25.646145],[-109.359283,25.668402],[-109.300526,25.659166],[-109.286855,25.710679],[-109.321767,25.748196],[-109.378041,25.761786],[-109.395172,25.74372],[-109.399648,25.678534],[-109.410308,25.693305],[-109.406239,25.759223],[-109.440541,25.793402],[-109.418406,25.862047],[-109.433258,26.021674],[-109.342397,26.134752],[-109.262196,26.304104],[-109.251332,26.289455],[-109.283844,26.24018],[-109.295522,26.172553],[-109.272817,26.168036],[-109.216664,26.34398],[-109.16393,26.331366],[-109.157135,26.292792],[-109.176991,26.262519],[-109.109364,26.216457],[-109.095041,26.214748],[-109.108713,26.262519],[-109.082997,26.277004],[-109.088246,26.290432],[-109.116119,26.288886],[-109.156728,26.364203],[-109.184438,26.378567],[-109.170155,26.35871],[-109.211741,26.364936],[-109.249623,26.334459],[-109.239003,26.419501],[-109.255727,26.497992],[-109.387089,26.638021],[-109.482753,26.682211],[-109.428522,26.671851],[-109.441398,26.714555],[-109.473476,26.717647],[-109.483428,26.742641],[-109.506154,26.729066],[-109.528946,26.751438],[-109.552788,26.71701],[-109.521862,26.708204],[-109.523573,26.688405],[-109.494391,26.669173],[-109.604642,26.696597],[-109.694428,26.678155],[-109.784576,26.719428],[-109.856313,26.800971],[-109.871573,26.870793],[-109.945565,26.99709],[-109.88329,26.940904],[-109.917037,27.060074],[-109.966176,27.108873],[-110.023834,27.117418],[-110.062329,27.081692],[-110.090783,27.102709],[-110.287622,27.148394],[-110.447883,27.274262],[-110.522329,27.290354],[-110.425628,27.301906],[-110.499664,27.393378],[-110.550933,27.377387],[-110.558502,27.434394],[-110.587405,27.449365],[-110.627101,27.641099],[-110.567942,27.681383],[-110.581939,27.700141],[-110.603342,27.681383],[-110.594716,27.714504],[-110.548085,27.742825],[-110.599517,27.752346],[-110.589019,27.791246],[-110.612864,27.80093],[-110.609527,27.824774],[-110.597239,27.812893],[-110.586578,27.837063],[-110.521067,27.84455],[-110.513295,27.873196],[-110.591664,27.887519],[-110.623769,27.872992],[-110.741851,27.91413],[-110.84911,27.906684],[-110.808176,27.927802],[-110.838857,27.989407],[-110.890696,27.899848],[-110.863637,27.889797],[-110.886301,27.838853],[-110.96581,27.906684],[-110.938466,27.920356],[-110.999257,27.964057],[-111.105025,27.935372],[-111.103995,27.962051],[-111.250662,28.052013],[-111.332648,28.160407],[-111.340443,28.205268],[-111.372792,28.217719],[-111.394114,28.27383],[-111.451772,28.325629],[-111.43814,28.387112],[-111.4735,28.381049],[-111.708354,28.460141],[-111.76061,28.58397],[-111.94938,28.756514],[-111.894358,28.780666],[-111.867055,28.749579],[-111.868235,28.803127],[-111.925017,28.801719],[-111.967271,28.841321],[-112.030296,28.861431],[-112.105526,28.957378],[-112.166508,28.966726],[-112.152179,28.987436],[-112.186017,29.074745],[-112.166127,29.120429],[-112.191148,29.16692],[-112.22704,29.188422],[-112.211425,29.252808],[-112.239453,29.315337],[-112.314002,29.330543],[-112.333079,29.296536],[-112.411224,29.344728],[-112.419822,29.37591],[-112.377754,29.485729],[-112.430452,29.520222],[-112.431996,29.561184],[-112.505972,29.616919],[-112.535878,29.688218],[-112.58019,29.718004],[-112.669455,29.897623],[-112.746287,29.910465],[-112.730458,30.013373],[-112.758815,30.059181],[-112.764293,30.21152],[-112.808949,30.258583],[-112.86079,30.268999],[-112.847743,30.361345],[-112.870676,30.428534],[-112.986543,30.532352],[-113.079895,30.670441],[-113.128841,30.81244],[-113.097359,30.946008],[-113.130961,31.06499],[-113.083187,30.989408],[-113.055898,31.030707],[-113.048723,31.156692],[-113.091744,31.202152],[-113.145496,31.219293],[-113.120994,31.190026],[-113.197046,31.225188],[-113.2329,31.288031],[-113.27599,31.278266],[-113.229349,31.245096],[-113.241444,31.24124],[-113.548948,31.2957],[-113.558464,31.315613],[-113.622269,31.325584],[-113.643492,31.341775],[-113.609306,31.352915],[-113.634676,31.465627],[-113.659577,31.49754],[-113.884877,31.614691],[-113.939524,31.600409],[-113.977691,31.663072],[-113.981068,31.586737],[-113.950999,31.56802],[-114.028942,31.491539],[-114.208888,31.512283],[-114.494263,31.677366],[-114.584712,31.760755],[-114.686838,31.76553],[-114.746978,31.810004],[-114.803538,31.819525],[-114.8426,31.861518],[-115.012074,31.936835],[-115.029449,31.970933],[-115.011952,31.91474],[-114.888958,31.85635],[-114.835032,31.801907],[-114.780629,31.655829],[-114.85291,31.526606],[-114.884043,31.120715],[-114.813471,31.049986],[-114.832916,31.027411],[-114.821767,30.988959],[-114.720259,30.941098],[-114.710452,30.918416],[-114.687242,30.744994],[-114.705468,30.711719],[-114.698474,30.637212],[-114.630599,30.494874],[-114.652699,30.288275],[-114.640116,30.263757],[-114.665733,30.199568],[-114.533132,29.967951],[-114.481306,29.947299],[-114.459341,29.910115],[-114.427719,29.907295],[-114.396297,29.827228],[-114.409439,29.815433],[-114.381251,29.774452],[-114.322526,29.741101],[-114.288811,29.748293],[-114.28054,29.772067],[-114.208485,29.744775],[-114.062656,29.629316],[-114.046276,29.596376],[-113.994334,29.576982],[-113.897464,29.48565],[-113.838665,29.456602],[-113.832674,29.435245],[-113.770866,29.407756],[-113.636331,29.282179],[-113.623076,29.252714],[-113.655337,29.207323],[-113.535884,29.05142],[-113.563599,29.014042],[-113.544988,28.975527],[-113.557876,28.948253],[-113.524854,28.891566],[-113.481538,28.893398],[-113.478693,28.946248],[-113.450064,28.94229],[-113.434665,28.959874],[-113.413052,28.922322],[-113.387871,28.939804],[-113.394227,28.913139],[-113.367439,28.907096],[-113.380418,28.893276],[-113.359215,28.873943],[-113.370633,28.837206],[-113.354476,28.800274],[-113.309971,28.802064],[-113.260386,28.840107],[-113.220263,28.824843],[-113.156046,28.657626],[-113.126992,28.627869],[-113.10297,28.504583],[-113.001639,28.455579],[-112.902362,28.475342],[-112.879938,28.434581],[-112.846304,28.441077],[-112.872126,28.28374],[-112.786456,28.196077],[-112.811771,28.12054],[-112.789558,28.067475],[-112.799363,28.017424],[-112.760362,27.997756],[-112.773218,27.863902],[-112.719371,27.82618],[-112.703531,27.75496],[-112.598008,27.654297],[-112.485215,27.62002],[-112.354714,27.547323],[-112.323768,27.494574],[-112.297325,27.381062],[-112.195579,27.250129],[-112.212764,27.210463],[-112.114534,27.142147],[-111.950372,27.093276],[-111.944254,27.069626],[-112.003128,27.035743],[-112.017161,26.978502],[-111.951795,26.892184],[-111.870717,26.82807],[-111.861446,26.783795],[-111.877629,26.756325],[-111.890207,26.762926],[-111.900114,26.714559],[-111.798227,26.612647],[-111.784275,26.571796],[-111.73581,26.539684],[-111.676793,26.581859],[-111.814585,26.714577],[-111.823641,26.820475],[-111.851419,26.880275],[-111.818073,26.896233],[-111.795091,26.884028],[-111.647831,26.74648],[-111.560055,26.695653],[-111.564772,26.558001],[-111.482411,26.52851],[-111.460221,26.537669],[-111.442238,26.517526],[-111.468867,26.419504],[-111.393656,26.330011],[-111.381925,26.277073],[-111.397449,26.252215],[-111.350947,26.126319],[-111.322037,26.098183],[-111.319483,26.06356],[-111.344941,26.028751],[-111.337328,25.987698],[-111.36026,25.964097],[-111.331028,25.837358],[-111.291923,25.812266],[-111.315394,25.820034],[-111.307116,25.779207],[-111.225005,25.724353],[-111.191744,25.614829],[-111.123896,25.530322],[-111.019256,25.51525],[-111.025389,25.447153],[-110.979545,25.342369],[-110.934262,25.291141],[-110.947316,25.261814],[-110.904451,25.143013],[-110.814232,25.03319],[-110.757791,25.012239],[-110.747241,24.96379],[-110.683868,24.882959],[-110.656972,24.806918],[-110.688438,24.710239],[-110.723528,24.681178],[-110.738585,24.554572],[-110.6872,24.466039],[-110.681849,24.36066],[-110.60989,24.253725],[-110.511586,24.195746],[-110.325195,24.175709],[-110.36931,24.149693],[-110.432429,24.173617],[-110.416837,24.108576],[-110.360857,24.111083],[-110.306134,24.176716],[-110.300811,24.217042],[-110.322139,24.265456],[-110.336259,24.255892],[-110.33247,24.328795],[-110.296997,24.351932],[-110.232613,24.343206],[-110.236384,24.320184],[-110.17276,24.252976],[-110.006985,24.158826],[-109.987652,24.046319],[-109.931409,24.029305],[-109.828288,24.0628],[-109.803444,24.02206],[-109.833104,23.985722],[-109.837322,23.938087],[-109.698443,23.798428],[-109.711322,23.74897],[-109.696321,23.66552],[-109.468016,23.555138],[-109.477949,23.525435],[-109.426316,23.458513],[-109.413625,23.391697],[-109.428556,23.374433],[-109.437652,23.240383],[-109.494203,23.151731],[-109.577144,23.081714],[-109.713176,23.03105],[-109.731519,22.987543],[-109.803377,22.956122],[-109.851064,22.89997],[-109.901739,22.889677],[-109.895378,22.874203],[-109.954496,22.872155],[-109.999659,22.894442],[-110.09838,23.017562],[-110.16726,23.321086],[-110.307362,23.541032],[-110.647518,23.733901],[-111.039714,24.104185],[-111.444445,24.324391],[-111.359749,24.290322],[-111.595578,24.442235],[-111.6535,24.552219],[-111.634251,24.547823],[-111.67903,24.586334],[-111.695627,24.587144],[-111.698781,24.535562],[-111.803145,24.546451],[-111.761715,24.515249],[-111.812908,24.50588],[-111.814884,24.569867],[-111.848924,24.653686],[-111.941597,24.744225],[-111.91222,24.736583],[-111.968129,24.79442],[-112.008372,24.874579],[-111.966705,24.778306],[-111.988433,24.764716],[-111.966705,24.744208],[-111.9947,24.75788],[-112.011627,24.739447],[-112.025258,24.755561],[-112.035634,24.840399],[-112.054514,24.817125],[-112.043054,24.753466],[-112.088043,24.773383],[-112.097727,24.846625],[-112.124215,24.874046],[-112.09024,24.90119],[-112.096921,24.999609],[-112.110374,25.002611],[-112.137278,24.946112],[-112.123023,24.909327],[-112.144931,24.874094],[-112.165803,24.953935],[-112.141756,24.970367],[-112.123363,25.038267],[-112.122176,25.073402],[-112.142525,25.085979],[-112.130621,25.172028],[-112.077871,25.258735],[-112.086932,25.390585],[-112.070697,25.441318],[-112.083098,25.443995],[-112.030778,25.473615],[-112.08445,25.481021],[-112.062571,25.494696],[-112.08145,25.720682],[-112.10409,25.504154],[-112.108712,25.784145],[-112.178942,25.955175],[-112.238515,26.040839],[-112.292873,26.049712],[-112.308746,26.06977],[-112.343495,26.178127],[-112.402699,26.24022],[-112.452952,26.262926],[-112.49828,26.235012],[-112.556793,26.272366],[-112.559967,26.301093],[-112.590168,26.287845],[-112.617096,26.319729],[-112.689117,26.32274],[-112.728363,26.370227],[-113.060716,26.599118],[-113.057037,26.650214],[-113.143056,26.757717],[-113.119049,26.794094],[-113.163686,26.78913],[-113.192616,26.743638],[-113.21581,26.744452],[-113.238149,26.786607],[-113.18106,26.814765],[-113.124582,26.886298],[-113.145741,26.97012],[-113.179351,26.966946],[-113.192544,26.94506],[-113.204221,26.853463],[-113.257965,26.824652],[-113.270544,26.752474],[-113.363971,26.795068],[-113.470986,26.804554],[-113.503887,26.793416],[-113.542966,26.719196],[-113.574149,26.705039],[-113.637138,26.725531],[-113.665842,26.769436],[-113.725209,26.799994],[-113.816388,26.948969],[-113.909901,26.992336],[-113.959767,26.997984],[-114.005198,26.977444],[-114.114369,27.105455],[-114.181956,27.139635],[-114.274083,27.148898],[-114.293999,27.125462],[-114.395149,27.182914],[-114.435143,27.176367],[-114.429799,27.20893],[-114.475894,27.217654],[-114.487542,27.238098],[-114.484446,27.324286],[-114.506461,27.406184],[-114.596586,27.477189],[-114.734229,27.521252],[-114.78173,27.602757],[-114.830386,27.631132],[-114.844866,27.616064],[-114.875819,27.643824],[-114.848878,27.640565],[-114.861562,27.689887],[-114.886586,27.694892],[-114.899805,27.664122],[-114.932195,27.676193],[-114.950964,27.716259],[-115.001726,27.715931],[-115.022684,27.740291],[-115.052887,27.822089],[-115.083823,27.851054],[-115.04147,27.856782],[-115.014257,27.830347],[-114.868641,27.830554],[-114.604457,27.774409],[-114.530646,27.78764],[-114.499057,27.774071],[-114.316274,27.874701],[-114.290639,27.833401],[-114.312164,27.77969],[-114.282379,27.735826],[-114.15095,27.669664],[-114.102935,27.601874],[-114.047597,27.653144],[-114.043446,27.668036],[-114.074859,27.690375],[-113.953277,27.655666],[-113.918568,27.719306],[-113.983062,27.75731],[-114.025258,27.749905],[-114.059153,27.801174],[-114.038482,27.739163],[-114.051747,27.72012],[-114.104604,27.707709],[-114.140981,27.730862],[-114.174916,27.816067],[-114.131093,27.888821],[-114.15095,27.898668],[-114.135243,27.911933],[-114.153432,27.945014],[-114.267694,27.886901],[-114.276452,27.901148],[-114.261708,27.944159],[-114.134389,28.08393],[-114.119868,28.08595],[-114.117184,28.04318],[-114.150836,28.004566],[-114.106402,27.927952],[-114.091603,27.976062],[-114.121224,28.022985],[-114.094287,28.024176],[-114.068036,27.99566],[-114.039736,28.02773],[-114.070031,28.055065],[-114.099667,28.055064],[-114.113121,28.120413],[-114.057485,28.206285],[-114.078196,28.246772],[-114.124883,28.255725],[-114.042592,28.458441],[-114.071496,28.486944],[-114.068227,28.518012],[-114.110422,28.561835],[-114.160126,28.566187],[-114.15727,28.625672],[-114.174916,28.657701],[-114.271751,28.658801],[-114.275342,28.696241],[-114.346923,28.730755],[-114.36205,28.795111],[-114.37092,28.813178],[-114.391646,28.806779],[-114.419299,28.87848],[-114.437582,28.877507],[-114.476633,28.929145],[-114.542832,28.934394],[-114.561215,28.9804],[-114.591633,28.965404],[-114.631418,29.094468],[-114.689036,29.113135],[-114.704927,29.096113],[-114.743804,29.187567],[-114.785313,29.19416],[-114.972035,29.377753],[-115.187123,29.428616],[-115.285722,29.529885],[-115.371449,29.556952],[-115.451964,29.620106],[-115.498583,29.611401],[-115.697564,29.755826],[-115.685767,29.830641],[-115.699899,29.898014],[-115.744293,29.947496],[-115.811187,29.968004],[-115.783272,30.092638],[-115.804067,30.151435],[-115.807281,30.284125],[-115.837303,30.346467],[-115.898327,30.386662],[-115.975413,30.401272],[-115.933827,30.449652],[-115.989084,30.497463],[-115.961741,30.442206],[-115.982998,30.43199],[-116.002675,30.449652],[-116.015126,30.434475],[-115.979785,30.359356],[-116.004549,30.359165],[-116.049254,30.479593],[-116.031117,30.627143],[-116.057932,30.802476],[-116.175774,30.860147],[-116.249745,30.956773],[-116.335446,30.95634],[-116.309438,31.148505],[-116.341542,31.21955],[-116.508209,31.419338],[-116.675608,31.552639],[-116.68106,31.577297],[-116.644521,31.579535],[-116.664174,31.601142],[-116.648061,31.659166],[-116.668528,31.697008],[-116.715323,31.710984],[-116.750381,31.75236],[-116.661285,31.723375],[-116.643625,31.73428],[-116.619627,31.771738],[-116.611819,31.84288],[-116.754768,31.909641],[-116.769887,31.977769],[-116.842275,31.986518],[-116.865387,32.013007],[-116.922678,32.219387],[-117.024973,32.276923],[-117.118398,32.454535],[-117.125121,32.531669],[-114.724285,32.712836],[-114.802678,32.594497],[-114.795546,32.552226],[-114.822108,32.50024],[-111.006269,31.327185],[-108.214811,31.327443],[-108.215121,31.777751],[-106.517189,31.773824],[-106.428951,31.758476],[-106.35849,31.717548],[-106.209249,31.477305],[-105.961202,31.371006],[-105.76819,31.18001],[-105.59094,31.071438],[-105.555955,31.002605],[-105.363771,30.850366],[-105.249049,30.798845],[-105.204917,30.80241],[-105.087043,30.709806],[-105.008495,30.676992],[-104.98276,30.620716],[-104.93434,30.610536],[-104.859254,30.497261],[-104.853259,30.41215],[-104.681564,30.192939],[-104.701589,30.055324],[-104.680479,29.942308],[-104.619682,29.833064],[-104.570279,29.787511],[-104.516639,29.654315],[-104.338484,29.524013],[-104.267171,29.526571],[-104.057313,29.339037],[-103.928122,29.293019],[-103.78366,29.274803],[-103.770767,29.229845],[-103.673125,29.173569],[-103.550238,29.154656],[-103.478537,29.08205],[-103.38663,29.028798],[-103.342602,29.041226],[-103.330484,29.023733],[-103.309994,29.031175],[-103.301545,29.002365],[-103.147989,28.985105],[-103.122771,28.996474],[-103.104684,29.057866],[-103.024275,29.116157],[-102.988386,29.177135],[-102.858781,29.229147],[-102.899709,29.2639],[-102.883069,29.343766],[-102.837672,29.366322],[-102.839067,29.45195],[-102.78075,29.558249],[-102.779665,29.592303],[-102.69104,29.736817],[-102.566758,29.771052],[-102.546578,29.757875],[-102.515288,29.784721],[-102.406096,29.777279],[-102.370723,29.857765],[-102.321011,29.893939],[-102.109344,29.80211],[-101.805978,29.811928],[-101.794531,29.795857],[-101.632216,29.775651],[-101.564907,29.786478],[-101.546458,29.820145],[-101.528604,29.801438],[-101.542893,29.771052],[-101.470908,29.791516],[-101.446103,29.771052],[-101.405098,29.778442],[-101.357684,29.667441],[-101.301073,29.649509],[-101.312158,29.597859],[-101.233919,29.622663],[-101.212861,29.531584],[-101.037782,29.460063],[-101.008068,29.380585],[-100.796143,29.257673],[-100.762088,29.208658],[-100.762501,29.173776],[-100.668967,29.116208],[-100.624318,28.924721],[-100.566234,28.869789],[-100.566234,28.842504],[-100.534453,28.830231],[-100.493939,28.708378],[-100.44619,28.626497],[-100.401438,28.60226],[-100.38423,28.537174],[-100.322631,28.510406],[-100.355549,28.478185],[-100.322631,28.386899],[-100.278551,28.331088],[-100.275089,28.277242],[-100.205946,28.242877],[-100.189203,28.201329],[-100.056498,28.137922],[-99.991127,28.007801],[-99.928289,27.975761],[-99.929916,27.946331],[-99.88134,27.906463],[-99.888007,27.864812],[-99.83292,27.776755],[-99.740445,27.722159],[-99.70037,27.659191],[-99.664739,27.659398],[-99.644869,27.632733],[-99.600169,27.646427],[-99.515006,27.588601],[-99.509503,27.500028],[-99.480409,27.490778],[-99.472916,27.426647],[-99.521362,27.311254],[-99.451832,27.26118],[-99.431988,27.207591],[-99.452452,27.125012],[-99.439404,27.098347],[-99.461728,27.056954],[-99.399329,27.012668],[-99.386177,26.962231],[-99.248278,26.827097],[-99.164873,26.540448],[-99.115108,26.525617],[-99.091492,26.484018],[-99.106427,26.423039],[-99.010515,26.392602],[-98.962844,26.399527],[-98.945377,26.378288],[-98.9299,26.39224],[-98.893029,26.367849],[-98.801329,26.372138],[-98.653663,26.244291],[-98.581627,26.262274],[-98.472383,26.207652],[-98.456544,26.225946],[-98.428845,26.217729],[-98.36934,26.19401],[-98.377272,26.163572],[-98.339264,26.159851],[-98.300429,26.111431],[-98.222656,26.075412],[-98.083311,26.070916],[-98.065457,26.042184],[-98.013057,26.063682],[-97.80201,26.063733],[-97.766948,26.039652],[-97.659874,26.03066],[-97.52027,25.912786],[-97.448259,25.892322],[-97.425418,25.854857],[-97.345733,25.852222],[-97.351107,25.918419],[-97.287649,25.928651],[-97.266358,25.960639],[-97.139272,25.965806]]],[[[-114.775543,18.354926],[-114.720855,18.345689],[-114.734039,18.32925],[-114.798573,18.330878],[-114.775543,18.354926]]],[[[-110.945912,18.799994],[-110.911204,18.762519],[-110.924306,18.727362],[-110.979482,18.716783],[-111.06725,18.768744],[-111.05309,18.815985],[-111.000559,18.868232],[-110.956166,18.843695],[-110.945912,18.799994]]],[[[-110.81432,19.348049],[-110.787668,19.31391],[-110.83023,19.273342],[-110.81432,19.348049]]],[[[-106.224038,21.328736],[-106.227506,21.291166],[-106.279363,21.314659],[-106.260005,21.334097],[-106.224038,21.328736]]],[[[-106.404218,21.483886],[-106.362887,21.464307],[-106.387098,21.420636],[-106.492614,21.469005],[-106.459587,21.494885],[-106.404218,21.483886]]],[[[-106.512353,21.597034],[-106.532361,21.541629],[-106.631156,21.600861],[-106.660848,21.693064],[-106.548004,21.668546],[-106.512353,21.597034]]],[[[-106.663823,21.777246],[-106.657766,21.739878],[-106.678963,21.727036],[-106.688941,21.746832],[-106.663823,21.777246]]],[[[-109.83575,24.224654],[-109.802865,24.137062],[-109.873927,24.151703],[-109.900432,24.199241],[-109.937425,24.325149],[-109.93322,24.374414],[-109.83575,24.224654]]],[[[-111.561635,24.378079],[-111.462958,24.329771],[-111.561253,24.362367],[-111.673254,24.358401],[-111.657778,24.375217],[-111.561635,24.378079]]],[[[-111.753489,24.446967],[-111.692317,24.373939],[-111.708111,24.299854],[-111.871583,24.439099],[-112.006844,24.5144],[-111.988974,24.527654],[-111.864395,24.520479],[-111.837343,24.512756],[-111.818232,24.467621],[-111.753489,24.446967]]],[[[-110.324941,24.515855],[-110.287863,24.469742],[-110.326505,24.400749],[-110.34804,24.402451],[-110.39677,24.511183],[-110.376232,24.530767],[-110.415745,24.569601],[-110.386497,24.586864],[-110.363989,24.532489],[-110.324941,24.515855]]],[[[-110.710792,25.095047],[-110.70202,25.103375],[-110.668625,25.052773],[-110.574916,25.015727],[-110.570692,24.955493],[-110.524929,24.880001],[-110.579153,24.863662],[-110.57388,24.887455],[-110.642313,24.914498],[-110.675838,25.011198],[-110.713282,25.029215],[-110.710792,25.095047]]],[[[-112.103485,24.617166],[-112.070911,24.585178],[-112.059907,24.540603],[-112.102478,24.559152],[-112.113862,24.599166],[-112.176344,24.653562],[-112.138381,24.680297],[-112.155764,24.743385],[-112.237785,24.789228],[-112.260932,24.776582],[-112.259413,24.749407],[-112.304596,24.792182],[-112.206302,25.01766],[-112.142495,25.255132],[-112.125326,25.265833],[-112.120224,25.220521],[-112.179304,25.044986],[-112.161827,24.974397],[-112.186964,24.961331],[-112.19593,24.915301],[-112.176865,24.872388],[-112.213715,24.847527],[-112.115623,24.689301],[-112.140029,24.659288],[-112.136464,24.632882],[-112.103485,24.617166]]],[[[-108.831614,25.426418],[-108.786529,25.385443],[-108.803944,25.374579],[-108.916086,25.424465],[-108.994008,25.426744],[-109.013092,25.446926],[-108.90099,25.446519],[-108.831614,25.426418]]],[[[-110.765292,25.593939],[-110.805532,25.644418],[-110.773414,25.712795],[-110.753187,25.598096],[-110.765292,25.593939]]],[[[-111.081194,25.998658],[-111.067386,25.965818],[-111.11233,25.99666],[-111.180803,25.902525],[-111.204991,25.803754],[-111.233355,25.842899],[-111.211072,25.928869],[-111.169255,25.987594],[-111.176027,26.043342],[-111.12752,26.068313],[-111.103414,26.053817],[-111.056369,26.071817],[-111.081194,25.998658]]],[[[-110.044442,27.087],[-109.985245,27.069568],[-109.938034,27.021165],[-110.044442,27.087]]],[[[-110.604176,27.318024],[-110.59309,27.416986],[-110.594042,27.331832],[-110.530659,27.300392],[-110.534342,27.284357],[-110.604176,27.318024]]],[[[-115.19498,28.341358],[-115.162715,28.261342],[-115.172268,28.212645],[-115.155829,28.14078],[-115.185777,28.106173],[-115.181697,28.027582],[-115.228143,28.028323],[-115.280263,28.08747],[-115.303545,28.094699],[-115.34661,28.071051],[-115.358052,28.082579],[-115.352157,28.11642],[-115.239756,28.233606],[-115.262453,28.298756],[-115.248642,28.359315],[-115.214867,28.378279],[-115.19498,28.341358]]],[[[-112.893769,28.677696],[-112.860757,28.67186],[-112.752401,28.591081],[-112.773919,28.575782],[-112.893769,28.677696]]],[[[-112.61315,28.725763],[-112.547957,28.728549],[-112.553939,28.672288],[-112.604349,28.669434],[-112.61315,28.725763]]],[[[-112.274657,28.768388],[-112.30966,28.74636],[-112.326175,28.762722],[-112.359055,28.758236],[-112.412819,28.800128],[-112.466536,28.80557],[-112.583033,28.875363],[-112.526104,28.908842],[-112.485911,28.971625],[-112.500356,29.075629],[-112.464711,29.18183],[-112.43871,29.202094],[-112.401452,29.189441],[-112.264337,29.24689],[-112.281569,29.225471],[-112.263567,29.192841],[-112.272747,29.137675],[-112.195606,29.02133],[-112.276229,28.805451],[-112.253187,28.76905],[-112.274657,28.768388]]],[[[-113.138173,29.064887],[-113.102084,29.053106],[-113.114792,28.984478],[-113.243628,29.06947],[-113.300654,29.145095],[-113.405533,29.211975],[-113.450128,29.279715],[-113.49608,29.285201],[-113.511685,29.326409],[-113.589104,29.409599],[-113.571144,29.53995],[-113.510876,29.549338],[-113.39516,29.459318],[-113.349779,29.384066],[-113.373138,29.361205],[-113.370287,29.310009],[-113.297415,29.280457],[-113.18276,29.289693],[-113.168525,29.276118],[-113.174315,29.129248],[-113.138173,29.064887]]],[[[-114.786122,31.803046],[-114.710072,31.763739],[-114.652699,31.689765],[-114.762563,31.715644],[-114.798207,31.756659],[-114.786122,31.803046]]],[[[-87.331207,18.532416],[-87.310129,18.567206],[-87.334503,18.454372],[-87.379425,18.402493],[-87.343617,18.452338],[-87.331207,18.532416]]],[[[-87.269154,18.738511],[-87.248158,18.676215],[-87.262929,18.628648],[-87.269154,18.738511]]],[[[-91.600331,18.77204],[-91.538889,18.793118],[-91.524566,18.752143],[-91.620839,18.744696],[-91.688873,18.66942],[-91.723215,18.662787],[-91.702748,18.697496],[-91.785959,18.654364],[-91.842681,18.65119],[-91.600331,18.77204]]],[[[-86.749013,20.592231],[-86.735341,20.585354],[-86.797109,20.477484],[-86.843984,20.437323],[-86.889801,20.353664],[-86.995269,20.26081],[-87.019683,20.397447],[-86.968129,20.506252],[-86.905426,20.567694],[-86.837148,20.547187],[-86.771311,20.566107],[-86.749013,20.592231]]],[[[-86.700592,21.19892],[-86.739573,21.242825],[-86.741567,21.287665],[-86.700592,21.19892]]],[[[-97.651438,21.787909],[-97.601715,21.751939],[-97.610463,21.74018],[-97.639963,21.745103],[-97.663482,21.778469],[-97.684926,21.862454],[-97.651438,21.787909]]],[[[-97.815297,22.720201],[-97.788564,22.774848],[-97.796132,22.723782],[-97.84317,22.684882],[-97.815297,22.720201]]],[[[-118.251478,29.089444],[-118.220529,29.01518],[-118.225804,28.915052],[-118.288782,28.868083],[-118.294043,28.948117],[-118.31599,28.981687],[-118.304343,28.998019],[-118.355518,29.067004],[-118.365383,29.131653],[-118.273755,29.189563],[-118.255895,29.180932],[-118.286176,29.13644],[-118.251478,29.089444]]],[[[-113.24474,26.724595],[-113.174428,26.720445],[-113.138051,26.665107],[-113.264556,26.70893],[-113.24474,26.724595]]],[[[-89.664188,22.371069],[-89.691726,22.387599],[-89.697972,22.417544],[-89.657104,22.446689],[-89.655165,22.472001],[-89.714017,22.541046],[-89.770756,22.533241],[-89.745707,22.577249],[-89.658248,22.54067],[-89.610152,22.461081],[-89.634276,22.378891],[-89.664188,22.371069]]],[[[-110.586163,24.832117],[-110.569228,24.843842],[-110.561414,24.815017],[-110.586163,24.832117]]],[[[-115.752797,24.954779],[-115.752309,24.953274],[-115.753774,24.953518],[-115.752797,24.954779]]],[[[-110.714791,25.305926],[-110.689525,25.308389],[-110.728873,25.259982],[-110.714791,25.305926]]],[[[-112.106306,25.484113],[-112.104347,25.342348],[-112.122754,25.282136],[-112.138051,25.297347],[-112.106306,25.484113]]],[[[-111.059148,25.700978],[-111.037154,25.713811],[-111.019226,25.693887],[-111.02851,25.651793],[-111.059148,25.700978]]],[[[-111.258235,25.812789],[-111.245901,25.789395],[-111.245943,25.765702],[-111.258235,25.812789]]],[[[-111.286624,26.125846],[-111.263725,26.135042],[-111.264243,26.105006],[-111.286204,26.103132],[-111.286624,26.125846]]],[[[-112.097003,27.224523],[-112.108812,27.236915],[-112.09009,27.259978],[-112.045253,27.216644],[-112.066279,27.178965],[-112.087448,27.182942],[-112.097003,27.224523]]],[[[-111.892268,27.429019],[-111.901083,27.449228],[-111.856394,27.43787],[-111.892268,27.429019]]],[[[-115.204156,27.892496],[-115.162365,27.868343],[-115.164596,27.851296],[-115.220367,27.88864],[-115.204156,27.892496]]],[[[-111.388508,27.968802],[-111.38744,27.988079],[-111.365587,27.9534],[-111.388508,27.968802]]],[[[-115.593807,28.317167],[-115.564667,28.307373],[-115.592321,28.297501],[-115.593807,28.317167]]],[[[-113.51884,29.095563],[-113.492011,29.03595],[-113.514318,29.053284],[-113.51884,29.095563]]],[[[-114.418542,29.986776],[-114.394781,29.960184],[-114.422017,29.966236],[-114.418542,29.986776]]],[[[-116.114411,30.496223],[-116.104175,30.482589],[-116.122767,30.485167],[-116.114411,30.496223]]],[[[-117.253693,32.420802],[-117.24197,32.404426],[-117.243205,32.388743],[-117.253693,32.420802]]]]}}]}
