{"type":"FeatureCollection","features":[{"type":"Feature","properties":{"name":"Malaysia","ISO3166-1-Alpha-3":"MYS","ISO3166-1-Alpha-2":"MY"},"geometry":{"type":"MultiPolygon","coordinates":[[[[117.703608,4.163415],[117.640147,4.227444],[117.701671,4.267524],[117.785411,4.246649],[117.817719,4.204739],[117.896251,4.181342],[117.907039,4.156683],[117.703608,4.163415]]],[[[102.07309,6.257514],[102.163585,6.197496],[102.187022,6.203437],[102.183116,6.223049],[102.16684,6.217963],[102.178071,6.233629],[102.199555,6.232815],[102.338145,6.176988],[102.379893,6.132961],[102.520763,5.871731],[102.626313,5.797187],[102.6692,5.725002],[102.875662,5.571438],[102.959483,5.54206],[103.027599,5.4855],[103.120291,5.381334],[103.222423,5.221137],[103.448009,4.806545],[103.469412,4.550035],[103.451427,4.488471],[103.49643,4.30622],[103.448009,4.217475],[103.454845,4.182766],[103.395193,4.116278],[103.434337,3.950019],[103.411632,3.963935],[103.394705,3.935004],[103.378429,3.802436],[103.361013,3.801988],[103.338715,3.758205],[103.387218,3.624742],[103.462169,3.534125],[103.448009,3.50495],[103.482188,3.511786],[103.428071,3.367174],[103.456065,3.203762],[103.441173,2.922105],[103.520193,2.789008],[103.638438,2.672105],[103.716156,2.641547],[103.765147,2.648912],[103.839692,2.524848],[103.837657,2.463813],[103.948985,2.339911],[103.983653,2.253648],[103.97641,2.192369],[104.112804,1.976142],[104.124278,1.870551],[104.149181,1.83747],[104.167491,1.847073],[104.195323,1.798733],[104.255219,1.637763],[104.293712,1.471584],[104.277354,1.367336],[104.174083,1.348212],[104.106212,1.37519],[104.059418,1.485338],[104.147634,1.545396],[104.111176,1.545071],[104.053396,1.506293],[104.012218,1.596869],[103.965994,1.647854],[104.008311,1.548733],[104.009776,1.448635],[103.974457,1.419827],[103.839692,1.476549],[103.697602,1.450629],[103.600108,1.353461],[103.547862,1.382066],[103.548513,1.331692],[103.516368,1.270453],[103.454845,1.339423],[103.41391,1.467841],[103.367361,1.538398],[103.206065,1.610419],[103.03712,1.715522],[102.934581,1.747545],[102.835623,1.845649],[102.699392,1.859442],[102.650645,1.940904],[102.557628,2.018744],[102.544688,2.057685],[102.154307,2.235663],[102.05128,2.340888],[101.999034,2.36164],[101.98878,2.394517],[101.926768,2.422431],[101.865245,2.394517],[101.851085,2.478949],[101.803233,2.518012],[101.774425,2.586575],[101.542328,2.661282],[101.399181,2.819078],[101.286388,2.849677],[101.303477,2.894843],[101.283051,2.9112],[101.372813,3.002346],[101.365001,3.076361],[101.323416,3.124457],[101.297618,3.274604],[101.235688,3.344143],[101.197602,3.35932],[101.108409,3.473944],[101.040538,3.621975],[100.933604,3.689276],[100.886485,3.756334],[100.812266,3.786566],[100.845388,3.851264],[100.784841,3.839342],[100.709483,3.883043],[100.706309,3.983588],[100.801524,3.991116],[100.834646,4.018541],[100.87143,4.018866],[100.861501,4.040351],[100.777599,4.021389],[100.76588,4.09984],[100.677745,4.165188],[100.632579,4.155463],[100.615245,4.251654],[100.56544,4.319159],[100.645518,4.560045],[100.597341,4.571926],[100.594412,4.610907],[100.666189,4.669908],[100.604177,4.665839],[100.594493,4.743069],[100.632579,4.758124],[100.612071,4.772366],[100.617361,4.792914],[100.576182,4.799262],[100.577403,4.854315],[100.550059,4.875434],[100.494395,4.87226],[100.510997,4.906928],[100.44158,4.922838],[100.364513,5.084296],[100.409028,5.126654],[100.433279,5.211168],[100.418956,5.248481],[100.433279,5.290025],[100.380219,5.390692],[100.384939,5.499254],[100.350841,5.584215],[100.344005,5.669257],[100.376313,5.663316],[100.386404,5.679104],[100.364513,5.694078],[100.375743,5.81094],[100.349132,6.012681],[100.247895,6.220771],[100.174571,6.290961],[100.137462,6.38052],[100.127289,6.442288],[100.145701,6.539524],[100.167198,6.566138],[100.166836,6.695122],[100.187559,6.707964],[100.212363,6.689179],[100.273962,6.696259],[100.329204,6.557766],[100.387391,6.522084],[100.467231,6.513221],[100.630684,6.444776],[100.729954,6.493197],[100.733882,6.456377],[100.805609,6.414803],[100.832997,6.236675],[100.910099,6.235796],[100.974281,6.272616],[101.023063,6.24099],[101.081664,6.246467],[101.089157,6.188848],[101.053449,6.15761],[101.052519,6.134562],[101.094273,6.085754],[101.07877,5.938166],[101.015312,5.898349],[100.965289,5.792412],[100.99862,5.729548],[101.059805,5.709575],[101.122179,5.62989],[101.212302,5.681515],[101.248993,5.786986],[101.557914,5.911346],[101.634085,5.855587],[101.630778,5.828405],[101.665918,5.765592],[101.726793,5.78647],[101.800483,5.739909],[101.912931,5.859308],[101.934739,5.981729],[102.060002,6.094797],[102.07309,6.257514]]],[[[115.146169,4.908515],[115.189464,4.917467],[115.210623,4.959703],[115.28533,4.93122],[115.303966,4.906155],[115.358409,4.902777],[115.479747,5.026028],[115.556977,5.067206],[115.573497,5.169664],[115.605235,5.212104],[115.598643,5.225491],[115.523774,5.208808],[115.400645,5.299994],[115.39975,5.324205],[115.365245,5.30744],[115.392589,5.413275],[115.550141,5.540188],[115.604828,5.63581],[115.618826,5.61286],[115.584321,5.548489],[115.604828,5.519721],[115.619151,5.568061],[115.674083,5.529364],[115.76238,5.523139],[115.817719,5.533352],[115.848643,5.560004],[115.930675,5.763007],[116.050792,5.842271],[116.066417,5.93065],[116.141856,6.073065],[116.126231,6.102525],[116.10377,6.094713],[116.105968,6.126451],[116.154063,6.147284],[116.222667,6.237209],[116.291515,6.232611],[116.292735,6.275784],[116.236095,6.27261],[116.319998,6.313381],[116.347667,6.379584],[116.503184,6.495185],[116.520681,6.568752],[116.639008,6.699286],[116.6692,6.87641],[116.705821,6.905341],[116.718923,6.975409],[116.777354,7.02676],[116.838145,6.962144],[116.851817,6.890204],[116.82252,6.90412],[116.810802,6.86286],[116.858653,6.817857],[116.843923,6.752265],[116.792735,6.669745],[116.783946,6.59162],[116.84547,6.592027],[116.973806,6.708075],[116.984141,6.75495],[117.057872,6.845526],[117.030528,6.931138],[117.083263,6.948472],[117.07838,6.992621],[117.119884,6.985785],[117.150238,7.003119],[117.256521,6.937974],[117.230317,6.817532],[117.271983,6.75373],[117.295909,6.636298],[117.364757,6.625149],[117.458507,6.547553],[117.533702,6.621039],[117.558116,6.540107],[117.603282,6.514716],[117.64088,6.521715],[117.695323,6.451361],[117.710704,6.463772],[117.727061,6.451158],[117.743826,6.389879],[117.722992,6.254625],[117.656261,6.252753],[117.600352,6.197821],[117.661143,6.105618],[117.661143,6.067776],[117.633311,6.039862],[117.668305,6.013414],[117.668956,5.972642],[117.61964,5.937445],[117.492849,5.89468],[117.468761,5.868557],[117.569347,5.902899],[117.774262,5.908026],[117.771658,5.944281],[117.884044,5.954657],[117.973643,6.047756],[118.016856,6.060981],[118.050955,6.02619],[118.077159,5.931586],[118.125173,5.863918],[118.058849,5.808987],[117.921153,5.809027],[117.908458,5.784654],[117.960297,5.687161],[118.054698,5.718329],[118.106619,5.712592],[118.134044,5.689643],[118.17628,5.805162],[118.262218,5.827867],[118.340668,5.794257],[118.365245,5.813788],[118.594005,5.682074],[118.56544,5.525946],[118.603038,5.61872],[118.651052,5.63642],[118.736583,5.547838],[118.800059,5.522121],[118.819347,5.478095],[118.832367,5.505439],[118.918793,5.454983],[118.932628,5.39411],[118.97641,5.395575],[118.983897,5.43651],[119.085704,5.409857],[119.189301,5.450751],[119.278087,5.344631],[119.2671,5.201077],[119.155935,5.106187],[118.681488,4.944322],[118.572276,4.971625],[118.49936,4.931464],[118.428396,5.018785],[118.357188,5.038804],[118.291677,5.000922],[118.29127,4.977851],[118.252696,4.987128],[118.21697,4.965806],[118.136485,4.88231],[118.134939,4.859605],[118.177989,4.830756],[118.277599,4.695136],[118.333507,4.651557],[118.380544,4.642646],[118.411143,4.601508],[118.428396,4.594306],[118.444591,4.614936],[118.476736,4.601142],[118.489513,4.5751],[118.469412,4.537177],[118.496593,4.508287],[118.551931,4.532782],[118.59962,4.519192],[118.645763,4.436754],[118.626231,4.419338],[118.592133,4.429145],[118.592784,4.397366],[118.556895,4.363511],[118.391938,4.346381],[118.353282,4.361518],[118.33253,4.339016],[118.160818,4.30622],[117.982677,4.231147],[117.892263,4.256985],[117.808279,4.333564],[117.70753,4.36994],[117.671153,4.426011],[117.656016,4.424221],[117.605805,4.382025],[117.628754,4.361762],[117.653656,4.272162],[117.598969,4.206936],[117.627126,4.1765],[117.567149,4.159654],[117.43648,4.185611],[117.356588,4.259509],[117.202696,4.356066],[117.164662,4.333147],[116.883025,4.344904],[116.804477,4.330073],[116.711666,4.366789],[116.68004,4.339917],[116.590227,4.331132],[116.522221,4.396787],[116.48646,4.348831],[116.494109,4.324853],[116.446359,4.317257],[116.411323,4.288654],[116.391066,4.294674],[116.3582,4.355446],[116.310657,4.383377],[116.228802,4.356118],[116.125759,4.378907],[116.109946,4.345111],[116.020649,4.270852],[115.977241,4.328626],[115.878849,4.352139],[115.844122,4.389216],[115.817457,4.281316],[115.770742,4.225609],[115.732605,4.239381],[115.646925,4.169101],[115.609511,3.996915],[115.580986,3.946918],[115.538818,3.920615],[115.538301,3.897825],[115.588634,3.857595],[115.544399,3.629159],[115.601243,3.430231],[115.557215,3.425451],[115.517631,3.357161],[115.482801,3.206472],[115.517011,3.157276],[115.482181,3.110974],[115.464094,3.030824],[115.309995,2.985917],[115.242092,3.041624],[115.207985,2.980698],[115.122823,2.91295],[115.069079,2.832645],[115.104633,2.761486],[115.056987,2.711257],[115.07187,2.671828],[115.05647,2.608627],[115.071456,2.594623],[115.151968,2.597052],[115.206125,2.509874],[115.192689,2.490547],[115.105046,2.46569],[114.972961,2.35748],[114.922215,2.353914],[114.913326,2.284048],[114.778761,2.247202],[114.753026,2.134806],[114.780621,2.036053],[114.841083,2.038223],[114.831988,1.902521],[114.679542,1.840741],[114.669,1.694006],[114.624455,1.598792],[114.563167,1.536393],[114.568025,1.469395],[114.545597,1.434952],[114.500638,1.436037],[114.374858,1.506938],[114.173423,1.420509],[114.094255,1.465674],[113.909667,1.442471],[113.808174,1.339713],[113.624826,1.227575],[113.524471,1.313564],[113.397553,1.293927],[113.323656,1.351392],[113.158602,1.388159],[113.089045,1.431335],[112.9582,1.415651],[113.024346,1.514379],[113.014114,1.550785],[112.973186,1.569854],[112.854951,1.582721],[112.801517,1.543783],[112.470478,1.567657],[112.398545,1.523345],[112.295192,1.503811],[112.161556,1.434539],[112.154115,1.409527],[112.187395,1.379659],[112.09293,1.143135],[111.910099,1.114042],[111.823076,1.008467],[111.762821,0.993015],[111.622675,1.030274],[111.538855,0.997718],[111.503199,0.958444],[111.472089,1.022213],[111.374111,1.007537],[111.197584,1.075233],[110.880394,1.010534],[110.796989,0.949659],[110.776731,0.903253],[110.704178,0.901393],[110.661286,0.872144],[110.613434,0.893952],[110.553903,0.85137],[110.460265,0.879741],[110.364147,0.981388],[110.263481,0.994307],[110.256556,1.039059],[110.17036,1.174451],[110.051814,1.215482],[110.03073,1.253568],[109.963758,1.298578],[109.920246,1.394774],[109.842835,1.403275],[109.807798,1.459964],[109.775552,1.457948],[109.766354,1.496473],[109.65804,1.59719],[109.64171,1.637162],[109.641814,1.781004],[109.555617,1.802165],[109.528436,1.889989],[109.600266,1.983136],[109.645274,2.083238],[109.654633,1.936998],[109.693044,1.873114],[109.886729,1.760199],[109.927745,1.692288],[110.167654,1.70185],[110.211681,1.682034],[110.254161,1.706204],[110.290782,1.673977],[110.307872,1.709296],[110.301036,1.770738],[110.329356,1.802558],[110.390147,1.699042],[110.421153,1.695705],[110.507986,1.740912],[110.520763,1.722968],[110.465587,1.620551],[110.506358,1.633002],[110.536306,1.596869],[110.589041,1.606269],[110.726736,1.547431],[110.733409,1.498684],[110.677908,1.448635],[110.763438,1.479682],[110.766612,1.551663],[110.793305,1.572414],[110.924815,1.531195],[111.043956,1.426947],[111.141938,1.371527],[111.232677,1.394599],[111.340587,1.333319],[111.383556,1.353664],[111.325531,1.367336],[111.304698,1.40762],[111.246349,1.421332],[111.176768,1.40058],[111.064952,1.462714],[111.011078,1.542955],[111.005626,1.584459],[111.037852,1.676947],[111.09547,1.687974],[111.137055,1.682034],[111.179454,1.627021],[111.215099,1.639838],[111.267426,1.627346],[111.172862,1.659369],[111.158214,1.692288],[111.12615,1.70661],[111.096039,1.774482],[111.130219,1.791897],[111.113129,1.835517],[111.175304,1.953192],[111.205903,2.068996],[111.267833,2.067532],[111.241873,2.089423],[111.253917,2.126125],[111.336436,2.112128],[111.37794,2.161811],[111.356781,2.166205],[111.329112,2.12873],[111.270518,2.153795],[111.184744,2.145087],[111.184825,2.19477],[111.240082,2.216376],[111.184825,2.253648],[111.220958,2.416083],[111.246349,2.436103],[111.365489,2.340766],[111.448253,2.372382],[111.493419,2.346137],[111.424164,2.427232],[111.404552,2.483954],[111.487315,2.473944],[111.521251,2.490709],[111.461681,2.508002],[111.417247,2.555121],[111.457856,2.705634],[111.669607,2.843085],[111.860606,2.880601],[112.01352,2.885932],[112.727306,3.066107],[113.007823,3.161689],[113.082286,3.256781],[113.069347,3.278998],[113.16212,3.353461],[113.199555,3.415513],[113.277599,3.484198],[113.308116,3.559312],[113.391449,3.648342],[113.434255,3.75316],[113.736827,4.001288],[113.946788,4.27383],[113.992198,4.437079],[113.975841,4.594713],[114.118956,4.561635],[114.245564,4.481433],[114.289902,4.361311],[114.282667,4.264909],[114.41992,4.260129],[114.477384,4.144968],[114.569368,4.064404],[114.586628,4.021435],[114.627762,4.016681],[114.766875,4.131816],[114.817208,4.259664],[114.813798,4.277104],[114.782585,4.264418],[114.781965,4.284933],[114.828991,4.340486],[114.84563,4.395108],[114.847904,4.423736],[114.806046,4.433322],[114.788166,4.461202],[114.773903,4.636824],[114.741967,4.729454],[114.855759,4.806659],[114.948363,4.818932],[114.958905,4.866293],[115.015798,4.916409],[115.026808,4.660027],[115.079828,4.503964],[115.091817,4.405417],[115.169952,4.361259],[115.346272,4.313769],[115.358261,4.350278],[115.272478,4.474663],[115.272684,4.636772],[115.207365,4.825598],[115.146801,4.88562],[115.146169,4.908515]]],[[[118.219493,5.855536],[118.230805,5.831936],[118.165538,5.827541],[118.181,5.851264],[118.219493,5.855536]]],[[[111.411388,2.391099],[111.410492,2.372219],[111.390961,2.382148],[111.369884,2.359809],[111.342621,2.413886],[111.312673,2.431342],[111.299001,2.702704],[111.31544,2.784491],[111.349946,2.771308],[111.381033,2.697903],[111.381847,2.523342],[111.411388,2.391099]]],[[[104.222667,2.78559],[104.210785,2.715074],[104.157481,2.713284],[104.130626,2.745795],[104.126964,2.78559],[104.16033,2.817857],[104.153819,2.864081],[104.170665,2.891099],[104.222667,2.78559]]],[[[118.726248,4.491889],[118.74879,4.4855],[118.756114,4.457221],[118.674815,4.436591],[118.644054,4.495307],[118.726248,4.491889]]],[[[118.510265,4.648871],[118.54949,4.665188],[118.59962,4.635199],[118.575369,4.627387],[118.572276,4.601142],[118.548106,4.621568],[118.535167,4.601304],[118.346446,4.676215],[118.425304,4.676215],[118.456309,4.697252],[118.510265,4.648871]]],[[[115.248546,5.365465],[115.259288,5.291205],[115.24171,5.272691],[115.204112,5.283596],[115.15919,5.252183],[115.189138,5.344794],[115.24171,5.387397],[115.248546,5.365465]]],[[[100.309825,5.450751],[100.343435,5.417629],[100.288748,5.262681],[100.184337,5.268541],[100.196137,5.299994],[100.179454,5.458197],[100.210623,5.443996],[100.274099,5.468492],[100.309825,5.450751]]],[[[99.786292,6.241822],[99.836978,6.294227],[99.826428,6.190675],[99.805596,6.171793],[99.767234,6.223804],[99.786292,6.241822]]],[[[99.900617,6.364304],[99.91627,6.331529],[99.865692,6.290527],[99.844586,6.324686],[99.825333,6.324099],[99.728735,6.261476],[99.719044,6.353231],[99.658702,6.362616],[99.645228,6.435841],[99.770927,6.419842],[99.842029,6.469639],[99.913341,6.390204],[99.900617,6.364304]]],[[[117.468761,6.766669],[117.510753,6.704291],[117.506602,6.673489],[117.443044,6.635728],[117.346934,6.654975],[117.354991,6.679633],[117.443858,6.698554],[117.439301,6.723944],[117.399913,6.739325],[117.468761,6.766669]]],[[[117.002615,7.355699],[117.022716,7.318834],[117.01002,7.279975],[116.976736,7.290229],[116.982188,7.253323],[116.886485,7.229397],[116.905121,7.20893],[116.890961,7.193671],[116.851817,7.198065],[116.900157,7.287421],[116.961681,7.307929],[117.002615,7.355699]]],[[[117.171153,7.342678],[117.246267,7.35578],[117.281912,7.332343],[117.26238,7.201972],[117.247081,7.183173],[117.140391,7.167629],[117.071544,7.102484],[117.056407,7.202867],[117.067719,7.280015],[117.171153,7.342678]]],[[[101.271169,3.046454],[101.23699,3.035061],[101.262869,3.056342],[101.271169,3.046454]]],[[[101.337657,3.051825],[101.335297,3.009019],[101.268077,2.965155],[101.305919,3.063951],[101.323497,3.071112],[101.337657,3.051825]]]]}}]}
