{"type":"FeatureCollection","features":[{"type":"Feature","properties":{"name":"Namibia","ISO3166-1-Alpha-3":"NAM","ISO3166-1-Alpha-2":"NA"},"geometry":{"type":"Polygon","coordinates":[[[16.487071,-28.572931],[16.445811,-28.610528],[16.346853,-28.556085],[16.04363,-28.257094],[15.911143,-28.171319],[15.747813,-28.024591],[15.678884,-27.942804],[15.673025,-27.869887],[15.533539,-27.730157],[15.520681,-27.633722],[15.295258,-27.322442],[15.261241,-27.205743],[15.261241,-27.085626],[15.235362,-27.029474],[15.228526,-26.945571],[15.158865,-26.897068],[15.083018,-26.695245],[15.083507,-26.652114],[15.106619,-26.632582],[15.134613,-26.62713],[15.144542,-26.6749],[15.168712,-26.592218],[15.105642,-26.420587],[14.966319,-26.335219],[14.962657,-26.181329],[14.939138,-26.147149],[14.966319,-26.133559],[14.979015,-26.05877],[14.907725,-25.915297],[14.91863,-25.845473],[14.840343,-25.751723],[14.842784,-25.650323],[14.879568,-25.53867],[14.853282,-25.498712],[14.80128,-25.262791],[14.853282,-25.064223],[14.796153,-24.92197],[14.780772,-24.803399],[14.723481,-24.703546],[14.601899,-24.562433],[14.612315,-24.445733],[14.513927,-24.261489],[14.459239,-24.098321],[14.451915,-23.988458],[14.513927,-23.892267],[14.486583,-23.758477],[14.495291,-23.578546],[14.434337,-23.415216],[14.479747,-23.344822],[14.490408,-23.369724],[14.491954,-23.309177],[14.473481,-23.192804],[14.420665,-23.070977],[14.410167,-22.970798],[14.435069,-22.879815],[14.451915,-22.912205],[14.444347,-22.952813],[14.472911,-22.95379],[14.459239,-22.995294],[14.529307,-22.90016],[14.508556,-22.548028],[14.386485,-22.276462],[14.315196,-22.200291],[14.291352,-22.134454],[14.137218,-21.946384],[13.952322,-21.783949],[13.962657,-21.714044],[13.87794,-21.592218],[13.831716,-21.456476],[13.602712,-21.158136],[13.459158,-20.918064],[13.397634,-20.849298],[13.349457,-20.644464],[13.262706,-20.485121],[13.177745,-20.189223],[13.154633,-20.154229],[13.07088,-20.114229],[13.037345,-20.059465],[13.005382,-19.935479],[12.7046,-19.410821],[12.679698,-19.31406],[12.567393,-19.102309],[12.470388,-18.997654],[12.450043,-18.904555],[12.286876,-18.697686],[12.031889,-18.50535],[11.999522,-18.361912],[11.937348,-18.23211],[11.849082,-18.143183],[11.796911,-17.956089],[11.717621,-17.546319],[11.755138,-17.266697],[11.766124,-17.252699],[11.82241,-17.264423],[11.942092,-17.180501],[12.08813,-17.139159],[12.170709,-17.149185],[12.242642,-17.224839],[12.379482,-17.220395],[12.417929,-17.203445],[12.56717,-17.234554],[12.63621,-17.185151],[12.818318,-17.104846],[12.876402,-17.059784],[12.887151,-17.029812],[13.014275,-16.977929],[13.166307,-16.951057],[13.267489,-16.98537],[13.363711,-16.964183],[13.479776,-17.010278],[13.530936,-17.093271],[13.521324,-17.1219],[13.884351,-17.338527],[13.942745,-17.408187],[13.980573,-17.423587],[14.017883,-17.40922],[14.085372,-17.423587],[14.197097,-17.412941],[14.207432,-17.388033],[18.453581,-17.389893],[18.489858,-17.462447],[18.516626,-17.471336],[18.554144,-17.54637],[18.619669,-17.594842],[18.64282,-17.638044],[18.761986,-17.747701],[18.89004,-17.799274],[19.020575,-17.822322],[19.246608,-17.804028],[19.421274,-17.859426],[19.672628,-17.842682],[19.77102,-17.890328],[19.793964,-17.862319],[19.951991,-17.862319],[20.03426,-17.895909],[20.154563,-17.890328],[20.193113,-17.872138],[20.243446,-17.882783],[20.278173,-17.854878],[20.336154,-17.854878],[20.386797,-17.890328],[20.437543,-17.894462],[20.565494,-17.985206],[20.666263,-17.980245],[20.722487,-18.006497],[20.737473,-17.993474],[20.806202,-18.031405],[20.894466,-18.012595],[20.908315,-17.986136],[21.161323,-17.930636],[21.23274,-17.93446],[21.386839,-18.014455],[24.220464,-17.4795],[24.321337,-17.488699],[24.388929,-17.471336],[24.571244,-17.533451],[24.629742,-17.49552],[24.684415,-17.49242],[24.898252,-17.531074],[24.998505,-17.588021],[25.036952,-17.5812],[25.033851,-17.608485],[25.088525,-17.642695],[25.098757,-17.676801],[25.122631,-17.697885],[25.138548,-17.686103],[25.161182,-17.729408],[25.259781,-17.794107],[25.153947,-17.781808],[25.120874,-17.813537],[25.057002,-17.827696],[25.047494,-17.807129],[24.983312,-17.820462],[24.953339,-17.788422],[24.730717,-17.891878],[24.564423,-18.052799],[24.505615,-18.060344],[24.421589,-17.956474],[24.350586,-17.95606],[24.296429,-18.026237],[24.218294,-18.012595],[24.101609,-18.108816],[23.915987,-18.201213],[23.912886,-18.235733],[23.715792,-18.419081],[23.609856,-18.477682],[23.57916,-18.467864],[23.546604,-18.369472],[23.560763,-18.348491],[23.501542,-18.23749],[23.429401,-18.188501],[23.395812,-18.191395],[23.3338,-18.04329],[23.292769,-17.998952],[22.981367,-18.020036],[21.475722,-18.299502],[20.975081,-18.319346],[20.984796,-21.963981],[20.97198,-22.000671],[19.978346,-22.000671],[19.981653,-28.422347],[19.896697,-28.427721],[19.82559,-28.47671],[19.568759,-28.531177],[19.45507,-28.705223],[19.339005,-28.73747],[19.290016,-28.719693],[19.265935,-28.742637],[19.244954,-28.792453],[19.288362,-28.883094],[19.120207,-28.957508],[19.081657,-28.959368],[19.060056,-28.9357],[19.006932,-28.926295],[18.954533,-28.866661],[18.745656,-28.839892],[18.397564,-28.898907],[18.30868,-28.879993],[18.166467,-28.901904],[18.044097,-28.858392],[17.913252,-28.781291],[17.746338,-28.748632],[17.673784,-28.771576],[17.628722,-28.764135],[17.607121,-28.75566],[17.582937,-28.680212],[17.403619,-28.704293],[17.420569,-28.593396],[17.373027,-28.559393],[17.324244,-28.470509],[17.399692,-28.395268],[17.400002,-28.346382],[17.345742,-28.22763],[17.21314,-28.232074],[17.191953,-28.20882],[17.180894,-28.099472],[17.136349,-28.084693],[17.076404,-28.026815],[16.947523,-28.072704],[16.919618,-28.058338],[16.892953,-28.082626],[16.885512,-28.162001],[16.837659,-28.168202],[16.856366,-28.206649],[16.810271,-28.222876],[16.824637,-28.264527],[16.768723,-28.265354],[16.768413,-28.303698],[16.803863,-28.366123],[16.778541,-28.382969],[16.769343,-28.442604],[16.740404,-28.480948],[16.703817,-28.494487],[16.692345,-28.461104],[16.673121,-28.45976],[16.597364,-28.526216],[16.487071,-28.572931]]]}}]}
