{"type":"FeatureCollection","features":[{"type":"Feature","properties":{"name":"Nicaragua","ISO3166-1-Alpha-3":"NIC","ISO3166-1-Alpha-2":"NI"},"geometry":{"type":"MultiPolygon","coordinates":[[[[-85.701736,11.08088],[-85.785797,11.11225],[-85.821319,11.192816],[-85.928009,11.310736],[-85.994862,11.343655],[-86.148305,11.471747],[-86.176137,11.522406],[-86.352081,11.622626],[-86.376617,11.66946],[-86.496368,11.759426],[-86.63036,11.964911],[-86.689809,12.024075],[-86.772572,12.197414],[-87.17101,12.451443],[-87.173573,12.474514],[-87.097808,12.433539],[-87.180409,12.522976],[-87.176422,12.485907],[-87.312978,12.60281],[-87.331207,12.638983],[-87.344838,12.619167],[-87.454864,12.743801],[-87.467763,12.769965],[-87.447296,12.762519],[-87.480255,12.799994],[-87.522979,12.817165],[-87.482533,12.781195],[-87.492218,12.771389],[-87.670929,12.8935],[-87.685821,12.947577],[-87.667022,12.982245],[-87.588775,13.046332],[-87.577626,13.084662],[-87.583852,13.057318],[-87.506378,13.01968],[-87.435048,12.92239],[-87.392486,12.913398],[-87.289581,12.919582],[-87.379018,12.937567],[-87.314036,12.981553],[-87.084654,12.995926],[-87.035045,12.979777],[-86.922932,13.086386],[-86.934921,13.185527],[-86.910789,13.239581],[-86.8495,13.288828],[-86.7493,13.261285],[-86.704031,13.298828],[-86.709922,13.348902],[-86.740205,13.381923],[-86.724288,13.439413],[-86.756586,13.55938],[-86.751573,13.624415],[-86.774053,13.654594],[-86.766198,13.74526],[-86.727234,13.768256],[-86.541664,13.782131],[-86.490814,13.759497],[-86.448233,13.772959],[-86.410096,13.749033],[-86.340126,13.756655],[-86.184063,13.966875],[-86.09673,14.044079],[-86.020197,14.055164],[-86.028413,13.996072],[-85.929401,13.912098],[-85.861602,13.904424],[-85.824162,13.847683],[-85.742462,13.823705],[-85.723006,13.863418],[-85.747449,13.888275],[-85.727347,13.965014],[-85.651486,13.98199],[-85.593608,14.03346],[-85.527953,14.050901],[-85.510641,14.093792],[-85.431732,14.132834],[-85.384008,14.226445],[-85.321351,14.281326],[-85.169629,14.321763],[-85.159035,14.361063],[-85.205828,14.407158],[-85.151826,14.485964],[-85.14547,14.564254],[-85.119322,14.573969],[-85.086378,14.54454],[-85.029637,14.588956],[-85.022222,14.605802],[-85.048163,14.605776],[-85.020206,14.633733],[-85.053925,14.66306],[-85.033048,14.669571],[-85.015659,14.728172],[-84.904219,14.816978],[-84.792132,14.82106],[-84.699321,14.674687],[-84.680847,14.685461],[-84.52742,14.660398],[-84.534215,14.633733],[-84.482694,14.619471],[-84.408435,14.649417],[-84.362934,14.715615],[-84.338387,14.674687],[-84.267281,14.677736],[-84.261803,14.758532],[-84.168191,14.714969],[-84.095431,14.736104],[-84.122716,14.784525],[-84.11176,14.793413],[-84.040757,14.76034],[-83.924718,14.763441],[-83.924718,14.803775],[-83.869475,14.777109],[-83.801211,14.803775],[-83.821055,14.825479],[-83.765296,14.828786],[-83.746563,14.852195],[-83.705015,14.838527],[-83.714498,14.867233],[-83.691967,14.886974],[-83.615615,14.872685],[-83.604272,14.909194],[-83.540477,14.94157],[-83.54735,14.955212],[-83.526861,14.948365],[-83.509084,15.01154],[-83.45919,14.982497],[-83.415472,14.996941],[-83.390306,15.03097],[-83.349352,14.996812],[-83.272974,15.003039],[-83.285661,14.992109],[-83.266153,14.982497],[-83.130444,14.997012],[-83.165151,14.969062],[-83.17984,14.985989],[-83.191884,14.97427],[-83.294016,14.804267],[-83.32844,14.790961],[-83.308502,14.82567],[-83.32844,14.831855],[-83.287424,14.82567],[-83.307851,14.91059],[-83.322174,14.913886],[-83.369862,14.883002],[-83.424631,14.803941],[-83.411529,14.818264],[-83.397817,14.807603],[-83.380238,14.757392],[-83.337514,14.731431],[-83.322174,14.749945],[-83.356313,14.770453],[-83.333485,14.773261],[-83.314768,14.749945],[-83.315419,14.772773],[-83.299224,14.771186],[-83.186594,14.347642],[-83.218577,14.250312],[-83.34968,14.048774],[-83.397288,14.016303],[-83.431264,13.956732],[-83.559153,13.415839],[-83.568593,13.242906],[-83.50768,12.902777],[-83.541331,12.580634],[-83.485911,12.472154],[-83.481801,12.416653],[-83.512563,12.393785],[-83.637522,12.385728],[-83.602528,12.425442],[-83.634633,12.474107],[-83.637522,12.564521],[-83.58845,12.559638],[-83.555409,12.635891],[-83.568593,12.673774],[-83.541331,12.769965],[-83.564036,12.81269],[-83.616363,12.817125],[-83.645904,12.786851],[-83.597483,12.694322],[-83.589101,12.632148],[-83.673695,12.570461],[-83.774648,12.533515],[-83.774648,12.481431],[-83.726226,12.468329],[-83.733713,12.362982],[-83.707672,12.335883],[-83.67634,12.342475],[-83.676381,12.279853],[-83.64977,12.353176],[-83.617014,12.348049],[-83.663726,12.25609],[-83.685902,12.137437],[-83.67101,11.987942],[-83.685292,11.981106],[-83.723744,12.074652],[-83.700673,12.095201],[-83.697865,12.135199],[-83.728627,12.171576],[-83.77774,12.177151],[-83.760325,12.153062],[-83.739898,12.166653],[-83.713246,12.125678],[-83.739369,12.051947],[-83.803944,12.060289],[-83.761301,12.035346],[-83.759836,11.946845],[-83.83609,11.871243],[-83.76773,11.804836],[-83.742909,11.805243],[-83.735097,11.853664],[-83.699941,11.849921],[-83.651723,11.619371],[-83.664784,11.59809],[-83.761057,11.557115],[-83.794423,11.443996],[-83.821889,11.447252],[-83.862782,11.392035],[-83.867909,11.273668],[-83.815663,11.090399],[-83.710317,10.922675],[-83.6965,10.936594],[-83.6788,10.916154],[-83.663028,10.807016],[-83.835343,10.747614],[-83.859528,10.721776],[-83.926578,10.714903],[-84.009234,10.789446],[-84.07644,10.763814],[-84.137004,10.789162],[-84.191601,10.78172],[-84.227102,10.819315],[-84.204649,10.836988],[-84.20837,10.860966],[-84.310741,10.919412],[-84.355466,10.994627],[-84.4382,10.952201],[-84.498171,11.001991],[-84.62067,11.035762],[-84.676455,11.070411],[-84.884969,10.947679],[-84.9314,10.941891],[-85.508626,11.152421],[-85.597794,11.209937],[-85.631151,11.196217],[-85.701736,11.08088]]],[[[-83.665352,10.935318],[-83.675564,10.925976],[-83.678335,10.935953],[-83.665352,10.935318]]],[[[-83.726226,11.878648],[-83.736073,11.941799],[-83.706858,11.987047],[-83.726226,11.878648]]],[[[-83.053944,12.143866],[-83.032541,12.190823],[-83.021148,12.181789],[-83.053944,12.143866]]],[[[-82.767323,14.41413],[-82.728993,14.413764],[-82.732533,14.369574],[-82.808258,14.36636],[-82.767323,14.41413]]]]}}]}
