{"type":"FeatureCollection","features":[{"type":"Feature","properties":{"name":"Nepal","ISO3166-1-Alpha-3":"NPL","ISO3166-1-Alpha-2":"NP"},"geometry":{"type":"Polygon","coordinates":[[[88.118218,27.860885],[88.164623,27.845356],[88.159662,27.77412],[88.11088,27.639503],[88.02334,27.494912],[88.041633,27.438068],[88.014762,27.378072],[88.035122,27.322571],[87.989337,27.218391],[87.969183,27.110801],[88.096824,26.959337],[88.151394,26.862806],[88.167827,26.762915],[88.163383,26.705141],[88.044321,26.405676],[88.006648,26.369864],[87.975488,26.366557],[87.869809,26.464639],[87.821595,26.437509],[87.768988,26.451461],[87.727544,26.403764],[87.68119,26.424228],[87.586984,26.378029],[87.480324,26.423401],[87.416452,26.426967],[87.356404,26.403712],[87.326225,26.353328],[87.30049,26.34599],[87.2453,26.370226],[87.2191,26.408105],[87.10629,26.404746],[87.066706,26.465621],[87.041333,26.580187],[86.875968,26.494921],[86.821863,26.438129],[86.738199,26.44371],[86.713601,26.414565],[86.494906,26.527839],[86.353674,26.582616],[86.316002,26.580963],[86.284428,26.61202],[86.195855,26.582668],[86.01137,26.654447],[85.952148,26.642044],[85.828538,26.566131],[85.809728,26.603028],[85.780996,26.599204],[85.712887,26.653206],[85.701828,26.796608],[85.598578,26.854383],[85.439622,26.78772],[85.385878,26.788444],[85.302369,26.737336],[85.194934,26.758885],[85.165685,26.786273],[85.162016,26.851024],[85.122845,26.8657],[85.018562,26.845804],[85.018045,26.874433],[84.952726,26.897636],[84.924046,26.955668],[84.817489,27.0106],[84.760697,26.999025],[84.627268,27.03649],[84.657654,27.203405],[84.606546,27.310479],[84.577039,27.329031],[84.289408,27.376108],[84.225536,27.440393],[84.185848,27.438636],[84.11717,27.513283],[84.079601,27.509536],[84.007668,27.440807],[83.923022,27.449954],[83.834087,27.434037],[83.87765,27.369907],[83.854602,27.34505],[83.590432,27.45662],[83.387034,27.470469],[83.355925,27.452486],[83.362746,27.385616],[83.32435,27.341691],[83.282441,27.330943],[83.132786,27.444217],[83.010468,27.443391],[82.876264,27.487548],[82.752137,27.494964],[82.72971,27.518166],[82.679687,27.694409],[82.652143,27.70415],[82.440683,27.666426],[82.401926,27.677175],[82.347924,27.726009],[82.02722,27.912406],[81.975905,27.916953],[81.883198,27.849051],[81.855654,27.850937],[81.688946,27.963204],[81.615049,27.981239],[81.473455,28.066402],[81.396044,28.160634],[81.357907,28.165982],[81.338115,28.132728],[81.296205,28.12831],[81.276775,28.153787],[81.295947,28.167455],[81.224323,28.250783],[81.169701,28.361319],[81.000409,28.397002],[80.976018,28.436922],[80.905273,28.440849],[80.872252,28.496866],[80.781663,28.514746],[80.67862,28.574717],[80.635625,28.627866],[80.563589,28.647038],[80.555837,28.678948],[80.517596,28.680033],[80.487624,28.656469],[80.488451,28.562444],[80.408352,28.626342],[80.329701,28.627479],[80.291047,28.689671],[80.233273,28.732718],[80.162063,28.753285],[80.11421,28.802584],[80.036386,28.837026],[80.031115,28.897798],[80.052922,28.949113],[80.107906,28.994588],[80.132607,29.110214],[80.220664,29.126079],[80.233066,29.139308],[80.218803,29.211086],[80.258181,29.202456],[80.280092,29.31015],[80.254977,29.316635],[80.213739,29.416888],[80.385201,29.604835],[80.354402,29.70488],[80.368975,29.757926],[80.476152,29.80614],[80.57134,29.946855],[80.641413,29.963444],[80.715827,30.013311],[80.829825,30.117129],[80.849669,30.143381],[80.83644,30.170046],[80.883879,30.210405],[80.920827,30.17666],[81.006507,30.188908],[81.097768,30.016929],[81.21683,30.008195],[81.225719,30.050467],[81.272021,30.079922],[81.266956,30.125087],[81.350052,30.15723],[81.377854,30.232626],[81.368036,30.301046],[81.387518,30.373909],[81.42612,30.372514],[81.509371,30.328382],[81.536811,30.37856],[81.614015,30.416904],[81.779018,30.358045],[81.844389,30.371171],[81.941231,30.353962],[81.969032,30.328279],[82.088767,30.330088],[82.084994,30.230817],[82.155688,30.181363],[82.127576,30.124364],[82.153827,30.058166],[82.210671,30.064419],[82.318882,30.031811],[82.347304,30.003441],[82.394433,30.003131],[82.457065,29.95409],[82.541814,29.923239],[82.618502,29.839833],[82.688988,29.827741],[82.690952,29.780741],[82.836576,29.659793],[82.899725,29.688422],[82.931919,29.664185],[82.975896,29.66403],[83.064935,29.57879],[83.093357,29.615144],[83.173558,29.621268],[83.26084,29.542048],[83.247197,29.494738],[83.26394,29.473008],[83.327968,29.485023],[83.355201,29.460735],[83.35701,29.415363],[83.38724,29.393504],[83.393132,29.356245],[83.502996,29.261032],[83.523718,29.183594],[83.639266,29.154759],[83.69549,29.226176],[83.79321,29.234754],[83.914392,29.289402],[83.957955,29.28904],[83.975835,29.263745],[84.012525,29.270204],[84.035211,29.247622],[84.08973,29.256613],[84.112364,29.209097],[84.161663,29.192534],[84.13226,29.143804],[84.175461,29.057401],[84.231427,29.025981],[84.206725,28.940664],[84.235147,28.90002],[84.376586,28.848835],[84.450845,28.73388],[84.616209,28.69365],[84.632642,28.668794],[84.682975,28.650759],[84.677756,28.604405],[84.755632,28.585414],[84.81196,28.54198],[84.92849,28.538466],[85.054942,28.638692],[85.160982,28.595],[85.153748,28.524901],[85.077577,28.435681],[85.080212,28.318789],[85.109409,28.292254],[85.173591,28.30432],[85.223924,28.271686],[85.312601,28.282771],[85.362572,28.259672],[85.43156,28.297059],[85.565299,28.275381],[85.611807,28.251145],[85.692939,28.335222],[85.699761,28.269102],[85.734487,28.221534],[85.863368,28.143348],[85.898302,28.036016],[85.956593,27.976226],[85.96269,27.891374],[86.061703,27.889048],[86.112862,27.926798],[86.068731,28.076763],[86.15596,28.156525],[86.186036,28.133529],[86.172238,28.071828],[86.203038,28.002581],[86.425298,27.909925],[86.510461,27.952429],[86.553559,28.104151],[86.612315,28.080277],[86.661976,28.106838],[86.731739,28.076918],[86.739801,28.021495],[86.840466,28.014777],[86.914725,27.945117],[87.005676,27.951499],[87.155796,27.825796],[87.290516,27.816081],[87.363845,27.855252],[87.385343,27.849412],[87.369116,27.803937],[87.531587,27.836803],[87.573342,27.805022],[87.636077,27.823652],[87.726821,27.807761],[87.779841,27.839439],[87.836685,27.908323],[87.978433,27.880522],[88.029954,27.893337],[88.118218,27.860885]]]}}]}
