{"type":"FeatureCollection","features":[{"type":"Feature","properties":{"name":"Peru","ISO3166-1-Alpha-3":"PER","ISO3166-1-Alpha-2":"PE"},"geometry":{"type":"MultiPolygon","coordinates":[[[[-69.510089,-17.506588],[-69.683902,-17.656036],[-69.818054,-17.659137],[-69.849835,-17.69159],[-69.857561,-17.734171],[-69.783095,-17.981598],[-69.865338,-18.144585],[-69.970345,-18.250625],[-70.159067,-18.32597],[-70.317895,-18.321215],[-70.394703,-18.337746],[-70.683256,-18.161698],[-70.74767,-18.094415],[-70.878896,-18.016697],[-70.914622,-17.946547],[-71.007151,-17.890232],[-71.086578,-17.869073],[-71.203521,-17.762628],[-71.304555,-17.705987],[-71.384429,-17.697849],[-71.359609,-17.633071],[-71.400258,-17.400323],[-71.514516,-17.284601],[-71.807607,-17.191339],[-72.003082,-17.042576],[-72.118153,-17.019301],[-72.124379,-16.977716],[-72.197255,-16.916436],[-72.293365,-16.880629],[-72.306508,-16.824151],[-72.362213,-16.761326],[-72.440094,-16.714451],[-72.587758,-16.659356],[-72.692353,-16.660654],[-72.781321,-16.629327],[-72.888336,-16.55462],[-73.060246,-16.494881],[-73.17516,-16.413263],[-73.296213,-16.395603],[-73.325999,-16.330743],[-73.420318,-16.293145],[-73.598909,-16.239849],[-73.676202,-16.227873],[-73.700687,-16.244594],[-73.700278,-16.220696],[-73.735015,-16.190118],[-73.842641,-16.146661],[-74.004077,-16.037059],[-74.032826,-16.012302],[-74.04662,-15.960138],[-74.161692,-15.901056],[-74.220611,-15.89129],[-74.265739,-15.847661],[-74.398012,-15.826863],[-74.446401,-15.79225],[-74.463068,-15.726724],[-74.84756,-15.566294],[-75.006418,-15.461196],[-75.048695,-15.460707],[-75.106109,-15.408624],[-75.189416,-15.369545],[-75.151641,-15.332988],[-75.263173,-15.250421],[-75.232777,-15.245782],[-75.23412,-15.214532],[-75.289622,-15.161065],[-75.376454,-15.134047],[-75.44811,-15.007989],[-75.502756,-14.963637],[-75.506581,-14.918227],[-75.839426,-14.726332],[-75.930653,-14.649347],[-75.932769,-14.580015],[-75.973434,-14.528741],[-75.964832,-14.49249],[-75.980636,-14.461099],[-76.081858,-14.377699],[-76.133209,-14.359633],[-76.143553,-14.327895],[-76.106709,-14.30586],[-76.149159,-14.223891],[-76.181142,-14.210626],[-76.215443,-14.161228],[-76.24994,-14.147806],[-76.271193,-14.20093],[-76.290435,-14.167413],[-76.291737,-14.080987],[-76.267907,-14.049715],[-76.292714,-13.900486],[-76.308461,-13.891778],[-76.32486,-13.921],[-76.39396,-13.90802],[-76.362016,-13.801642],[-76.295904,-13.793436],[-76.302952,-13.832689],[-76.261773,-13.861428],[-76.253985,-13.850868],[-76.181264,-13.539483],[-76.221102,-13.357556],[-76.483347,-13.036296],[-76.516474,-12.946153],[-76.516233,-12.869919],[-76.630035,-12.750665],[-76.681793,-12.655369],[-76.681467,-12.619317],[-76.799079,-12.509342],[-76.811757,-12.48268],[-76.78243,-12.419213],[-76.790886,-12.381047],[-76.853646,-12.302644],[-77.038319,-12.20436],[-77.053944,-12.11419],[-77.088979,-12.088962],[-77.174916,-12.071873],[-77.14509,-12.023045],[-77.145904,-11.932061],[-77.196374,-11.776822],[-77.16706,-11.756536],[-77.171086,-11.736138],[-77.210927,-11.646417],[-77.264231,-11.604262],[-77.28189,-11.549493],[-77.360463,-11.461114],[-77.647257,-11.292316],[-77.647968,-11.222346],[-77.597799,-11.206837],[-77.594684,-11.165117],[-77.661307,-11.01446],[-77.646806,-10.996477],[-77.670539,-10.92752],[-77.70917,-10.852247],[-77.753155,-10.815769],[-77.763676,-10.761524],[-77.8485,-10.673761],[-77.922592,-10.530785],[-77.968495,-10.49391],[-78.010976,-10.412774],[-78.006427,-10.382482],[-78.055804,-10.347524],[-78.058173,-10.301908],[-78.085548,-10.277426],[-78.104934,-10.201132],[-78.182335,-10.110846],[-78.167969,-10.093416],[-78.177943,-10.042507],[-78.236308,-9.946889],[-78.229422,-9.793784],[-78.369904,-9.615432],[-78.368071,-9.556929],[-78.387034,-9.546713],[-78.405914,-9.477716],[-78.385078,-9.45143],[-78.427115,-9.41974],[-78.414754,-9.362127],[-78.448598,-9.32822],[-78.483957,-9.330255],[-78.526723,-9.269627],[-78.489703,-9.233451],[-78.497411,-9.189538],[-78.53566,-9.172566],[-78.558565,-9.183727],[-78.553107,-9.244182],[-78.611155,-9.176522],[-78.609639,-9.155919],[-78.570567,-9.168327],[-78.559451,-9.128187],[-78.592027,-9.077444],[-78.632426,-9.072459],[-78.628511,-9.013338],[-78.661378,-8.995765],[-78.654772,-8.933333],[-78.7643,-8.775112],[-78.740746,-8.711458],[-78.759328,-8.608327],[-78.819732,-8.528253],[-78.940262,-8.435526],[-78.906557,-8.417899],[-78.902125,-8.376761],[-78.963688,-8.2867],[-78.98574,-8.217421],[-79.124223,-8.08965],[-79.124656,-8.065073],[-79.299713,-7.938653],[-79.465942,-7.715929],[-79.435287,-7.674387],[-79.582509,-7.463637],[-79.588735,-7.41131],[-79.573761,-7.386539],[-79.61276,-7.266392],[-79.697012,-7.178009],[-79.689086,-7.130911],[-79.70824,-7.106777],[-79.931549,-6.883477],[-79.96468,-6.787355],[-80.004547,-6.740899],[-80.298096,-6.544448],[-80.790528,-6.299692],[-81.130811,-6.034561],[-81.15142,-5.975873],[-81.150216,-5.883073],[-81.118854,-5.839907],[-81.096344,-5.838564],[-81.075194,-5.786785],[-81.038279,-5.818103],[-80.939931,-5.850844],[-80.864012,-5.743936],[-80.856212,-5.650462],[-80.931824,-5.463815],[-81.072196,-5.318921],[-81.131606,-5.300402],[-81.198476,-5.208103],[-81.165988,-5.164328],[-81.177822,-5.142861],[-81.162772,-5.072572],[-81.082757,-5.079214],[-81.063355,-5.022043],[-81.085021,-4.974486],[-81.337558,-4.678304],[-81.305253,-4.643568],[-81.307485,-4.534275],[-81.328928,-4.476658],[-81.27953,-4.396417],[-81.293813,-4.31756],[-81.264027,-4.252374],[-81.165639,-4.179376],[-81.110341,-4.107599],[-81.073313,-4.096775],[-80.992909,-3.972101],[-80.867787,-3.872735],[-80.852366,-3.808282],[-80.807607,-3.739435],[-80.613108,-3.615655],[-80.536244,-3.505304],[-80.384511,-3.478692],[-80.340729,-3.393498],[-80.279746,-3.415553],[-80.265664,-3.426405],[-80.271633,-3.485523],[-80.240291,-3.514048],[-80.249981,-3.577713],[-80.224995,-3.591873],[-80.216391,-3.63156],[-80.221636,-3.769433],[-80.165257,-3.890046],[-80.259076,-3.943686],[-80.325506,-4.015413],[-80.427463,-3.981306],[-80.491981,-4.014896],[-80.514073,-4.083419],[-80.469605,-4.21323],[-80.345272,-4.198451],[-80.488545,-4.395958],[-80.483532,-4.433992],[-80.382867,-4.476263],[-80.255407,-4.38676],[-80.205048,-4.298186],[-80.140246,-4.283097],[-80.079655,-4.309038],[-79.982012,-4.38862],[-79.904084,-4.398645],[-79.832874,-4.47895],[-79.795745,-4.484738],[-79.657975,-4.438746],[-79.557775,-4.516571],[-79.507209,-4.531557],[-79.527854,-4.618063],[-79.450572,-4.810196],[-79.39533,-4.84761],[-79.303217,-4.961246],[-79.104159,-4.980057],[-79.063929,-5.011373],[-79.009281,-4.96011],[-78.980342,-4.873965],[-78.910812,-4.863526],[-78.900218,-4.843683],[-78.928614,-4.747461],[-78.898642,-4.694234],[-78.672661,-4.550987],[-78.669793,-4.49342],[-78.637211,-4.435129],[-78.673152,-4.401539],[-78.682428,-4.326918],[-78.57662,-4.100059],[-78.562073,-3.979756],[-78.497633,-3.949577],[-78.480683,-3.849531],[-78.419679,-3.791034],[-78.425854,-3.689438],[-78.40074,-3.679826],[-78.402393,-3.594353],[-78.362938,-3.488727],[-78.350794,-3.389611],[-78.257182,-3.409558],[-78.226306,-3.50702],[-78.163726,-3.477254],[-78.156646,-3.429299],[-78.196411,-3.36367],[-77.941465,-3.054541],[-77.867826,-2.990256],[-76.684591,-2.57364],[-76.625266,-2.537673],[-76.091242,-2.128913],[-75.573031,-1.537321],[-75.412576,-0.923922],[-75.348729,-0.974978],[-75.227497,-0.963093],[-75.252069,-0.93343],[-75.297027,-0.746982],[-75.293978,-0.667917],[-75.255583,-0.624302],[-75.260699,-0.54348],[-75.405625,-0.442401],[-75.452728,-0.360649],[-75.484768,-0.247684],[-75.578974,-0.182675],[-75.619566,-0.180918],[-75.637601,-0.111465],[-75.525747,-0.123247],[-75.45526,-0.161178],[-75.344053,-0.149085],[-75.252534,-0.089554],[-75.206748,-0.029093],[-75.120655,-0.054104],[-75.050737,-0.134306],[-75.015365,-0.140507],[-74.933458,-0.209443],[-74.872712,-0.221949],[-74.824653,-0.170479],[-74.755329,-0.278276],[-74.790701,-0.31259],[-74.718122,-0.327266],[-74.686573,-0.353414],[-74.642313,-0.339771],[-74.562395,-0.439404],[-74.417959,-0.542653],[-74.364888,-0.676185],[-74.385145,-0.72197],[-74.34432,-0.77406],[-74.302798,-0.785429],[-74.28913,-0.836279],[-74.344424,-0.858603],[-74.266754,-0.972291],[-74.119631,-1.02097],[-74.092372,-1.020143],[-74.076895,-0.990894],[-74.037207,-1.079675],[-74.016795,-1.09156],[-73.982792,-1.066239],[-73.981293,-1.107477],[-73.919902,-1.113781],[-73.857167,-1.210519],[-73.802545,-1.223645],[-73.754718,-1.183338],[-73.732368,-1.216514],[-73.63656,-1.255168],[-73.562921,-1.372163],[-73.583437,-1.401722],[-73.574212,-1.416915],[-73.497163,-1.477997],[-73.484528,-1.572461],[-73.51742,-1.60202],[-73.530985,-1.673747],[-73.440086,-1.758703],[-73.387066,-1.760873],[-73.350531,-1.790639],[-73.31658,-1.765421],[-73.267694,-1.772242],[-73.257255,-1.742373],[-73.193021,-1.788675],[-73.193641,-1.836838],[-73.158915,-1.895232],[-73.168733,-1.959311],[-73.111062,-2.073412],[-73.197775,-2.213559],[-73.158915,-2.293037],[-73.098867,-2.314948],[-73.083829,-2.345127],[-73.05644,-2.299858],[-72.987556,-2.337686],[-72.935414,-2.425329],[-72.804673,-2.377787],[-72.761678,-2.402281],[-72.733721,-2.367555],[-72.71243,-2.422125],[-72.683182,-2.404762],[-72.644321,-2.334068],[-72.562982,-2.383058],[-72.441594,-2.405175],[-72.378032,-2.450754],[-72.283826,-2.433184],[-72.281862,-2.405692],[-72.25096,-2.396287],[-72.176391,-2.410343],[-72.061514,-2.320012],[-71.948653,-2.324146],[-71.836205,-2.179762],[-71.746133,-2.132324],[-71.731405,-2.189891],[-71.67854,-2.169531],[-71.538394,-2.222964],[-71.498138,-2.315051],[-71.480568,-2.265752],[-71.456486,-2.255107],[-71.411631,-2.326627],[-71.432147,-2.355152],[-71.42083,-2.37603],[-71.315461,-2.334068],[-71.307607,-2.347814],[-71.253346,-2.326627],[-71.20906,-2.339236],[-71.161931,-2.310194],[-71.14281,-2.262858],[-71.119969,-2.252109],[-71.020622,-2.258931],[-71.03199,-2.210768],[-70.992716,-2.197436],[-70.925253,-2.220277],[-70.904556,-2.211078],[-70.787871,-2.307403],[-70.706584,-2.328281],[-70.647595,-2.450754],[-70.598632,-2.44662],[-70.578607,-2.405485],[-70.484453,-2.452511],[-70.445256,-2.498503],[-70.357535,-2.486927],[-70.349629,-2.518346],[-70.376346,-2.532609],[-70.364615,-2.557621],[-70.295885,-2.5354],[-70.273949,-2.546252],[-70.23607,-2.62511],[-70.183877,-2.619529],[-70.150468,-2.669242],[-70.105794,-2.625213],[-70.050448,-2.714303],[-70.734127,-3.782042],[-70.490886,-3.87847],[-70.438512,-3.867721],[-70.377689,-3.818836],[-70.311104,-3.829274],[-70.216975,-3.924979],[-70.188398,-4.028952],[-70.060499,-4.10719],[-69.992751,-4.180881],[-69.962572,-4.264286],[-69.989392,-4.314619],[-70.050965,-4.337254],[-70.096621,-4.265733],[-70.138892,-4.260462],[-70.205632,-4.342938],[-70.231316,-4.303664],[-70.316711,-4.247026],[-70.311104,-4.170855],[-70.330612,-4.143157],[-70.361437,-4.168168],[-70.429934,-4.134165],[-70.515975,-4.182328],[-70.549694,-4.140676],[-70.585273,-4.194523],[-70.632531,-4.166825],[-70.631059,-4.118972],[-70.646768,-4.115665],[-70.694052,-4.172302],[-70.774254,-4.155042],[-70.832235,-4.179434],[-70.842751,-4.238138],[-70.873705,-4.250747],[-70.968687,-4.385313],[-71.005454,-4.347589],[-71.029329,-4.385829],[-71.081574,-4.364125],[-71.128496,-4.401849],[-71.169682,-4.362782],[-71.214072,-4.410841],[-71.264818,-4.375494],[-71.304609,-4.394924],[-71.315151,-4.439986],[-71.363262,-4.45921],[-71.386982,-4.434922],[-71.477415,-4.440606],[-71.506147,-4.448565],[-71.524596,-4.485151],[-71.617148,-4.500344],[-71.613428,-4.47926],[-71.665207,-4.507579],[-71.699314,-4.481637],[-71.74019,-4.49559],[-71.784838,-4.480501],[-71.800651,-4.502411],[-71.907208,-4.518431],[-72.035521,-4.611862],[-72.071126,-4.605144],[-72.108023,-4.664262],[-72.251063,-4.75883],[-72.331937,-4.763274],[-72.386094,-4.79397],[-72.414671,-4.876342],[-72.476476,-4.90249],[-72.495131,-4.946984],[-72.546446,-4.958249],[-72.614349,-5.009719],[-72.644786,-5.060569],[-72.74757,-5.055091],[-72.772943,-5.081136],[-72.853972,-5.092505],[-72.858933,-5.116069],[-72.917948,-5.132089],[-72.896657,-5.271615],[-72.9735,-5.466125],[-72.960477,-5.559246],[-72.97691,-5.651747],[-73.001353,-5.708798],[-73.140001,-5.878503],[-73.234776,-6.077561],[-73.235293,-6.123656],[-73.177673,-6.202411],[-73.126979,-6.39134],[-73.147804,-6.476193],[-73.233587,-6.564043],[-73.370685,-6.583886],[-73.671958,-6.800721],[-73.759421,-6.887434],[-73.812337,-7.102924],[-73.734539,-7.225088],[-73.713093,-7.304669],[-73.741256,-7.334435],[-73.825851,-7.337432],[-73.902022,-7.373399],[-73.982895,-7.356449],[-73.944319,-7.448743],[-73.971423,-7.523984],[-74.018475,-7.543518],[-73.838796,-7.720561],[-73.712163,-7.788154],[-73.713713,-7.866289],[-73.746114,-7.886443],[-73.794638,-7.874144],[-73.784949,-7.940393],[-73.668031,-8.013773],[-73.60111,-8.136143],[-73.60328,-8.211591],[-73.561733,-8.272672],[-73.540829,-8.359075],[-73.356422,-8.479791],[-73.350583,-8.598337],[-73.289863,-8.670477],[-73.174573,-8.720707],[-73.068636,-8.89372],[-72.976084,-8.985394],[-72.959392,-9.085646],[-72.972001,-9.134428],[-73.027863,-9.183108],[-73.034375,-9.222588],[-73.090237,-9.244189],[-73.214984,-9.409037],[-72.813303,-9.410897],[-72.636518,-9.442937],[-72.535645,-9.481591],[-72.409503,-9.486345],[-72.344546,-9.532854],[-72.312661,-9.532544],[-72.304135,-9.60086],[-72.261657,-9.667419],[-72.277005,-9.724263],[-72.265223,-9.762194],[-72.194736,-9.805809],[-72.162903,-9.877225],[-72.195666,-10.00559],[-71.391426,-10.00683],[-71.339646,-9.979751],[-71.2997,-9.993394],[-71.196502,-9.939857],[-71.144257,-9.863066],[-70.997212,-9.803535],[-70.875488,-9.660494],[-70.680849,-9.527686],[-70.606383,-9.448828],[-70.524993,-9.430948],[-70.54326,-9.493476],[-70.576153,-9.529133],[-70.564525,-9.56541],[-70.624418,-9.565823],[-70.600802,-9.635276],[-70.541865,-9.708244],[-70.56915,-9.779144],[-70.615091,-9.792269],[-70.638448,-9.851801],[-70.641342,-11.0108],[-70.534114,-10.938143],[-70.437272,-11.036741],[-70.391306,-11.059065],[-70.2894,-11.06475],[-70.198734,-11.041185],[-69.956113,-10.919332],[-69.808318,-10.927187],[-69.72021,-10.964911],[-69.577635,-10.952302],[-68.684252,-12.502492],[-68.726059,-12.56595],[-68.793419,-12.62021],[-68.785332,-12.645945],[-68.742957,-12.665789],[-68.766134,-12.710541],[-68.876566,-12.754983],[-68.904627,-12.803972],[-68.926615,-12.800975],[-68.980953,-12.867947],[-68.970747,-13.501449],[-69.023198,-13.596947],[-69.023844,-13.634981],[-69.087587,-13.643869],[-69.101591,-13.666607],[-69.015964,-13.753113],[-69.023095,-13.80603],[-68.992993,-13.869798],[-68.982968,-13.972221],[-68.905764,-14.039297],[-68.864448,-14.191226],[-68.883724,-14.211483],[-69.01015,-14.245899],[-69.01617,-14.32114],[-68.990254,-14.379018],[-69.164275,-14.503041],[-69.170399,-14.577559],[-69.234658,-14.574251],[-69.267628,-14.750675],[-69.370541,-14.801524],[-69.384313,-14.981772],[-69.288583,-15.101971],[-69.1481,-15.233333],[-69.166135,-15.263925],[-69.20913,-15.263615],[-69.222592,-15.302166],[-69.291166,-15.350845],[-69.285921,-15.405415],[-69.343411,-15.442209],[-69.356408,-15.50143],[-69.430021,-15.62628],[-69.219646,-16.15276],[-69.184868,-16.195031],[-69.120815,-16.231205],[-69.053558,-16.208364],[-68.982038,-16.210017],[-68.91876,-16.266655],[-68.843648,-16.302001],[-68.833494,-16.328976],[-68.855844,-16.363186],[-69.001727,-16.422821],[-69.027875,-16.454137],[-69.040122,-16.581364],[-69.008341,-16.634177],[-69.037073,-16.670247],[-69.182362,-16.728745],[-69.224452,-16.818249],[-69.325945,-16.922222],[-69.364314,-16.991158],[-69.413588,-17.022267],[-69.401263,-17.047175],[-69.427437,-17.086863],[-69.510094,-17.112081],[-69.6228,-17.185565],[-69.666492,-17.288298],[-69.597272,-17.300493],[-69.522599,-17.36912],[-69.510089,-17.506588]]],[[[-76.195232,-14.263294],[-76.179585,-14.295208],[-76.220324,-14.274666],[-76.195232,-14.263294]]],[[[-76.443669,-13.830488],[-76.441441,-13.853906],[-76.47025,-13.853856],[-76.456831,-13.822912],[-76.443669,-13.830488]]],[[[-77.232714,-12.065443],[-77.181541,-12.115912],[-77.236668,-12.093345],[-77.25366,-12.063488],[-77.232714,-12.065443]]],[[[-80.84297,-6.381612],[-80.855428,-6.405528],[-80.839584,-6.475246],[-80.863841,-6.475839],[-80.87538,-6.433053],[-80.853135,-6.374988],[-80.84297,-6.381612]]]]}}]}
