{"type":"FeatureCollection","features":[{"type":"Feature","properties":{"name":"Philippines","ISO3166-1-Alpha-3":"PHL","ISO3166-1-Alpha-2":"PH"},"geometry":{"type":"MultiPolygon","coordinates":[[[[120.860688,5.574368],[120.904552,5.538031],[120.897797,5.498521],[120.850841,5.505439],[120.823741,5.533637],[120.824392,5.553209],[120.860688,5.574368]]],[[[121.902354,6.033637],[121.94044,6.046088],[121.943207,6.033637],[121.857677,6.002265],[121.776622,6.077379],[121.902354,6.033637]]],[[[125.79127,6.948188],[125.776866,6.894029],[125.745372,6.936957],[125.717621,7.052232],[125.674083,7.070217],[125.715831,7.19595],[125.781912,7.135199],[125.79127,6.948188]]],[[[122.97169,7.383612],[122.944509,7.389838],[122.950694,7.355699],[122.842052,7.294257],[122.816661,7.294908],[122.800548,7.32095],[122.7942,7.383938],[122.803722,7.417467],[122.82838,7.430813],[122.882986,7.397284],[122.90504,7.43773],[122.97169,7.383612]]],[[[121.252452,9.631171],[121.210948,9.575873],[121.258637,9.644843],[121.252452,9.631171]]],[[[125.990245,9.685736],[125.984141,9.589504],[125.946951,9.56623],[125.952891,9.581977],[125.925059,9.589545],[125.938731,9.603827],[125.915538,9.618964],[125.938731,9.672756],[125.934825,9.759914],[125.97283,9.754625],[125.975434,9.694648],[125.990245,9.685736]]],[[[126.569184,7.301093],[126.617686,7.276842],[126.612315,7.25788],[126.47641,7.06623],[126.466156,7.003119],[126.417491,6.980048],[126.349457,7.000067],[126.309581,6.94892],[126.301768,6.893256],[126.343272,6.849189],[126.33961,6.786526],[126.308849,6.798041],[126.242686,6.919257],[126.191905,6.925116],[126.192556,6.883368],[126.17213,6.903876],[126.207856,6.805894],[126.257172,6.744818],[126.22877,6.616197],[126.200206,6.283189],[126.095063,6.514106],[126.082693,6.639716],[126.095958,6.747219],[126.079112,6.842515],[126.022146,6.866767],[125.983409,6.920885],[125.986501,7.006293],[125.902599,7.101142],[125.850597,7.253892],[125.853201,7.336005],[125.806895,7.351142],[125.668305,7.257025],[125.644379,7.099066],[125.603526,7.054633],[125.509939,7.01557],[125.480642,6.913235],[125.403575,6.811835],[125.377615,6.674221],[125.405528,6.588853],[125.434581,6.588202],[125.43214,6.61579],[125.534516,6.512844],[125.553233,6.524848],[125.589854,6.499172],[125.706554,6.149726],[125.699229,6.040473],[125.667328,5.950141],[125.436371,5.617662],[125.371267,5.572943],[125.30836,5.579576],[125.288259,5.706041],[125.237804,5.727973],[125.181163,5.798326],[125.208995,5.876858],[125.278005,5.979234],[125.280772,6.019355],[125.250743,6.093085],[125.157888,6.108791],[125.088715,5.884711],[125.069102,5.861721],[125.002208,5.871975],[124.963634,5.858588],[124.605805,5.992336],[124.585948,6.022691],[124.201671,6.221747],[124.054942,6.43769],[124.03297,6.542426],[124.055837,6.55272],[124.036632,6.799709],[124.0171,6.808295],[123.997325,6.786078],[123.96518,6.832343],[123.974864,6.965318],[124.02947,7.115139],[124.183767,7.226386],[124.219249,7.279975],[124.220876,7.346584],[124.246755,7.40412],[124.176036,7.415717],[124.065196,7.602729],[123.910899,7.69892],[123.7942,7.710517],[123.703949,7.809394],[123.586925,7.839342],[123.504893,7.831732],[123.444672,7.801337],[123.448253,7.766425],[123.497813,7.708808],[123.485688,7.66356],[123.400076,7.619452],[123.392345,7.575629],[123.362153,7.589057],[123.353526,7.572089],[123.402599,7.492092],[123.451671,7.452541],[123.457774,7.408637],[123.431,7.36872],[123.342133,7.420478],[123.286388,7.482611],[123.280284,7.520209],[123.243826,7.524075],[123.183604,7.480943],[123.140636,7.513129],[123.127615,7.572577],[123.177257,7.589057],[123.186778,7.626207],[123.140391,7.661363],[123.117931,7.74136],[123.050304,7.655097],[123.006602,7.472357],[122.950694,7.486029],[122.917247,7.547512],[122.881684,7.517401],[122.876475,7.475979],[122.822032,7.459418],[122.810313,7.48607],[122.785655,7.491767],[122.79713,7.53559],[122.82838,7.527655],[122.793712,7.671047],[122.814708,7.743354],[122.804373,7.758612],[122.739024,7.754136],[122.704275,7.788316],[122.618663,7.774075],[122.511485,7.695705],[122.443858,7.608588],[122.433604,7.578559],[122.485606,7.578518],[122.46754,7.522854],[122.443614,7.499701],[122.439952,7.541938],[122.347992,7.452541],[122.372569,7.372748],[122.344981,7.331773],[122.300141,7.32095],[122.280447,7.294501],[122.2435,7.09927],[122.15447,6.928127],[122.118663,6.89643],[122.037934,6.917385],[121.937022,6.978949],[121.898936,7.057196],[121.897797,7.140286],[121.933442,7.217922],[122.051036,7.307807],[122.034679,7.36579],[122.069998,7.513658],[122.146007,7.588813],[122.113536,7.603258],[122.122732,7.700385],[122.096528,7.744696],[122.104991,7.770819],[122.25172,7.980129],[122.437999,8.066555],[122.478282,8.061998],[122.638438,8.108547],[122.67921,8.164211],[122.691905,8.131659],[122.735199,8.115465],[122.945323,8.161851],[123.013682,8.232408],[122.964366,8.274359],[122.958181,8.308498],[122.99643,8.342719],[122.992198,8.397203],[123.042003,8.490139],[123.067393,8.514553],[123.195079,8.542222],[123.242035,8.51911],[123.318207,8.533515],[123.371593,8.63345],[123.410655,8.630561],[123.436371,8.649482],[123.397146,8.723212],[123.51295,8.698879],[123.521821,8.622545],[123.567638,8.610093],[123.581309,8.582831],[123.61671,8.670722],[123.633067,8.668443],[123.62908,8.651068],[123.7588,8.607489],[123.844737,8.452216],[123.882986,8.164496],[123.767751,8.059027],[123.684744,8.036811],[123.676443,7.963365],[123.968923,8.167792],[124.23227,8.212877],[124.274669,8.281073],[124.261729,8.32453],[124.321788,8.514553],[124.405772,8.607896],[124.469981,8.624823],[124.480154,8.582831],[124.52589,8.571112],[124.58253,8.520697],[124.657481,8.514553],[124.636485,8.431952],[124.663097,8.475816],[124.712169,8.472968],[124.753184,8.50023],[124.750499,8.5515],[124.773611,8.596422],[124.746349,8.670966],[124.787852,8.733629],[124.781749,8.971137],[124.809418,9.009467],[124.915294,8.994127],[125.034434,8.91177],[125.105968,8.829779],[125.187348,8.875922],[125.195323,8.960883],[125.177745,9.007392],[125.208751,9.086493],[125.269298,9.01557],[125.311778,8.99433],[125.441173,8.980414],[125.516612,9.015937],[125.540701,9.084052],[125.539317,9.206692],[125.466319,9.408352],[125.398692,9.681057],[125.407074,9.73371],[125.459483,9.822943],[125.507091,9.779934],[125.589203,9.754625],[125.610362,9.647895],[125.643565,9.611274],[125.692882,9.603827],[125.685313,9.589545],[125.753673,9.575873],[125.781016,9.54857],[125.848969,9.537177],[125.934093,9.492336],[125.952403,9.45303],[125.97283,9.480292],[125.967459,9.44717],[125.920258,9.426907],[125.910981,9.404934],[125.955821,9.381781],[125.993907,9.397773],[125.996593,9.324652],[126.057953,9.245998],[126.089122,9.240871],[126.2199,9.30565],[126.178966,9.093004],[126.217052,9.072496],[126.312755,8.956244],[126.34547,8.853258],[126.300059,8.768297],[126.234141,8.733629],[126.254568,8.685207],[126.197765,8.6883],[126.138438,8.654039],[126.110525,8.607123],[126.158458,8.527574],[126.22877,8.52147],[126.240245,8.527574],[126.22047,8.555487],[126.370128,8.541815],[126.405284,8.492621],[126.411632,8.466132],[126.370128,8.455552],[126.380056,8.395575],[126.33253,8.347073],[126.388438,8.292914],[126.338634,8.214586],[126.361583,8.187161],[126.459321,8.24018],[126.466156,8.095526],[126.431488,8.0456],[126.453136,7.980129],[126.395518,7.933336],[126.383067,7.885688],[126.406098,7.833238],[126.487478,7.746731],[126.582856,7.719428],[126.569184,7.62637],[126.608653,7.465318],[126.566417,7.426011],[126.589692,7.389838],[126.569184,7.301093]]],[[[125.295095,9.970649],[125.304942,9.932807],[125.273936,9.919135],[125.198741,10.035834],[125.145763,10.070705],[125.125824,10.129828],[125.137462,10.165513],[125.229259,10.121161],[125.253429,10.035834],[125.295095,9.970649]]],[[[124.379731,10.691311],[124.378429,10.628323],[124.300629,10.590074],[124.284353,10.603827],[124.327647,10.704006],[124.355479,10.710639],[124.379731,10.691311]]],[[[124.465831,10.713609],[124.520681,10.665758],[124.5088,10.641547],[124.462413,10.631049],[124.40919,10.648261],[124.408458,10.683824],[124.435557,10.713609],[124.465831,10.713609]]],[[[125.822032,10.734687],[125.826915,10.70893],[125.769379,10.700385],[125.684093,10.752753],[125.687266,10.805162],[125.731456,10.808051],[125.760509,10.740953],[125.822032,10.734687]]],[[[119.632091,11.069892],[119.64796,11.015286],[119.613129,11.00845],[119.579763,11.045966],[119.579763,11.097846],[119.632091,11.069892]]],[[[119.613129,11.200263],[119.627696,11.173041],[119.570079,11.144355],[119.572927,11.179145],[119.613129,11.200263]]],[[[124.59962,11.563381],[124.625011,11.532701],[124.609141,11.486558],[124.486339,11.488227],[124.472667,11.473944],[124.413259,11.546454],[124.349132,11.68008],[124.430919,11.695054],[124.523204,11.686265],[124.556,11.660224],[124.59962,11.563381]]],[[[124.815196,11.63227],[124.856212,11.604926],[124.831554,11.536322],[124.808767,11.577338],[124.787852,11.570217],[124.776052,11.629828],[124.740571,11.650621],[124.722423,11.693264],[124.732677,11.721625],[124.789399,11.684882],[124.815196,11.63227]]],[[[122.297211,18.403876],[122.324962,18.336615],[122.306977,18.251288],[122.16977,18.100491],[122.183442,17.984361],[122.135753,17.737291],[122.156261,17.706936],[122.162934,17.593329],[122.239594,17.426825],[122.25115,17.360175],[122.313731,17.340074],[122.365408,17.353746],[122.402599,17.305976],[122.397797,17.329088],[122.414561,17.319078],[122.443614,17.265611],[122.409434,17.275214],[122.41684,17.145819],[122.45102,17.114163],[122.500987,17.139797],[122.529063,17.090522],[122.472911,16.989691],[122.464692,16.895087],[122.422699,16.794338],[122.300141,16.565497],[122.23878,16.504055],[122.204275,16.43476],[122.217621,16.394761],[122.231944,16.415269],[122.197113,16.291693],[122.231944,16.319037],[122.203868,16.236518],[122.177257,16.230292],[122.076996,16.132717],[122.059255,16.077786],[121.997895,16.031073],[122.033458,16.117133],[122.081065,16.148383],[122.101573,16.20775],[122.132579,16.225491],[122.135265,16.260728],[122.087413,16.255316],[122.050548,16.180854],[121.868175,16.120429],[121.829926,16.090399],[121.752289,16.07689],[121.567393,15.915717],[121.554861,15.828925],[121.574555,15.774359],[121.631847,15.757025],[121.642263,15.736884],[121.594493,15.67475],[121.629161,15.661119],[121.573741,15.627265],[121.561534,15.591376],[121.495616,15.532457],[121.472911,15.43769],[121.42628,15.373765],[121.389903,15.377875],[121.391124,15.266262],[121.481456,15.182522],[121.508149,15.062812],[121.615001,14.87287],[121.594493,14.859198],[121.724946,14.73078],[121.613943,14.689887],[121.608165,14.630194],[121.662446,14.417385],[121.734711,14.328681],[121.731619,14.280422],[121.758962,14.246568],[121.731619,14.188218],[121.93629,13.995185],[122.231944,13.90644],[122.222016,13.952094],[122.183442,13.988959],[122.293305,13.97012],[122.313731,14.016303],[122.208669,14.087633],[122.162934,14.167792],[122.183442,14.146674],[122.195567,14.183783],[122.244395,14.196031],[122.25172,14.250312],[122.263682,14.247382],[122.259288,14.188218],[122.273204,14.132514],[122.298513,14.12934],[122.300141,14.092027],[122.345714,14.131334],[122.331309,14.200263],[122.355479,14.195054],[122.347992,14.222357],[122.376801,14.228502],[122.366222,14.261461],[122.41627,14.324774],[122.483165,14.346666],[122.519298,14.324774],[122.505056,14.345893],[122.527843,14.3487],[122.601248,14.324774],[122.604666,14.301256],[122.622325,14.311184],[122.644298,14.284735],[122.690684,14.291246],[122.679861,14.350531],[122.704275,14.345893],[122.72169,14.315741],[122.752696,14.332221],[122.802582,14.287177],[122.873302,14.265204],[122.903087,14.211249],[122.930837,14.20185],[123.012218,14.105699],[123.042247,14.098049],[123.033214,14.023139],[123.081554,13.988959],[123.08839,13.901435],[123.055919,13.861314],[123.049815,13.775824],[123.108246,13.722113],[123.224946,13.731147],[123.301768,13.789455],[123.314952,13.820543],[123.280284,13.90644],[123.325531,13.940009],[123.33546,13.982164],[123.29005,13.934556],[123.23463,13.963813],[123.21811,13.992743],[123.254242,14.013739],[123.23878,14.023139],[123.259044,14.031195],[123.252289,14.068101],[123.314301,14.051093],[123.300792,14.071519],[123.33546,14.071519],[123.331798,14.099514],[123.362153,14.043606],[123.345388,14.039537],[123.346446,14.016303],[123.390147,14.03734],[123.375824,14.010077],[123.396251,14.010077],[123.417328,13.90644],[123.444672,13.961656],[123.477794,13.950507],[123.492524,13.920722],[123.538829,13.924954],[123.681407,13.88467],[123.711681,13.934394],[123.804047,13.837633],[123.937755,13.784003],[123.968761,13.740058],[123.965505,13.714667],[123.937511,13.742621],[123.924571,13.728949],[123.859386,13.742621],[123.797374,13.687974],[123.742931,13.710435],[123.666677,13.718329],[123.64796,13.703559],[123.570486,13.722968],[123.526622,13.606024],[123.536306,13.5633],[123.560802,13.571234],[123.605479,13.516669],[123.667247,13.485582],[123.725352,13.409898],[123.743419,13.340318],[123.794607,13.308417],[123.821544,13.242906],[123.836192,13.25609],[123.855642,13.228664],[123.767589,13.224311],[123.749522,13.154731],[123.770193,13.110785],[123.745779,13.092108],[123.745779,13.064154],[123.797699,13.055162],[123.882986,13.146064],[123.992361,13.09162],[124.081554,13.009508],[124.116222,13.074408],[124.184581,13.057318],[124.185802,13.020819],[124.153005,13.001288],[124.116222,12.916449],[124.142833,12.814399],[124.129405,12.677191],[124.08839,12.628811],[124.095225,12.557074],[124.054942,12.537258],[123.983165,12.54678],[123.93336,12.622219],[123.878591,12.645209],[123.84254,12.716213],[123.842052,12.801215],[123.79363,12.831448],[123.838715,12.839301],[123.863048,12.872382],[123.906749,12.84162],[123.94044,12.848293],[123.958832,12.880032],[124.002452,12.879706],[124.029307,12.91177],[124.025157,12.955308],[123.893403,12.974799],[123.839366,12.88817],[123.783946,12.864936],[123.763194,12.878607],[123.725352,12.84512],[123.711681,12.872382],[123.732677,12.889879],[123.690115,12.888739],[123.698009,12.864936],[123.677257,12.884182],[123.698253,12.930894],[123.668468,12.92414],[123.648936,12.886298],[123.605154,12.89289],[123.503103,12.96483],[123.441254,13.036851],[123.38502,13.044094],[123.310069,13.012356],[123.278982,13.120185],[123.300792,13.2355],[123.190929,13.359036],[123.197032,13.386542],[123.168793,13.449205],[122.972016,13.527533],[122.859141,13.606106],[122.814708,13.653795],[122.862559,13.69477],[122.752696,13.783596],[122.771495,13.790961],[122.753103,13.810492],[122.653168,13.826077],[122.653005,13.862372],[122.536876,13.961127],[122.51588,13.934394],[122.41627,13.961656],[122.413097,13.948065],[122.509613,13.820014],[122.512462,13.735785],[122.490571,13.740627],[122.485525,13.721625],[122.497569,13.652045],[122.635997,13.537095],[122.632335,13.520697],[122.567149,13.56387],[122.654307,13.440416],[122.672699,13.379299],[122.690684,13.228664],[122.588145,13.174018],[122.505056,13.239203],[122.519298,13.310614],[122.50115,13.368069],[122.369477,13.549791],[122.319021,13.592231],[122.258556,13.592027],[122.259288,13.606024],[122.194021,13.622789],[122.118419,13.752102],[122.059906,13.804633],[122.053722,13.785142],[121.989431,13.810045],[121.827159,13.899726],[121.786306,13.948676],[121.724864,13.969143],[121.689952,13.925971],[121.48463,13.851793],[121.433442,13.796373],[121.43629,13.700995],[121.464122,13.69477],[121.430024,13.656928],[121.374766,13.667467],[121.278819,13.595038],[121.158702,13.639472],[121.080414,13.619086],[121.03891,13.632758],[121.053477,13.722113],[121.039806,13.758694],[121.003754,13.780911],[120.980968,13.780463],[120.887462,13.693508],[120.880707,13.716864],[120.929047,13.783596],[120.90919,13.804633],[120.912364,13.881781],[120.87672,13.912258],[120.704845,13.927436],[120.722911,13.855414],[120.662283,13.85928],[120.669688,13.786933],[120.649669,13.784247],[120.628103,13.810858],[120.601329,13.969143],[120.634776,13.991604],[120.617442,14.01789],[120.619477,14.104234],[120.580333,14.133002],[120.597423,14.156928],[120.573497,14.174547],[120.601329,14.181383],[120.58725,14.200263],[120.627452,14.269599],[120.713145,14.298529],[120.87794,14.458889],[120.926117,14.464667],[120.970388,14.501899],[120.984386,14.534003],[120.943126,14.65351],[120.902354,14.71894],[120.840587,14.761217],[120.6421,14.787014],[120.621267,14.87287],[120.621267,14.831855],[120.593923,14.818264],[120.605724,14.884833],[120.585704,14.902818],[120.573497,14.838772],[120.552745,14.849921],[120.545177,14.836859],[120.536469,14.723212],[120.582205,14.648261],[120.58839,14.466986],[120.564626,14.44123],[120.491466,14.442084],[120.467052,14.421047],[120.40211,14.455756],[120.382009,14.480292],[120.367361,14.620754],[120.285411,14.653754],[120.242361,14.729641],[120.272634,14.747056],[120.243907,14.767035],[120.292247,14.82567],[120.209321,14.880032],[120.175548,14.757392],[120.127778,14.767035],[120.079926,14.803941],[120.100434,14.82567],[120.079926,14.818264],[120.056651,14.893256],[120.052989,15.062445],[120.002452,15.219672],[120.005138,15.269436],[119.888194,15.429023],[119.908702,15.452297],[119.901866,15.482978],[119.940929,15.475775],[119.963878,15.51435],[119.904307,15.597073],[119.919688,15.690334],[119.867198,15.743069],[119.894054,15.763902],[119.89503,15.87401],[119.854015,15.949164],[119.828298,15.955715],[119.770844,15.914984],[119.75587,15.944566],[119.778331,16.137844],[119.755707,16.203437],[119.801931,16.357856],[119.870291,16.385403],[119.916352,16.380845],[119.925792,16.34512],[119.901866,16.2508],[120.087738,16.157213],[120.105642,16.069648],[120.138845,16.046129],[120.208507,16.03266],[120.292247,16.055609],[120.306651,16.044664],[120.299083,16.017401],[120.333832,16.058987],[120.363292,16.055487],[120.361013,16.073188],[120.326427,16.065823],[120.329356,16.079495],[120.40211,16.165473],[120.397472,16.22899],[120.35377,16.291693],[120.35377,16.271308],[120.336274,16.292182],[120.299083,16.493801],[120.306651,16.544989],[120.276134,16.611884],[120.306651,16.613918],[120.325938,16.712592],[120.319591,16.819322],[120.427257,16.9619],[120.43629,17.008002],[120.40211,17.206692],[120.408214,17.322699],[120.443696,17.388495],[120.40211,17.518866],[120.340831,17.538764],[120.333832,17.556383],[120.353201,17.678127],[120.412446,17.712836],[120.416352,17.744778],[120.391287,17.78144],[120.427908,17.838121],[120.427908,17.916653],[120.477224,18.004828],[120.470063,18.09101],[120.579112,18.325141],[120.57016,18.501776],[120.611095,18.53856],[120.690684,18.53441],[120.770844,18.561469],[120.778982,18.621812],[120.812999,18.644517],[120.850841,18.638861],[120.891856,18.579901],[120.926931,18.56623],[121.106781,18.642727],[121.170665,18.625474],[121.266287,18.554877],[121.592052,18.384711],[121.649669,18.313951],[121.634613,18.33454],[121.64503,18.369452],[121.852794,18.287991],[121.986827,18.290432],[122.119314,18.403022],[122.152843,18.518785],[122.235362,18.515367],[122.25172,18.443061],[122.297211,18.403876]]],[[[120.251964,5.266506],[120.216563,5.114976],[120.184581,5.136461],[120.182384,5.204413],[120.145518,5.183295],[120.120942,5.218004],[120.100434,5.156643],[120.025401,5.160549],[120.004893,5.128648],[119.980479,5.126451],[119.954112,5.075507],[119.922374,5.087714],[119.891612,5.059801],[119.819347,5.059801],[119.821788,5.130561],[119.942719,5.190131],[119.964854,5.222602],[120.086925,5.258979],[120.097423,5.290025],[120.187836,5.34512],[120.214366,5.340237],[120.220225,5.269599],[120.251964,5.266506]]],[[[120.588145,6.380764],[120.60434,6.329657],[120.577322,6.251532],[120.545584,6.238471],[120.49464,6.249335],[120.492035,6.267401],[120.522146,6.277248],[120.588145,6.380764]]],[[[122.296723,6.633246],[122.335216,6.603339],[122.235362,6.571194],[122.18865,6.451077],[121.96225,6.404853],[121.950043,6.444525],[121.880056,6.503241],[121.875011,6.574856],[121.814464,6.592922],[121.806814,6.619289],[121.822032,6.660956],[121.940196,6.677314],[122.023123,6.73664],[122.066661,6.740709],[122.296723,6.633246]]],[[[118.537608,7.006293],[118.520518,7.013373],[118.530772,6.978949],[118.503103,6.971422],[118.44516,6.982327],[118.427257,7.018215],[118.510265,7.047187],[118.537608,7.006293]]],[[[117.084972,8.057847],[117.091563,8.011542],[117.071544,7.99315],[117.086762,7.872138],[117.023692,7.821845],[117.03419,7.804633],[117.009939,7.800279],[116.955821,7.921088],[116.961681,8.061998],[116.982188,8.027289],[117.013194,8.061998],[117.084972,8.057847]]],[[[117.030528,8.068264],[116.99586,8.103013],[117.045421,8.13581],[117.068126,8.086249],[117.030528,8.068264]]],[[[117.167735,8.178127],[117.20574,8.155504],[117.161794,8.156724],[117.154796,8.180406],[117.167735,8.178127]]],[[[117.32545,8.32274],[117.355317,8.30272],[117.359548,8.219062],[117.289724,8.184312],[117.27003,8.267524],[117.279633,8.311103],[117.32545,8.32274]]],[[[117.242849,8.315253],[117.260753,8.321112],[117.263927,8.301011],[117.190115,8.26203],[117.181407,8.287991],[117.242849,8.343207],[117.242849,8.315253]]],[[[124.78419,9.199774],[124.80836,9.156806],[124.80128,9.096259],[124.770193,9.077379],[124.67213,9.125393],[124.636485,9.182359],[124.646739,9.218899],[124.708507,9.25019],[124.746349,9.239488],[124.78419,9.199774]]],[[[123.698009,9.165025],[123.722423,9.149115],[123.703298,9.128363],[123.653005,9.122952],[123.632335,9.098334],[123.561209,9.114244],[123.471202,9.185452],[123.500011,9.220282],[123.564952,9.226142],[123.614431,9.289252],[123.6421,9.293647],[123.703868,9.233303],[123.683767,9.199693],[123.698009,9.165025]]],[[[126.165863,9.829169],[126.178233,9.787828],[126.120128,9.758938],[126.041677,9.775133],[126.048595,9.754625],[125.993907,9.836615],[125.965994,9.850246],[126.014415,9.864488],[125.983409,9.901801],[126.071462,10.059068],[126.13795,9.901923],[126.110606,9.857082],[126.165863,9.829169]]],[[[124.565278,9.870754],[124.549815,9.861558],[124.624034,9.801825],[124.596202,9.737291],[124.520356,9.740383],[124.499848,9.768297],[124.429454,9.715033],[124.410492,9.658433],[124.2942,9.606757],[124.065196,9.595404],[123.937511,9.617499],[123.871755,9.645006],[123.863048,9.734198],[123.807872,9.739976],[123.801036,9.757758],[123.82838,9.842841],[123.886078,9.914862],[124.050792,9.979315],[124.075206,10.048326],[124.115896,10.065253],[124.116222,10.08983],[124.167166,10.137437],[124.222667,10.151923],[124.331309,10.161526],[124.355968,10.110297],[124.396821,10.151923],[124.419119,10.106757],[124.577647,10.033922],[124.584239,9.980943],[124.568696,9.987454],[124.556163,9.925686],[124.584646,9.877672],[124.565278,9.870754]]],[[[125.719574,9.911689],[125.699474,9.874254],[125.663585,9.889146],[125.658051,9.939032],[125.620616,9.955227],[125.617198,9.993598],[125.583181,10.009711],[125.59669,10.05565],[125.608409,10.043606],[125.617198,10.059068],[125.59669,10.08983],[125.521007,10.062567],[125.495291,10.10871],[125.514171,10.207099],[125.542003,10.199693],[125.522146,10.316962],[125.562511,10.330797],[125.562511,10.378485],[125.610362,10.370998],[125.637706,10.460395],[125.6574,10.456448],[125.684825,10.399888],[125.661388,10.270575],[125.637706,10.248114],[125.668142,10.214667],[125.656505,10.176337],[125.685313,10.172349],[125.676768,10.127672],[125.706554,10.069322],[125.681977,10.021552],[125.681488,9.958075],[125.719574,9.911689]]],[[[119.950206,10.603746],[120.011241,10.565253],[119.984141,10.531317],[119.950206,10.535468],[119.942719,10.515041],[119.908702,10.555976],[119.914887,10.480862],[119.821625,10.448554],[119.788585,10.456977],[119.778331,10.535468],[119.752615,10.539781],[119.837901,10.637519],[119.950206,10.603746]]],[[[122.711111,10.734687],[122.737966,10.694159],[122.737071,10.640041],[122.68686,10.506008],[122.634451,10.444241],[122.594981,10.433051],[122.594493,10.459703],[122.536632,10.41942],[122.519298,10.474066],[122.482432,10.503363],[122.516856,10.509101],[122.553477,10.54914],[122.527354,10.570136],[122.536632,10.607489],[122.574555,10.665839],[122.62322,10.684475],[122.670177,10.76203],[122.711111,10.734687]]],[[[123.574474,10.830959],[123.570811,10.779242],[123.516856,10.680976],[123.485688,10.54914],[123.389659,10.437161],[123.344737,10.347968],[123.340343,10.260688],[123.290375,10.093573],[123.156749,9.867621],[123.170421,9.69599],[123.135427,9.618354],[123.177419,9.589911],[123.170421,9.562893],[123.161143,9.583808],[123.135509,9.55268],[123.180919,9.537421],[123.197602,9.487128],[123.251475,9.443996],[123.267263,9.398342],[123.321137,9.343166],[123.317638,9.256903],[123.230154,9.107611],[123.160981,9.06566],[123.033214,9.035305],[122.957693,9.081244],[122.892589,9.221015],[122.880544,9.305854],[122.8449,9.347073],[122.657237,9.401435],[122.599457,9.432685],[122.551768,9.490953],[122.496593,9.561713],[122.461436,9.65526],[122.443614,9.672756],[122.423106,9.658433],[122.430431,9.71369],[122.402599,9.699408],[122.409841,9.808539],[122.395193,9.842841],[122.47462,9.974351],[122.560313,9.987454],[122.642833,9.966946],[122.707774,9.986396],[122.782237,10.052965],[122.8449,10.067288],[122.872813,10.100409],[122.855317,10.228013],[122.869395,10.350531],[122.814708,10.515041],[122.910411,10.597561],[122.97169,10.721096],[122.97169,10.806098],[122.952159,10.847724],[122.993826,10.906724],[123.087738,10.92593],[123.213552,10.996405],[123.259776,10.994818],[123.341807,10.946357],[123.403575,10.953192],[123.405447,10.919827],[123.445649,10.942288],[123.521821,10.919908],[123.574474,10.830959]]],[[[124.047374,10.834052],[124.020763,10.747748],[124.054942,10.590074],[124.033865,10.576483],[124.04005,10.484361],[124.014903,10.372463],[123.992849,10.357367],[123.979666,10.377183],[123.972911,10.326606],[123.889659,10.282213],[123.868663,10.248196],[123.79363,10.226467],[123.719493,10.156806],[123.696137,10.093899],[123.652599,10.063625],[123.62908,9.887519],[123.601817,9.867621],[123.479503,9.54857],[123.36964,9.425727],[123.327647,9.408149],[123.314301,9.507636],[123.365245,9.785346],[123.40919,9.897691],[123.410655,9.922553],[123.383311,9.942694],[123.387055,9.973782],[123.410655,9.974351],[123.422537,10.037502],[123.507986,10.122219],[123.605479,10.333157],[123.723155,10.494208],[123.719086,10.54914],[123.849294,10.752631],[123.934581,10.970445],[123.917735,11.028957],[123.945079,11.097846],[123.972911,11.077338],[123.958751,11.17593],[124.045665,11.277167],[124.074718,11.26911],[124.068126,11.233344],[124.04127,11.130113],[123.999522,11.077338],[124.0171,11.05622],[124.054942,11.063666],[124.068533,10.878119],[124.047374,10.834052]]],[[[123.801036,11.179145],[123.814952,11.148017],[123.745779,11.138821],[123.733653,11.154283],[123.704845,11.241197],[123.745779,11.292467],[123.801036,11.179145]]],[[[119.671886,10.552558],[119.725352,10.518622],[119.575857,10.38052],[119.463064,10.378485],[119.378266,10.344143],[119.285981,10.261379],[119.1963,10.056342],[118.774181,9.934149],[118.750499,9.887519],[118.784679,9.788235],[118.777843,9.734198],[118.735606,9.743476],[118.729666,9.780422],[118.700938,9.775539],[118.716319,9.692572],[118.742931,9.696845],[118.756358,9.66767],[118.729991,9.665269],[118.695323,9.57807],[118.6692,9.569973],[118.497895,9.313666],[118.430837,9.273179],[118.365001,9.193061],[118.136974,9.130845],[118.113048,9.048977],[118.09547,9.045966],[118.013682,8.8876],[117.910411,8.829739],[117.755382,8.690172],[117.565603,8.661078],[117.558116,8.596422],[117.512869,8.506781],[117.472179,8.513821],[117.344981,8.471259],[117.190766,8.338324],[117.263927,8.610093],[117.279959,8.604967],[117.375987,8.746812],[117.435557,8.773139],[117.519786,8.899726],[117.622732,8.991848],[117.655528,9.057929],[117.71225,9.08161],[117.729503,9.064154],[117.761892,9.077948],[117.784028,9.151353],[117.866466,9.203599],[117.90447,9.261217],[117.989513,9.267401],[118.003184,9.233303],[118.133556,9.343166],[118.133556,9.384711],[118.192882,9.42182],[118.216319,9.477973],[118.332774,9.586412],[118.360118,9.658433],[118.420258,9.680732],[118.530528,9.774237],[118.667979,9.974351],[118.656505,9.996161],[118.722504,10.035834],[118.771658,10.130805],[118.76295,10.069241],[118.77947,10.056301],[118.801117,10.049018],[118.832367,10.083645],[118.815766,10.18891],[118.933604,10.209662],[118.958344,10.235256],[118.949718,10.282213],[119.02475,10.309556],[119.033946,10.349351],[118.984386,10.344062],[118.97641,10.357367],[119.001964,10.397528],[119.072032,10.391506],[119.084321,10.422797],[119.1067,10.425605],[119.085704,10.46662],[119.120372,10.487738],[119.135265,10.388129],[119.229991,10.485419],[119.278087,10.508205],[119.250743,10.555976],[119.290782,10.557685],[119.319102,10.590074],[119.344981,10.723578],[119.316905,10.772691],[119.273936,10.771674],[119.266124,10.826606],[119.223399,10.850816],[119.257579,10.891099],[119.222504,10.941718],[119.291677,10.932685],[119.278087,10.874945],[119.312836,10.878119],[119.305837,10.857123],[119.333263,10.823472],[119.346934,10.830959],[119.404959,10.762356],[119.418712,10.769924],[119.445079,10.727484],[119.46754,10.732652],[119.439708,10.796047],[119.456798,10.830959],[119.355235,10.877753],[119.360606,10.932685],[119.324718,10.933498],[119.319998,11.000881],[119.325938,11.022773],[119.360606,11.000963],[119.327403,11.064439],[119.334972,11.102932],[119.377289,11.05622],[119.415294,11.05622],[119.43214,11.122219],[119.38795,11.186591],[119.428966,11.227525],[119.425548,11.313544],[119.473806,11.357856],[119.501964,11.423326],[119.52296,11.339911],[119.538829,11.323717],[119.552419,11.337388],[119.567068,11.301418],[119.561046,11.220282],[119.516368,11.117499],[119.572439,11.015326],[119.559255,11.000963],[119.517589,11.011868],[119.504568,10.884955],[119.531586,10.81981],[119.593435,10.837144],[119.602712,10.824408],[119.590831,10.672431],[119.653575,10.675116],[119.668468,10.652167],[119.634451,10.652167],[119.671886,10.552558]]],[[[119.867198,11.51557],[119.869802,11.440619],[119.832856,11.378363],[119.820567,11.399604],[119.832856,11.426174],[119.795421,11.43301],[119.770844,11.406317],[119.716156,11.460354],[119.728689,11.478013],[119.770844,11.440416],[119.785167,11.494452],[119.832856,11.460354],[119.844493,11.490668],[119.82602,11.508734],[119.867198,11.51557]]],[[[125.273936,10.323188],[125.26002,10.261054],[125.14088,10.278795],[125.151052,10.185452],[125.088552,10.22899],[125.041759,10.364203],[124.990977,10.381334],[124.979747,10.364203],[125.000173,10.199693],[125.042247,10.049018],[125.031749,10.02025],[124.882823,10.134955],[124.780447,10.151923],[124.765798,10.18594],[124.792247,10.32567],[124.735606,10.420315],[124.800955,10.67829],[124.778819,10.821438],[124.622325,11.002021],[124.549571,10.983303],[124.562755,10.931464],[124.514496,10.873684],[124.446951,10.903144],[124.43686,10.935207],[124.396007,10.934068],[124.417979,11.000963],[124.388438,11.065863],[124.417979,11.128567],[124.404307,11.30268],[124.354747,11.328681],[124.370291,11.374945],[124.334727,11.392035],[124.348481,11.399115],[124.311371,11.466783],[124.300629,11.542873],[124.340099,11.551011],[124.480154,11.385199],[124.489594,11.446682],[124.503266,11.443834],[124.545258,11.409003],[124.594249,11.319525],[124.629893,11.304429],[124.744395,11.328559],[124.845714,11.43301],[124.938162,11.419989],[124.976329,11.392035],[124.973969,11.277086],[125.019379,11.25259],[125.023448,11.227932],[125.041759,11.248033],[125.027599,11.176011],[125.053071,10.968207],[125.012869,10.844672],[125.013845,10.754584],[125.120291,10.70307],[125.130544,10.665839],[125.194102,10.602973],[125.198741,10.433051],[125.232188,10.386868],[125.246593,10.398342],[125.259125,10.383205],[125.273936,10.323188]]],[[[123.170421,11.48078],[123.160411,11.380439],[123.125662,11.344875],[123.113536,11.266669],[123.131358,11.182685],[123.108246,11.151801],[123.04127,11.163398],[123.028331,11.109849],[122.950694,11.035793],[122.938243,11.063666],[122.924571,11.028957],[122.889903,11.035793],[122.862559,11.015286],[122.862559,11.028957],[122.789317,10.97606],[122.798025,10.875434],[122.744802,10.79564],[122.694102,10.802965],[122.630626,10.774359],[122.589854,10.698717],[122.226573,10.642239],[122.101817,10.569322],[122.015798,10.445461],[121.949718,10.433173],[121.929698,10.46662],[121.932465,10.508694],[121.984874,10.647284],[121.978038,10.710191],[121.937022,10.775702],[121.978038,10.905463],[122.045095,11.017401],[122.041759,11.300442],[122.066091,11.360175],[122.107188,11.657945],[122.084483,11.724677],[121.853852,11.769436],[121.889008,11.819281],[121.896821,11.893785],[121.963715,11.933905],[122.094412,11.834662],[122.228689,11.79975],[122.322113,11.742255],[122.377208,11.733222],[122.512462,11.59809],[122.588145,11.563381],[122.622325,11.508734],[122.65447,11.526068],[122.660411,11.568752],[122.704275,11.542873],[122.695649,11.561347],[122.730805,11.592231],[122.724783,11.611762],[122.830333,11.605292],[122.874848,11.547919],[122.944509,11.522406],[122.875824,11.465644],[122.87615,11.447252],[122.900727,11.437934],[123.08961,11.52969],[123.163585,11.59809],[123.164399,11.537991],[123.122081,11.508734],[123.149913,11.494452],[123.140391,11.479315],[123.170421,11.48078]]],[[[120.02475,11.892971],[120.083263,11.860419],[120.050059,11.854315],[120.039073,11.816596],[120.079926,11.789252],[120.052582,11.761949],[120.067068,11.741767],[120.047048,11.70893],[119.96697,11.664374],[119.956391,11.734687],[119.984386,11.714179],[119.977061,11.741441],[120.004893,11.782538],[119.977061,11.796088],[119.959239,11.765855],[119.92921,11.77558],[119.901866,11.824042],[119.922374,11.837714],[119.874522,11.892971],[119.854015,11.954413],[119.891612,11.940131],[119.919688,11.981513],[119.959321,11.929999],[120.031423,11.924465],[120.003103,11.910061],[120.02475,11.892971]]],[[[120.347504,12.029486],[120.349132,12.007025],[120.326427,11.995307],[120.274913,12.003404],[120.237641,11.987942],[120.1421,12.029486],[120.134613,11.97484],[120.114106,11.967434],[120.082286,12.001532],[120.00115,12.011176],[119.942393,12.087144],[119.89503,12.207668],[119.860362,12.159166],[119.847667,12.166734],[119.872325,12.251695],[119.922374,12.276516],[119.880707,12.269029],[119.88502,12.322699],[119.926931,12.316474],[119.935883,12.276516],[120.004893,12.262885],[120.079926,12.200832],[120.114106,12.193996],[120.094249,12.166653],[120.196056,12.112006],[120.223969,12.125678],[120.229747,12.218655],[120.258311,12.131781],[120.286388,12.135443],[120.342133,12.080756],[120.3449,12.05329],[120.315196,12.023179],[120.347504,12.029486]]],[[[122.687511,12.402818],[122.670177,12.317532],[122.611827,12.276516],[122.553477,12.317532],[122.511974,12.377631],[122.431895,12.409735],[122.423025,12.462877],[122.48113,12.493354],[122.632091,12.484524],[122.687511,12.402818]]],[[[125.712738,11.148749],[125.779633,11.052395],[125.760509,11.022773],[125.719574,11.049465],[125.706065,11.116767],[125.651541,11.1494],[125.600108,11.118313],[125.563813,11.156806],[125.538341,11.145657],[125.527843,11.090399],[125.469737,11.128567],[125.424653,11.090399],[125.416515,11.116604],[125.397472,11.104682],[125.317068,11.149563],[125.275727,11.135647],[125.246837,11.09219],[125.218923,11.118069],[125.198741,11.227525],[125.172374,11.265204],[125.000987,11.289781],[125.007009,11.426174],[124.937999,11.462795],[124.911469,11.501899],[124.887462,11.465522],[124.85613,11.473049],[124.828298,11.508734],[124.900076,11.548774],[124.89031,11.570217],[124.948741,11.570217],[124.977794,11.59276],[125.000173,11.624823],[124.996755,11.683417],[125.034434,11.727851],[125.055431,11.714179],[125.043712,11.757758],[125.003591,11.77558],[124.928233,11.741441],[124.892426,11.761461],[124.833507,11.845364],[124.794119,11.85814],[124.807872,11.899115],[124.828298,11.885443],[124.823985,11.905829],[124.794932,11.916449],[124.761078,11.901313],[124.762055,11.929023],[124.739513,11.926459],[124.729259,11.977973],[124.679861,12.029731],[124.569347,12.050849],[124.493175,12.097805],[124.390798,12.221869],[124.276215,12.533271],[124.283458,12.570624],[124.305024,12.582994],[124.363048,12.543606],[124.407481,12.557074],[124.536794,12.522528],[124.67921,12.515937],[124.877208,12.533393],[124.895518,12.554267],[124.87672,12.591254],[124.928233,12.557074],[124.973399,12.576321],[125.049571,12.529364],[125.091807,12.547349],[125.109141,12.579291],[125.16627,12.578111],[125.272146,12.49901],[125.34962,12.3994],[125.312836,12.366685],[125.307872,12.341864],[125.329112,12.323676],[125.314789,12.296373],[125.356456,12.317532],[125.34962,12.289537],[125.390636,12.30386],[125.384451,12.28498],[125.43214,12.282701],[125.500499,12.248603],[125.538259,12.183498],[125.47934,12.166653],[125.507335,12.146186],[125.459483,12.125678],[125.457367,12.107082],[125.500499,12.10456],[125.493663,12.090969],[125.525157,12.056952],[125.445811,11.947333],[125.459483,11.830268],[125.493663,11.790229],[125.483735,11.77619],[125.457205,11.785712],[125.450206,11.750434],[125.481619,11.75731],[125.500499,11.701117],[125.499034,11.675849],[125.466319,11.652737],[125.479015,11.647528],[125.466319,11.611762],[125.490489,11.594672],[125.530935,11.491604],[125.521007,11.460354],[125.548839,11.460354],[125.558604,11.424791],[125.637706,11.368476],[125.63502,11.326483],[125.566173,11.268134],[125.555024,11.211859],[125.599132,11.189114],[125.63087,11.200263],[125.616059,11.21894],[125.628917,11.236314],[125.693614,11.192572],[125.712738,11.148749]]],[[[124.054942,11.799791],[124.07252,11.744086],[124.054861,11.725572],[124.007986,11.796698],[123.89031,11.870795],[123.855642,11.913398],[123.742931,11.926947],[123.711681,11.954413],[123.745779,11.981106],[123.732677,12.008368],[123.719086,11.995307],[123.659434,12.042955],[123.653005,12.069281],[123.670665,12.071031],[123.614757,12.079332],[123.546397,12.188056],[123.485362,12.218085],[123.424164,12.200832],[123.364757,12.106024],[123.159679,11.917792],[123.156993,11.974311],[123.190115,12.011664],[123.215994,12.13349],[123.231944,12.125678],[123.277192,12.164293],[123.259776,12.193996],[123.294607,12.217231],[123.293956,12.235541],[123.21811,12.228095],[123.273448,12.423651],[123.242442,12.464586],[123.234711,12.59276],[123.356456,12.549262],[123.33839,12.546942],[123.355968,12.495592],[123.326671,12.467922],[123.326427,12.438056],[123.372813,12.471381],[123.386485,12.512519],[123.434093,12.518622],[123.495616,12.468573],[123.552419,12.45661],[123.609223,12.385728],[123.588145,12.35102],[123.636974,12.370266],[123.647716,12.348293],[123.688243,12.337795],[123.79363,12.187161],[123.794932,12.246894],[123.848806,12.200832],[123.889659,12.207668],[124.050304,11.971137],[124.054942,11.954413],[123.999522,12.008368],[124.058279,11.87519],[124.054942,11.799791]]],[[[122.279633,12.605455],[122.31129,12.536689],[122.309825,12.501125],[122.279633,12.474514],[122.245616,12.570746],[122.279633,12.619127],[122.279633,12.605455]]],[[[122.115245,12.666327],[122.145681,12.657457],[122.156261,12.632148],[122.128917,12.625393],[122.135753,12.560777],[122.098888,12.386379],[122.036469,12.214057],[122.059906,12.172838],[122.046886,12.187161],[122.022797,12.162828],[122.012218,12.10456],[121.99171,12.159166],[121.958995,12.177802],[121.963715,12.228095],[121.987153,12.2001],[122.002126,12.244371],[121.920746,12.302883],[121.924083,12.339342],[121.946625,12.3994],[121.978282,12.411811],[121.993175,12.441799],[121.99586,12.592719],[122.104991,12.641791],[122.115245,12.666327]]],[[[123.787364,12.375556],[123.790538,12.337958],[123.583181,12.623928],[123.609223,12.687445],[123.732677,12.591254],[123.787364,12.375556]]],[[[123.280284,12.864936],[123.286632,12.815009],[123.36085,12.736518],[123.375824,12.69359],[123.251964,12.832709],[123.185313,12.858466],[123.060557,12.988471],[122.973888,13.018704],[122.950694,13.043687],[122.944509,13.111314],[122.988943,13.128974],[122.992198,13.153551],[123.039806,13.128079],[123.160167,12.937567],[123.201427,12.90644],[123.261974,12.897854],[123.280284,12.864936]]],[[[121.526134,12.704495],[121.545665,12.611233],[121.481456,12.539008],[121.437836,12.521633],[121.443614,12.482001],[121.42628,12.475084],[121.412446,12.414984],[121.443614,12.358466],[121.384288,12.368598],[121.395763,12.289537],[121.354747,12.324123],[121.27296,12.269029],[121.244965,12.214423],[121.193696,12.241767],[121.113617,12.251288],[121.101085,12.330512],[121.115977,12.305243],[121.142589,12.310045],[121.121593,12.310045],[121.094412,12.345404],[121.08725,12.323676],[121.071137,12.332506],[120.98113,12.422675],[120.916352,12.512397],[120.929047,12.577582],[120.912446,12.634711],[120.854503,12.715318],[120.797862,12.729438],[120.76531,12.831448],[120.779633,12.867906],[120.758311,13.002387],[120.664887,13.155911],[120.576345,13.221422],[120.514822,13.230536],[120.526215,13.249172],[120.479991,13.3015],[120.452485,13.420233],[120.408214,13.420478],[120.355968,13.38052],[120.327647,13.396877],[120.306651,13.444322],[120.321544,13.487779],[120.356619,13.518378],[120.403168,13.52733],[120.706391,13.490383],[120.754568,13.466742],[120.977387,13.530341],[120.957042,13.502997],[121.026866,13.421576],[121.108653,13.415961],[121.125255,13.404771],[121.121593,13.372016],[121.141124,13.407416],[121.197113,13.440904],[121.217784,13.40412],[121.333751,13.310614],[121.376231,13.245103],[121.430512,13.22427],[121.43629,13.146064],[121.527029,13.140774],[121.552989,13.111314],[121.483165,13.014716],[121.485606,12.768459],[121.526134,12.704495]]],[[[122.101573,13.416693],[122.128917,13.386298],[122.120291,13.356635],[122.039561,13.269599],[122.049083,13.248358],[122.0088,13.204779],[121.875011,13.276435],[121.813731,13.35224],[121.817231,13.46483],[121.858653,13.565497],[121.90919,13.522895],[121.929698,13.544623],[121.968028,13.523749],[121.997895,13.550767],[122.020193,13.533637],[122.019054,13.509223],[122.045177,13.509223],[122.043793,13.485338],[122.115245,13.464993],[122.101573,13.416693]]],[[[120.260916,13.711575],[120.285411,13.691392],[120.264334,13.673733],[120.203461,13.735785],[120.108246,13.776842],[120.082856,13.817939],[120.085704,13.860785],[120.237641,13.804633],[120.271739,13.752509],[120.260916,13.711575]]],[[[124.417979,13.872952],[124.389985,13.845649],[124.417979,13.797797],[124.389985,13.790351],[124.408702,13.667304],[124.355317,13.659613],[124.334727,13.557603],[124.293468,13.604071],[124.251638,13.599189],[124.187755,13.522895],[124.085948,13.600043],[124.047374,13.606024],[124.026052,13.669623],[124.107432,13.745103],[124.129405,13.818305],[124.120779,13.875922],[124.135916,13.907294],[124.116222,13.988959],[124.135916,14.010647],[124.136892,14.078355],[124.149669,14.062242],[124.215668,14.086493],[124.265636,14.022691],[124.277354,13.955512],[124.308116,13.90644],[124.329763,13.933092],[124.417979,13.872952]]],[[[122.104747,14.102607],[122.172699,14.053534],[122.177013,14.007066],[121.96518,14.142971],[121.926606,14.221259],[121.964041,14.226142],[122.104747,14.102607]]],[[[122.235362,14.797756],[122.257009,14.767035],[122.242198,14.736314],[122.162934,14.797756],[122.121267,14.806871],[122.105724,14.84394],[122.203868,14.838772],[122.197113,14.803941],[122.235362,14.797756]]],[[[122.005382,15.010688],[122.057872,14.983303],[122.053071,14.962226],[122.005382,14.99018],[121.992686,14.969184],[122.012869,14.932929],[121.96811,14.902574],[121.978038,14.838772],[122.0088,14.824612],[122.023692,14.722602],[122.004161,14.673651],[121.940196,14.640082],[121.908702,14.670966],[121.933849,14.76496],[121.919444,14.810248],[121.883637,14.836412],[121.877452,14.894436],[121.81837,14.946031],[121.826427,15.012152],[121.844249,15.045396],[121.893728,15.024563],[121.927989,15.052232],[122.005138,15.038642],[122.005382,15.010688]]],[[[121.388438,18.902981],[121.429861,18.905585],[121.477794,18.881903],[121.406749,18.850816],[121.318614,18.843207],[121.279145,18.862006],[121.28004,18.880561],[121.388438,18.902981]]],[[[121.971202,18.984931],[121.989106,18.949123],[121.865733,18.821926],[121.834158,18.834296],[121.874848,18.900824],[121.853852,18.923489],[121.892589,18.996487],[121.946625,19.012193],[121.971202,18.984931]]],[[[121.210948,19.176703],[121.252208,19.081285],[121.244965,19.018459],[121.190278,19.087348],[121.210948,19.176703]]],[[[121.526134,19.320705],[121.546723,19.282864],[121.498302,19.259263],[121.398936,19.303371],[121.350841,19.375922],[121.395763,19.403266],[121.470958,19.382148],[121.516612,19.393541],[121.526134,19.320705]]],[[[121.977306,19.577379],[121.997895,19.560289],[121.978038,19.498847],[121.947113,19.496772],[121.898204,19.53677],[121.900238,19.559231],[121.977306,19.577379]]],[[[121.841645,20.346015],[121.89324,20.313666],[121.869314,20.27619],[121.850841,20.273424],[121.841645,20.346015]]],[[[122.009776,20.488471],[122.0324,20.464057],[121.963715,20.406643],[121.971202,20.368476],[121.92213,20.354153],[121.922374,20.393297],[121.965994,20.460639],[122.009776,20.488471]]],[[[121.877208,20.770331],[121.829845,20.698961],[121.786388,20.70307],[121.855805,20.838324],[121.879242,20.814032],[121.877208,20.770331]]],[[[119.483246,4.850898],[119.503591,4.764228],[119.456554,4.655707],[119.462738,4.775784],[119.435395,4.902777],[119.468761,4.893704],[119.483246,4.850898]]],[[[121.217459,5.820746],[121.23113,5.80093],[121.16212,5.787584],[121.13502,5.807074],[121.162852,5.848049],[121.217459,5.820746]]],[[[121.381602,6.005683],[121.421235,5.987128],[121.419444,5.947984],[121.391775,5.939887],[121.389496,5.909857],[121.340587,5.903266],[121.292491,5.858832],[121.261729,5.871975],[121.227794,5.942125],[121.081065,5.88817],[121.008311,5.923774],[120.934093,5.885688],[120.871837,5.961005],[120.905528,6.015041],[121.00172,6.057563],[121.042247,6.097113],[121.114757,6.09512],[121.179047,6.063625],[121.217784,5.998928],[121.271251,6.02619],[121.381602,6.005683]]],[[[121.628917,6.657416],[121.616384,6.561428],[121.58253,6.631659],[121.61671,6.672268],[121.628917,6.657416]]],[[[121.094493,10.895819],[121.087169,10.823472],[121.017589,10.834133],[121.032074,10.87051],[121.085785,10.908881],[121.094493,10.895819]]],[[[120.285167,11.930162],[120.263438,11.916164],[120.267914,11.81623],[120.203298,11.947577],[120.267914,11.968085],[120.285167,11.930162]]],[[[121.406423,12.062445],[121.413829,12.014553],[121.384288,12.000922],[121.364268,12.02733],[121.358653,12.114691],[121.406423,12.062445]]],[[[119.959727,8.880601],[119.960623,8.877102],[119.958344,8.877183],[119.959727,8.880601]]],[[[119.969249,8.880927],[119.968272,8.884101],[119.971934,8.882392],[119.969249,8.880927]]],[[[119.965343,8.887193],[119.966075,8.885688],[119.964203,8.885565],[119.965343,8.887193]]],[[[119.967784,8.891547],[119.968516,8.890041],[119.966807,8.889879],[119.967784,8.891547]]],[[[121.723969,12.913967],[121.699067,12.905341],[121.68865,12.94717],[121.718272,12.947333],[121.723969,12.913967]]],[[[121.088634,13.530341],[121.043468,13.567572],[121.085785,13.570624],[121.088634,13.530341]]],[[[121.936697,21.065619],[121.929698,21.064521],[121.934825,21.073228],[121.936697,21.065619]]],[[[121.947439,21.116156],[121.950694,21.122382],[121.954275,21.118394],[121.947439,21.116156]]],[[[119.830903,4.82095],[119.857677,4.79857],[119.819347,4.80386],[119.812348,4.81684],[119.830903,4.82095]]],[[[119.836925,4.86286],[119.798595,4.879788],[119.793142,4.921861],[119.842621,4.904853],[119.836925,4.86286]]],[[[119.79656,5.057603],[119.745779,5.044013],[119.79835,5.121039],[119.812511,5.069892],[119.79656,5.057603]]],[[[125.418712,5.425482],[125.418712,5.368476],[125.36378,5.367174],[125.334239,5.387681],[125.376801,5.43122],[125.418712,5.425482]]],[[[120.860118,5.703843],[120.88266,5.685289],[120.799327,5.667629],[120.807384,5.695705],[120.860118,5.703843]]],[[[120.904307,5.759101],[120.929373,5.733222],[120.909923,5.700019],[120.89088,5.709784],[120.904307,5.759101]]],[[[123.841319,9.642401],[123.868337,9.62051],[123.804535,9.560289],[123.749848,9.554145],[123.726329,9.586982],[123.841319,9.642401]]],[[[124.606944,10.140326],[124.597667,10.094184],[124.529552,10.068549],[124.521821,10.112047],[124.606944,10.140326]]],[[[121.474132,11.866848],[121.526052,11.846584],[121.495372,11.827826],[121.412608,11.840277],[121.425629,11.861233],[121.474132,11.866848]]],[[[124.206228,12.081244],[124.229259,12.063625],[124.150238,12.04385],[124.165375,12.075426],[124.206228,12.081244]]],[[[121.115977,12.196763],[121.131033,12.164374],[121.118907,12.158108],[121.051606,12.220933],[121.039561,12.251532],[121.059906,12.278388],[121.088145,12.267076],[121.115977,12.196763]]],[[[124.16863,12.398139],[124.133556,12.470771],[124.176606,12.432685],[124.16863,12.398139]]],[[[124.148611,13.185777],[124.065603,13.210761],[124.138845,13.234198],[124.209646,13.195787],[124.196788,13.173326],[124.148611,13.185777]]],[[[124.086274,13.260443],[124.025401,13.221991],[123.939301,13.244452],[123.912446,13.288642],[124.032563,13.26675],[124.047699,13.278957],[124.086274,13.260443]]],[[[123.89031,13.274075],[123.901866,13.238349],[123.873546,13.229641],[123.845958,13.27025],[123.848888,13.354153],[123.92213,13.329983],[123.89031,13.274075]]],[[[123.801524,13.366034],[123.771658,13.40351],[123.845551,13.367825],[123.82309,13.351955],[123.801524,13.366034]]],[[[122.411794,14.725816],[122.419607,14.705146],[122.397797,14.685858],[122.319347,14.683498],[122.341563,14.712592],[122.411794,14.725816]]],[[[120.005056,16.268622],[120.012218,16.241523],[119.992931,16.23017],[119.922374,16.303778],[119.98406,16.3487],[120.005056,16.268622]]],[[[123.991649,10.324284],[124.009394,10.311758],[124.04384,10.324284],[123.975992,10.255392],[123.933196,10.254348],[123.947809,10.306539],[123.991649,10.324284]]]]}}]}
