{"type":"FeatureCollection","features":[{"type":"Feature","properties":{"name":"Pitcairn Islands","ISO3166-1-Alpha-3":"PCN","ISO3166-1-Alpha-2":"PN"},"geometry":{"type":"MultiPolygon","coordinates":[[[[-130.120351,-25.068292],[-130.101145,-25.064386],[-130.095937,-25.077081],[-130.120351,-25.068292]]],[[[-124.786163,-24.664565],[-124.785512,-24.663995],[-124.778066,-24.67254],[-124.786163,-24.664565]]],[[[-128.33019,-24.324314],[-128.3037,-24.334649],[-128.290842,-24.365655],[-128.30012,-24.41367],[-128.342193,-24.371759],[-128.35025,-24.341241],[-128.33019,-24.324314]]],[[[-130.745269,-23.924412],[-130.742096,-23.92783],[-130.753082,-23.92962],[-130.745269,-23.924412]]]]}}]}
