{"type":"FeatureCollection","features":[{"type":"Feature","properties":{"name":"Palau","ISO3166-1-Alpha-3":"PLW","ISO3166-1-Alpha-2":"PW"},"geometry":{"type":"MultiPolygon","coordinates":[[[[134.271495,7.07453],[134.279959,7.020494],[134.234386,6.98432],[134.271495,7.07453]]],[[[134.463878,7.294257],[134.449229,7.290025],[134.458344,7.256741],[134.392914,7.224514],[134.349132,7.237779],[134.350841,7.271186],[134.382579,7.237942],[134.401703,7.246487],[134.443858,7.287421],[134.441091,7.316718],[134.463878,7.294257]]],[[[134.471365,7.362494],[134.511892,7.347317],[134.522227,7.311347],[134.477794,7.346869],[134.449474,7.328355],[134.449555,7.355414],[134.471365,7.362494]]],[[[134.648204,7.719428],[134.658214,7.591051],[134.59962,7.442572],[134.601085,7.383612],[134.591645,7.366889],[134.559337,7.376166],[134.528005,7.357571],[134.482921,7.445787],[134.487559,7.469916],[134.511567,7.493476],[134.533865,7.485989],[134.536143,7.507961],[134.511567,7.527655],[134.546397,7.561184],[134.556977,7.601142],[134.63502,7.62934],[134.62143,7.729682],[134.648204,7.719428]]],[[[131.1421,3.047309],[131.192068,3.048814],[131.138438,3.018948],[131.1421,3.047309]]],[[[132.220388,5.292222],[132.213878,5.307115],[132.220225,5.310248],[132.220388,5.292222]]],[[[134.159679,6.884467],[134.139659,6.934272],[134.173188,6.924872],[134.159679,6.884467]]],[[[131.791515,2.977729],[131.812999,2.960435],[131.795177,2.949042],[131.775401,2.964057],[131.791515,2.977729]]],[[[134.709676,8.096618],[134.727343,8.082879],[134.701245,8.050245],[134.692814,8.075539],[134.709676,8.096618]]]]}}]}
