{"type":"FeatureCollection","features":[{"type":"Feature","properties":{"name":"Paraguay","ISO3166-1-Alpha-3":"PRY","ISO3166-1-Alpha-2":"PY"},"geometry":{"type":"Polygon","coordinates":[[[-62.650357,-22.234456],[-62.275703,-21.066568],[-62.26883,-20.553111],[-61.94425,-20.104146],[-61.753203,-19.64588],[-60.006384,-19.298097],[-59.069646,-19.291483],[-58.164429,-19.832949],[-58.141847,-20.000897],[-58.158332,-20.181144],[-58.118541,-20.214424],[-58.162672,-20.243156],[-58.137041,-20.274369],[-58.109756,-20.260726],[-58.09508,-20.272198],[-58.082987,-20.376171],[-57.989401,-20.433119],[-58.01002,-20.500091],[-57.973123,-20.651193],[-57.980616,-20.692741],[-57.95638,-20.709898],[-57.947182,-20.675068],[-57.918088,-20.669797],[-57.857678,-20.73987],[-57.940412,-20.793613],[-57.859642,-20.831647],[-57.85711,-20.849734],[-57.908683,-20.881567],[-57.914832,-20.905648],[-57.847033,-20.955981],[-57.836026,-20.938514],[-57.817577,-20.953604],[-57.852459,-21.037836],[-57.833959,-21.173849],[-57.84786,-21.216223],[-57.90429,-21.274928],[-57.855559,-21.330738],[-57.949145,-21.508298],[-57.939792,-21.548193],[-57.912093,-21.564006],[-57.934831,-21.640693],[-57.895609,-21.688442],[-57.939017,-21.755312],[-57.93571,-21.812053],[-57.955915,-21.85112],[-57.925374,-21.904967],[-57.962633,-21.966978],[-57.986249,-22.074465],[-57.939999,-22.11839],[-57.871372,-22.121181],[-57.843881,-22.143712],[-57.775409,-22.123971],[-57.773652,-22.107745],[-57.663685,-22.100614],[-57.614075,-22.176991],[-57.463955,-22.180402],[-57.384994,-22.213268],[-57.271667,-22.213785],[-57.21379,-22.188154],[-57.199527,-22.212855],[-57.154155,-22.207997],[-57.085064,-22.238073],[-56.964554,-22.234869],[-56.960524,-22.254816],[-56.91479,-22.262878],[-56.90368,-22.236936],[-56.879547,-22.289956],[-56.85606,-22.29316],[-56.808285,-22.247995],[-56.743534,-22.250372],[-56.715371,-22.215439],[-56.648811,-22.263498],[-56.654703,-22.23735],[-56.584965,-22.190531],[-56.5113,-22.091415],[-56.407637,-22.075809],[-56.347331,-22.180402],[-56.214264,-22.275383],[-55.998567,-22.277244],[-55.874388,-22.317345],[-55.86103,-22.289543],[-55.760235,-22.391965],[-55.723932,-22.569629],[-55.62368,-22.638669],[-55.618332,-22.725692],[-55.659001,-22.818296],[-55.637814,-23.000714],[-55.600684,-23.044535],[-55.599392,-23.117089],[-55.560867,-23.145925],[-55.535236,-23.229124],[-55.562159,-23.307879],[-55.513868,-23.379399],[-55.542471,-23.465802],[-55.530533,-23.603468],[-55.466971,-23.673231],[-55.445319,-23.735449],[-55.420669,-23.954506],[-55.367184,-23.989646],[-55.165439,-24.016827],[-55.105572,-23.988509],[-54.943644,-23.969182],[-54.891916,-23.920606],[-54.696838,-23.845158],[-54.639218,-23.804437],[-54.443158,-23.899935],[-54.367607,-23.984685],[-54.245289,-24.050624],[-54.301048,-24.089898],[-54.334637,-24.148912],[-54.262187,-24.358512],[-54.334534,-24.496695],[-54.321305,-24.628366],[-54.407294,-24.821223],[-54.462278,-25.03723],[-54.426621,-25.149472],[-54.609814,-25.432762],[-54.591469,-25.524746],[-54.602218,-25.592442],[-54.583356,-25.644842],[-54.633715,-25.652077],[-54.643146,-25.68794],[-54.587904,-25.810827],[-54.61524,-25.882863],[-54.606404,-25.946632],[-54.662266,-25.979912],[-54.642526,-26.062801],[-54.663816,-26.149204],[-54.638288,-26.196953],[-54.664333,-26.236227],[-54.663661,-26.308367],[-54.697664,-26.428153],[-54.789829,-26.528509],[-54.793059,-26.644987],[-54.817321,-26.665761],[-54.879359,-26.654393],[-54.919899,-26.674133],[-54.97527,-26.787821],[-55.060898,-26.805184],[-55.125778,-26.863579],[-55.118879,-26.920009],[-55.138361,-26.953702],[-55.2806,-26.934272],[-55.414003,-26.979851],[-55.442761,-27.015508],[-55.461855,-27.097983],[-55.533841,-27.09943],[-55.555338,-27.153794],[-55.598281,-27.16754],[-55.568671,-27.245984],[-55.591331,-27.328357],[-55.754732,-27.443698],[-55.854157,-27.40122],[-55.892837,-27.334868],[-56.124554,-27.298901],[-56.205428,-27.362153],[-56.279842,-27.389645],[-56.296998,-27.480905],[-56.367537,-27.580641],[-56.399731,-27.586842],[-56.461484,-27.553873],[-56.54644,-27.455067],[-56.613,-27.446386],[-56.771155,-27.506744],[-56.904351,-27.418687],[-57.076227,-27.484006],[-57.180097,-27.487313],[-57.335229,-27.409489],[-57.513358,-27.41414],[-57.709367,-27.329804],[-58.021958,-27.259834],[-58.510765,-27.278437],[-58.604196,-27.316264],[-58.60156,-27.245674],[-58.652358,-27.198029],[-58.653289,-27.156274],[-58.616133,-27.123821],[-58.56549,-27.115966],[-58.54544,-27.041036],[-58.51154,-27.060156],[-58.466633,-26.975923],[-58.47547,-26.937993],[-58.31579,-26.874121],[-58.352377,-26.830506],[-58.340026,-26.808595],[-58.288556,-26.811489],[-58.27481,-26.798363],[-58.287936,-26.768598],[-58.247939,-26.758159],[-58.235536,-26.649845],[-58.178641,-26.650672],[-58.192283,-26.612845],[-58.164946,-26.592278],[-58.217346,-26.527579],[-58.18541,-26.451718],[-58.213057,-26.418645],[-58.167633,-26.335032],[-58.169959,-26.270333],[-58.105983,-26.239534],[-58.151304,-26.18145],[-58.124019,-26.201914],[-58.086501,-26.12719],[-57.988213,-26.088536],[-57.872716,-26.010298],[-57.85959,-25.980945],[-57.905841,-25.968646],[-57.851374,-25.908392],[-57.875352,-25.876146],[-57.801868,-25.831394],[-57.820626,-25.77827],[-57.740373,-25.72215],[-57.774582,-25.701686],[-57.741251,-25.661895],[-57.678981,-25.647012],[-57.668077,-25.612286],[-57.623067,-25.615386],[-57.575318,-25.564433],[-57.55811,-25.44351],[-57.640792,-25.37261],[-57.671488,-25.290135],[-57.721769,-25.246106],[-57.754067,-25.180891],[-57.870701,-25.085289],[-57.983769,-25.074231],[-58.00046,-25.044362],[-58.124019,-25.012942],[-58.224064,-24.941216],[-58.335995,-24.991858],[-58.473403,-24.851299],[-58.809196,-24.776781],[-59.000916,-24.644179],[-59.340973,-24.4876],[-59.4659,-24.353551],[-59.610517,-24.289576],[-59.67364,-24.225394],[-60.033669,-24.007009],[-60.143249,-24.025199],[-60.337372,-24.016414],[-60.378351,-23.988509],[-60.484882,-23.977347],[-60.577538,-23.94417],[-60.594617,-23.90655],[-60.63216,-23.892287],[-60.837625,-23.871823],[-60.936663,-23.813842],[-60.974826,-23.824074],[-61.006349,-23.805471],[-61.118849,-23.66641],[-61.109857,-23.606982],[-61.18024,-23.557166],[-61.272612,-23.523576],[-61.296951,-23.481408],[-61.501073,-23.407821],[-61.526343,-23.374748],[-61.51606,-23.344982],[-61.554636,-23.338368],[-61.60515,-23.289275],[-61.680313,-23.27925],[-61.732997,-23.243386],[-61.769274,-23.165562],[-61.84498,-23.097245],[-61.956446,-23.034407],[-62.0059,-22.978906],[-62.006055,-22.936842],[-62.035821,-22.884855],[-62.188267,-22.708329],[-62.175916,-22.684867],[-62.195036,-22.673602],[-62.192969,-22.62823],[-62.25281,-22.603632],[-62.233225,-22.556296],[-62.281387,-22.512061],[-62.287227,-22.483949],[-62.368256,-22.464416],[-62.564678,-22.321996],[-62.625294,-22.305046],[-62.61961,-22.255023],[-62.650357,-22.234456]]]}}]}
