{"type":"FeatureCollection","features":[{"type":"Feature","properties":{"name":"Qatar","ISO3166-1-Alpha-3":"QAT","ISO3166-1-Alpha-2":"QA"},"geometry":{"type":"Polygon","coordinates":[[[50.807872,24.746649],[50.852794,24.770006],[50.85963,24.7956],[50.851085,24.890815],[50.796641,25.003607],[50.808604,25.069159],[50.775727,25.091864],[50.757823,25.186225],[50.763845,25.482408],[50.750987,25.494696],[50.797093,25.529896],[50.820486,25.471829],[50.847179,25.467353],[50.832856,25.578518],[50.785004,25.60456],[50.857188,25.650824],[50.87615,25.631781],[50.868663,25.559556],[50.898692,25.532213],[50.90919,25.597724],[50.949555,25.597724],[50.97755,25.646145],[50.903168,25.640123],[50.887543,25.680894],[50.90919,25.745103],[50.901703,25.789537],[50.932872,25.810614],[50.949555,25.775295],[50.972992,25.797512],[50.970714,25.830512],[50.949392,25.837958],[50.984223,25.98135],[51.004731,25.967027],[51.047374,26.053046],[51.141856,26.087795],[51.176117,26.139594],[51.251231,26.160102],[51.346853,26.104885],[51.347179,26.039008],[51.376638,26.022895],[51.388438,25.967027],[51.511974,25.946112],[51.577485,25.880845],[51.594493,25.758246],[51.583507,25.741767],[51.563324,25.762885],[51.544607,25.737372],[51.555024,25.720649],[51.573985,25.734931],[51.590099,25.7119],[51.556814,25.681627],[51.552908,25.707587],[51.505138,25.687161],[51.54713,25.663153],[51.54949,25.631171],[51.491384,25.618232],[51.491384,25.549302],[51.471934,25.521389],[51.516938,25.440172],[51.518809,25.297065],[51.590017,25.283759],[51.607595,25.255113],[51.611013,25.022366],[51.586925,24.953437],[51.500255,24.855373],[51.443614,24.679755],[51.381521,24.635077],[51.340587,24.569892],[51.328949,24.584784],[51.346853,24.635077],[51.285981,24.645006],[51.278087,24.662991],[51.220958,24.644232],[51.147451,24.576279],[51.095465,24.560182],[50.978883,24.567726],[50.928602,24.587208],[50.881008,24.636404],[50.807872,24.746649]]]}}]}
