{"type":"FeatureCollection","features":[{"type":"Feature","properties":{"name":"Republic of Serbia","ISO3166-1-Alpha-3":"SRB","ISO3166-1-Alpha-2":"RS"},"geometry":{"type":"Polygon","coordinates":[[[20.242826,46.108091],[20.305665,46.053572],[20.35393,45.976678],[20.572108,45.887691],[20.636704,45.827023],[20.645902,45.788731],[20.68807,45.7431],[20.726827,45.736176],[20.765171,45.766768],[20.785739,45.752557],[20.754423,45.605589],[20.800208,45.530504],[20.760727,45.493348],[20.767135,45.479344],[20.816021,45.462859],[20.981489,45.33279],[21.09156,45.288089],[21.139412,45.303696],[21.239251,45.229385],[21.405546,45.199671],[21.493292,45.145101],[21.494119,45.119314],[21.442443,45.092908],[21.421875,45.031413],[21.351389,44.998236],[21.40844,44.958342],[21.51634,44.933899],[21.536287,44.889302],[21.355523,44.856591],[21.342811,44.831942],[21.395934,44.790239],[21.578042,44.777681],[21.65628,44.687661],[21.756842,44.677274],[21.855441,44.698461],[21.994347,44.658567],[22.045197,44.569219],[22.126639,44.502659],[22.185136,44.515113],[22.304922,44.677377],[22.426052,44.733653],[22.483723,44.72399],[22.587489,44.649369],[22.700144,44.63061],[22.765153,44.58281],[22.741692,44.551855],[22.700144,44.54183],[22.580461,44.565498],[22.548422,44.511703],[22.484136,44.499766],[22.477005,44.463954],[22.505427,44.435015],[22.522687,44.37507],[22.582838,44.328406],[22.68154,44.305307],[22.69164,44.228435],[22.606196,44.174566],[22.592967,44.063926],[22.534159,44.057157],[22.50367,44.019898],[22.399594,43.993336],[22.349467,43.807921],[22.388535,43.758286],[22.404865,43.687179],[22.466256,43.64912],[22.478452,43.559229],[22.518863,43.474247],[22.596274,43.429159],[22.637822,43.426369],[22.664694,43.396732],[22.73301,43.381513],[22.80453,43.328984],[22.826958,43.28139],[22.883802,43.230592],[22.981367,43.198992],[22.984571,43.174627],[22.955632,43.108274],[22.884215,43.036651],[22.829025,42.993501],[22.776418,42.979729],[22.727015,42.886892],[22.666244,42.871932],[22.563615,42.884283],[22.506047,42.870123],[22.427395,42.813615],[22.482896,42.733775],[22.442072,42.681685],[22.425328,42.572855],[22.512145,42.519189],[22.536536,42.47839],[22.508838,42.404932],[22.46977,42.391703],[22.423985,42.325893],[22.307609,42.31933],[22.268852,42.370335],[22.095529,42.305817],[22.027627,42.303956],[21.929028,42.335117],[21.88438,42.309512],[21.8172,42.305145],[21.676886,42.234945],[21.575044,42.242022],[21.514893,42.317832],[21.51603,42.341939],[21.617419,42.386639],[21.618969,42.449245],[21.717671,42.551151],[21.734725,42.624247],[21.772758,42.647501],[21.764387,42.669619],[21.708886,42.687189],[21.629408,42.672203],[21.565226,42.720184],[21.378674,42.744136],[21.40844,42.846998],[21.260542,42.886556],[21.23243,42.910896],[21.209795,42.995878],[21.147887,42.992622],[21.092593,43.090678],[21.005157,43.099128],[20.838552,43.170467],[20.839999,43.212092],[20.8647,43.217337],[20.819432,43.257412],[20.769512,43.260849],[20.604044,43.197959],[20.626058,43.123725],[20.669157,43.109799],[20.643835,43.052257],[20.596396,43.007092],[20.562393,43.009495],[20.530457,42.975156],[20.459454,42.950015],[20.450979,42.922032],[20.498831,42.877875],[20.4763,42.855525],[20.345352,42.827439],[20.35362,42.890975],[20.337084,42.906969],[20.19456,42.966836],[20.116942,42.976654],[19.92915,43.113907],[19.872203,43.090368],[19.805127,43.089955],[19.761202,43.108739],[19.713556,43.165609],[19.598111,43.176203],[19.372285,43.384226],[19.218392,43.438202],[19.175914,43.480887],[19.175191,43.509619],[19.217462,43.532796],[19.252706,43.588633],[19.34655,43.608838],[19.410732,43.540754],[19.431816,43.57114],[19.48959,43.564448],[19.477498,43.616977],[19.507367,43.647182],[19.461685,43.762136],[19.229348,43.95768],[19.243507,44.002018],[19.287329,44.013025],[19.364637,43.973286],[19.528554,43.977213],[19.618885,44.035711],[19.598938,44.062583],[19.580231,44.051524],[19.522043,44.08501],[19.465716,44.15281],[19.442565,44.143198],[19.362363,44.191206],[19.324329,44.263966],[19.157001,44.293577],[19.116693,44.343703],[19.107185,44.382718],[19.141394,44.430829],[19.129922,44.518317],[19.179635,44.538264],[19.188317,44.57604],[19.318025,44.715463],[19.376626,44.862999],[19.353165,44.899018],[19.201856,44.908371],[19.18687,44.927543],[19.015821,44.865635],[18.991429,44.914934],[19.018405,44.925683],[19.06667,44.905684],[19.131679,44.953175],[19.118554,44.97555],[19.087238,44.977101],[19.082277,45.084949],[19.044863,45.137246],[19.137674,45.146031],[19.121861,45.195795],[19.225937,45.161947],[19.286709,45.179517],[19.390682,45.169337],[19.407838,45.203133],[19.378073,45.229592],[19.158482,45.276171],[19.104147,45.298726],[19.082956,45.339224],[18.977491,45.371209],[18.975527,45.39113],[19.031319,45.416201],[18.997144,45.455517],[19.00962,45.498671],[19.077212,45.491643],[19.106255,45.511642],[19.018095,45.567401],[18.941717,45.538927],[18.90358,45.573085],[18.912365,45.619232],[18.968485,45.668738],[18.917325,45.706565],[18.900169,45.764908],[18.844978,45.815706],[18.855314,45.857357],[18.90699,45.867951],[18.872884,45.895236],[18.90699,45.9157],[18.901306,45.931203],[18.987502,45.923813],[18.981818,45.950788],[19.048584,45.963449],[19.06543,46.012025],[19.111009,46.012955],[19.148009,45.984068],[19.263454,45.981432],[19.306966,46.026649],[19.378899,46.033677],[19.453727,46.07755],[19.499305,46.108608],[19.487523,46.134239],[19.549948,46.16416],[19.669321,46.1731],[19.79045,46.129072],[19.92915,46.16354],[20.034983,46.142973],[20.098442,46.154962],[20.188462,46.140389],[20.242826,46.108091]]]}}]}
