{"type":"FeatureCollection","features":[{"type":"Feature","properties":{"name":"Rwanda","ISO3166-1-Alpha-3":"RWA","ISO3166-1-Alpha-2":"RW"},"geometry":{"type":"Polygon","coordinates":[[[29.015365,-2.720711],[28.891342,-2.652705],[28.89806,-2.576327],[28.857236,-2.518346],[28.878216,-2.489718],[28.858838,-2.418198],[28.880387,-2.379854],[28.959658,-2.339753],[28.993661,-2.277741],[29.075413,-2.263892],[29.134841,-2.197746],[29.156339,-2.108656],[29.130501,-1.843349],[29.233337,-1.658657],[29.303823,-1.587861],[29.342787,-1.516547],[29.437407,-1.506212],[29.538641,-1.402342],[29.657703,-1.383945],[29.734805,-1.348185],[29.774906,-1.366272],[29.816143,-1.322554],[29.864203,-1.370303],[29.880739,-1.453605],[29.917429,-1.475206],[29.960424,-1.464767],[30.147183,-1.345085],[30.165579,-1.277492],[30.212192,-1.259509],[30.317405,-1.137035],[30.337455,-1.066239],[30.471786,-1.066837],[30.453004,-1.097348],[30.470884,-1.118122],[30.467266,-1.155329],[30.511191,-1.170418],[30.5546,-1.273461],[30.555323,-1.31842],[30.737534,-1.406683],[30.738878,-1.489469],[30.791588,-1.590961],[30.831017,-1.594165],[30.838303,-1.615352],[30.824247,-1.730694],[30.83789,-1.836838],[30.824247,-1.902053],[30.796962,-1.929338],[30.826934,-1.934093],[30.816754,-2.018739],[30.853496,-2.0237],[30.887809,-2.082507],[30.834376,-2.345334],[30.758825,-2.381094],[30.687718,-2.349985],[30.63785,-2.39701],[30.521733,-2.399387],[30.418484,-2.311847],[30.37859,-2.303062],[30.297974,-2.353705],[30.207489,-2.339236],[30.156174,-2.419024],[30.116797,-2.43153],[30.013341,-2.348331],[29.931692,-2.316912],[29.897896,-2.671102],[29.842395,-2.752441],[29.744727,-2.759985],[29.719922,-2.805461],[29.619256,-2.787684],[29.504121,-2.826855],[29.425366,-2.803394],[29.339687,-2.826441],[29.318086,-2.762569],[29.337516,-2.723812],[29.306614,-2.660147],[29.113447,-2.594621],[29.05526,-2.598445],[29.032574,-2.620666],[29.015365,-2.720711]]]}}]}
