{"type":"FeatureCollection","features":[{"type":"Feature","properties":{"name":"Seychelles","ISO3166-1-Alpha-3":"SYC","ISO3166-1-Alpha-2":"SC"},"geometry":{"type":"MultiPolygon","coordinates":[[[[46.509776,-9.719985],[46.500662,-9.746515],[46.478526,-9.740411],[46.509776,-9.719985]]],[[[47.507335,-9.713067],[47.507335,-9.698175],[47.51295,-9.694431],[47.507335,-9.713067]]],[[[53.333995,-5.42018],[53.344086,-5.434747],[53.340505,-5.436212],[53.333995,-5.42018]]],[[[55.659679,-3.791111],[55.665863,-3.811782],[55.658539,-3.8117],[55.659679,-3.791111]]],[[[46.495453,-9.357599],[46.525157,-9.38128],[46.4546,-9.426446],[46.380707,-9.424574],[46.299815,-9.449314],[46.234386,-9.452325],[46.207367,-9.385512],[46.230479,-9.41367],[46.320486,-9.423761],[46.434581,-9.378106],[46.468761,-9.385512],[46.447765,-9.33766],[46.495453,-9.357599]]],[[[46.283865,-9.351332],[46.276134,-9.339288],[46.315196,-9.32643],[46.427094,-9.33766],[46.379405,-9.357029],[46.283865,-9.351332]]],[[[56.247081,-7.192641],[56.2588,-7.140232],[56.287446,-7.11004],[56.247081,-7.192641]]],[[[55.401702,-4.660534],[55.367258,-4.639265],[55.417618,-4.611384],[55.433698,-4.562545],[55.454897,-4.562234],[55.456682,-4.625802],[55.528555,-4.680193],[55.516852,-4.750407],[55.537916,-4.803769],[55.46349,-4.759768],[55.491576,-4.736364],[55.478001,-4.706406],[55.401702,-4.660534]]],[[[55.260265,-4.500095],[55.228038,-4.487481],[55.225434,-4.44492],[55.259939,-4.462986],[55.260265,-4.500095]]],[[[55.717635,-4.330116],[55.692008,-4.326297],[55.677175,-4.296413],[55.704437,-4.290228],[55.787038,-4.330592],[55.759125,-4.358425],[55.717635,-4.330116]]],[[[52.741873,-6.994317],[52.747244,-7.00506],[52.742198,-7.001723],[52.741873,-6.994317]]],[[[55.382823,-5.853936],[55.381847,-5.865492],[55.380056,-5.869073],[55.382823,-5.853936]]],[[[55.3627,-4.659323],[55.373822,-4.666434],[55.364888,-4.665887],[55.3627,-4.659323]]],[[[55.398986,-4.668622],[55.405915,-4.678104],[55.397527,-4.673363],[55.398986,-4.668622]]],[[[55.501589,-4.628853],[55.502611,-4.63994],[55.49167,-4.629875],[55.501589,-4.628853]]],[[[55.504215,-4.621414],[55.511509,-4.624769],[55.508446,-4.628416],[55.504215,-4.621414]]],[[[55.497943,-4.600846],[55.514426,-4.600554],[55.496776,-4.614704],[55.497943,-4.600846]]],[[[55.712087,-4.280369],[55.742951,-4.278329],[55.732911,-4.292459],[55.712087,-4.280369]]],[[[55.663004,-4.328157],[55.66635,-4.329272],[55.660401,-4.33485],[55.663004,-4.328157]]],[[[55.647014,-4.346749],[55.648873,-4.348608],[55.64813,-4.353442],[55.647014,-4.346749]]],[[[55.666722,-4.209909],[55.675275,-4.21214],[55.664491,-4.213999],[55.666722,-4.209909]]],[[[55.831823,-4.337453],[55.857109,-4.36497],[55.841491,-4.382819],[55.825502,-4.372035],[55.831823,-4.337453]]],[[[55.868636,-4.317373],[55.883139,-4.3289],[55.878676,-4.338197],[55.868636,-4.317373]]],[[[55.866405,-4.283163],[55.870868,-4.289856],[55.870124,-4.296549],[55.866405,-4.283163]]],[[[55.919952,-4.334106],[55.92367,-4.343031],[55.918836,-4.347865],[55.919952,-4.334106]]],[[[55.940074,-4.578657],[55.950144,-4.590993],[55.933025,-4.58621],[55.940074,-4.578657]]]]}}]}
