{"type":"FeatureCollection","features":[{"type":"Feature","properties":{"name":"Slovenia","ISO3166-1-Alpha-3":"SVN","ISO3166-1-Alpha-2":"SI"},"geometry":{"type":"Polygon","coordinates":[[[13.64292,45.45943],[13.589529,45.488837],[13.595958,45.518134],[13.568614,45.539252],[13.75294,45.552883],[13.711762,45.593207],[13.847764,45.584661],[13.894686,45.631841],[13.858409,45.649359],[13.778724,45.743411],[13.581269,45.809246],[13.56928,45.86454],[13.622817,45.966394],[13.605867,45.985411],[13.509439,45.967428],[13.461793,46.006392],[13.505098,46.066027],[13.616409,46.125041],[13.645037,46.161731],[13.637389,46.180386],[13.559048,46.184107],[13.468304,46.223433],[13.422829,46.228601],[13.437402,46.210927],[13.410116,46.207982],[13.365261,46.290302],[13.434094,46.353864],[13.530006,46.388332],[13.600182,46.442644],[13.67749,46.452075],[13.700951,46.519746],[14.050026,46.484399],[14.149865,46.440061],[14.40649,46.439337],[14.450931,46.414481],[14.502194,46.418356],[14.540332,46.378643],[14.590148,46.434428],[14.679961,46.458871],[14.709727,46.492512],[14.788585,46.506646],[14.85039,46.601136],[14.933589,46.621135],[14.967179,46.600257],[15.004386,46.636844],[15.061954,46.649557],[15.388135,46.645578],[15.462653,46.614649],[15.511228,46.628369],[15.545955,46.671881],[15.626984,46.680873],[15.635975,46.717563],[15.728683,46.70299],[15.850743,46.724488],[16.016723,46.670691],[15.970529,46.743014],[15.971976,46.820632],[16.094035,46.862774],[16.272009,46.863962],[16.325339,46.839442],[16.298157,46.775802],[16.314177,46.743324],[16.410502,46.668367],[16.368437,46.642994],[16.376395,46.629093],[16.500832,46.544809],[16.515302,46.501711],[16.357895,46.546979],[16.263947,46.515922],[16.233665,46.47874],[16.275626,46.373165],[16.191807,46.369781],[16.143851,46.394714],[16.106024,46.373734],[16.057965,46.377532],[16.059619,46.332315],[16.019208,46.298829],[15.81829,46.255524],[15.749767,46.210772],[15.639799,46.207672],[15.604349,46.167002],[15.58988,46.113517],[15.697987,46.036209],[15.674216,45.993163],[15.659436,45.888828],[15.676076,45.841699],[15.626054,45.820202],[15.451284,45.815137],[15.429063,45.775295],[15.255017,45.723463],[15.250883,45.70765],[15.283025,45.680107],[15.330774,45.684551],[15.373769,45.640213],[15.297391,45.625692],[15.268556,45.601662],[15.296668,45.522959],[15.361367,45.482031],[15.325193,45.452834],[15.139262,45.430045],[15.056166,45.479912],[14.922634,45.514949],[14.904444,45.514432],[14.881603,45.469784],[14.797164,45.465185],[14.781247,45.493348],[14.668489,45.533966],[14.669833,45.564558],[14.603067,45.603574],[14.580949,45.667808],[14.498577,45.596184],[14.468915,45.525594],[14.372797,45.477845],[14.218698,45.497172],[14.092917,45.473918],[13.971891,45.514226],[13.961452,45.493142],[13.98264,45.475313],[13.889002,45.423637],[13.759294,45.463169],[13.64292,45.45943]]]}}]}
