{"type":"FeatureCollection","features":[{"type":"Feature","properties":{"name":"Senegal","ISO3166-1-Alpha-3":"SEN","ISO3166-1-Alpha-2":"SN"},"geometry":{"type":"Polygon","coordinates":[[[-12.26413,14.774939],[-12.222815,14.70329],[-12.180311,14.692825],[-12.18982,14.655954],[-12.165015,14.641872],[-12.236432,14.519451],[-12.22173,14.391242],[-12.115612,14.35512],[-12.119591,14.310575],[-12.044299,14.264919],[-11.997583,14.166165],[-12.025334,13.985246],[-11.962908,13.909152],[-11.962908,13.829467],[-12.012311,13.751177],[-12.097629,13.70441],[-12.015153,13.564444],[-11.890406,13.465148],[-11.897589,13.371175],[-11.854595,13.350556],[-11.828136,13.307277],[-11.775116,13.343347],[-11.741217,13.407813],[-11.70401,13.380373],[-11.649801,13.38412],[-11.643962,13.355594],[-11.613111,13.360813],[-11.605824,13.319653],[-11.554251,13.256866],[-11.572338,13.217101],[-11.538542,13.16297],[-11.533064,13.111811],[-11.450278,13.075095],[-11.45896,13.054682],[-11.422993,13.009414],[-11.438703,12.9589],[-11.393434,12.980811],[-11.384443,12.933114],[-11.427231,12.918618],[-11.415138,12.896656],[-11.432502,12.835523],[-11.408472,12.804491],[-11.402168,12.73173],[-11.461905,12.673129],[-11.436842,12.637473],[-11.437359,12.570758],[-11.467797,12.543525],[-11.429814,12.508333],[-11.416999,12.529314],[-11.400514,12.479549],[-11.390437,12.497533],[-11.377776,12.480221],[-11.388422,12.403895],[-11.515391,12.431645],[-11.757805,12.383328],[-11.839609,12.386687],[-11.923944,12.418778],[-11.997583,12.386377],[-12.103985,12.407357],[-12.192042,12.348756],[-12.36092,12.305607],[-12.405517,12.356456],[-12.466754,12.384465],[-12.505072,12.390253],[-12.593671,12.361572],[-12.648009,12.425754],[-12.773272,12.435056],[-12.838617,12.466372],[-12.849211,12.495001],[-12.913135,12.536342],[-12.949489,12.535928],[-12.981038,12.466992],[-13.051989,12.472263],[-13.082711,12.515671],[-13.063642,12.62228],[-13.091703,12.638196],[-13.201903,12.63339],[-13.284146,12.653337],[-13.338613,12.63923],[-13.404758,12.661761],[-13.728279,12.673388],[-15.195114,12.679434],[-15.677049,12.439294],[-15.973258,12.437226],[-16.090512,12.464305],[-16.181876,12.443376],[-16.22239,12.455055],[-16.412301,12.361727],[-16.668874,12.356715],[-16.728437,12.332531],[-16.74413,12.378852],[-16.798736,12.430894],[-16.800771,12.494452],[-16.731679,12.552069],[-16.678822,12.550238],[-16.645375,12.570746],[-16.579742,12.632799],[-16.533315,12.565334],[-16.50475,12.598049],[-16.370961,12.550238],[-16.30956,12.598049],[-16.246693,12.587958],[-16.212229,12.60635],[-16.19286,12.577582],[-16.029775,12.632961],[-15.939605,12.580634],[-15.863881,12.577582],[-15.839996,12.557074],[-15.768788,12.592597],[-15.729604,12.591498],[-15.644765,12.537258],[-15.587717,12.55801],[-15.509836,12.63581],[-15.529856,12.665758],[-15.534901,12.783026],[-15.46642,12.796454],[-15.446156,12.824612],[-15.406809,12.799709],[-15.391591,12.838202],[-15.549469,12.794338],[-15.54247,12.6494],[-15.641021,12.559475],[-15.672109,12.570746],[-15.666412,12.600653],[-15.76769,12.625393],[-15.833485,12.591254],[-15.860463,12.611721],[-15.913319,12.601223],[-15.981191,12.652655],[-16.022125,12.72899],[-16.048899,12.656399],[-16.076812,12.638983],[-16.155019,12.611721],[-16.323842,12.609565],[-16.370961,12.564521],[-16.489573,12.631822],[-16.467193,12.673774],[-16.492299,12.681708],[-16.501332,12.707913],[-16.508168,12.625393],[-16.570221,12.69359],[-16.598785,12.664008],[-16.634674,12.669379],[-16.637929,12.69359],[-16.590728,12.76203],[-16.596913,12.797309],[-16.651031,12.705268],[-16.647206,12.632229],[-16.754628,12.572211],[-16.780873,12.608832],[-16.777089,12.678046],[-16.735463,12.732896],[-16.700551,12.721584],[-16.698964,12.736396],[-16.733957,12.75137],[-16.796213,12.715318],[-16.770131,12.793362],[-16.775054,12.81094],[-16.794057,12.794989],[-16.802968,12.814032],[-16.755238,12.903469],[-16.752125,13.088039],[-16.708407,13.156692],[-15.833318,13.156847],[-15.818694,13.333528],[-15.6925,13.360348],[-15.596123,13.355827],[-15.519539,13.3866],[-15.379237,13.362519],[-15.277073,13.380296],[-15.227774,13.425176],[-15.203951,13.536901],[-15.13765,13.589973],[-14.949703,13.463081],[-14.790333,13.417348],[-14.731577,13.359005],[-14.661607,13.340918],[-14.592154,13.35314],[-14.368834,13.235705],[-14.201687,13.229555],[-14.116808,13.282162],[-13.900568,13.314563],[-13.851036,13.33575],[-13.822562,13.378203],[-13.818713,13.429362],[-13.901343,13.541629],[-13.988495,13.579146],[-14.365553,13.454839],[-14.470275,13.522354],[-14.542596,13.640822],[-14.626674,13.663508],[-14.74093,13.615449],[-14.802942,13.65232],[-14.831312,13.735623],[-14.879268,13.780581],[-15.07631,13.818951],[-15.267255,13.741798],[-15.304462,13.781873],[-15.394069,13.771512],[-15.467501,13.708286],[-15.502486,13.588267],[-15.518195,13.5831],[-16.561399,13.586914],[-16.575754,13.640326],[-16.508168,13.687974],[-16.529286,13.700995],[-16.508901,13.74022],[-16.529286,13.742621],[-16.542104,13.693671],[-16.598866,13.654202],[-16.635569,13.678046],[-16.62975,13.760484],[-16.576405,13.838813],[-16.549143,13.82453],[-16.556549,13.845649],[-16.52184,13.851793],[-16.512929,13.8133],[-16.48705,13.804633],[-16.515696,13.879788],[-16.48705,14.002631],[-16.549428,13.869289],[-16.637929,13.845649],[-16.700063,13.769029],[-16.742421,13.839423],[-16.746816,13.951361],[-16.702504,13.989976],[-16.646311,13.982978],[-16.637929,13.961656],[-16.598988,13.996812],[-16.576405,13.988959],[-16.576772,14.010972],[-16.542348,14.03734],[-16.590728,14.043606],[-16.441477,14.156562],[-16.404693,14.145413],[-16.364735,14.167792],[-16.427724,14.170111],[-16.454742,14.180162],[-16.452952,14.20185],[-16.468739,14.193834],[-16.460357,14.15412],[-16.513173,14.151028],[-16.556549,14.071519],[-16.654164,14.002753],[-16.721059,14.016303],[-16.696848,14.064683],[-16.652252,14.099514],[-16.727895,14.064683],[-16.717112,14.042385],[-16.76887,13.961656],[-16.775054,13.838813],[-16.786,14.059719],[-16.82079,14.143459],[-16.878733,14.174547],[-16.898915,14.259955],[-16.945465,14.301418],[-16.939565,14.355862],[-16.956532,14.390123],[-17.070465,14.465399],[-17.137847,14.599026],[-17.22411,14.690416],[-17.330556,14.736314],[-17.417388,14.737698],[-17.439809,14.722073],[-17.419342,14.70897],[-17.439809,14.688463],[-17.426829,14.674872],[-17.439809,14.653754],[-17.536041,14.757392],[-17.370961,14.800279],[-17.322133,14.839016],[-17.172963,14.900824],[-16.878245,15.2331],[-16.534291,15.784369],[-16.507541,16.010393],[-16.470437,16.106357],[-16.465993,16.174053],[-16.444185,16.206299],[-16.385378,16.234927],[-16.334941,16.455793],[-16.295099,16.510621],[-16.195363,16.522714],[-16.132266,16.554753],[-16.05377,16.495428],[-15.896932,16.518424],[-15.672191,16.481372],[-15.609663,16.521318],[-15.52481,16.522197],[-15.463987,16.58147],[-15.414532,16.548035],[-15.328026,16.571961],[-15.125093,16.58271],[-15.093208,16.600176],[-15.118271,16.642603],[-15.107574,16.665392],[-15.036933,16.632578],[-14.974301,16.691385],[-14.912496,16.640639],[-14.49309,16.632474],[-14.406635,16.660793],[-14.335529,16.631544],[-14.335322,16.586482],[-14.277961,16.581263],[-14.268065,16.54788],[-14.214166,16.534961],[-14.073038,16.400654],[-13.97785,16.33797],[-13.964078,16.23007],[-13.883825,16.193741],[-13.835766,16.120568],[-13.794941,16.131213],[-13.729416,16.189504],[-13.71058,16.188884],[-13.719571,16.135605],[-13.668954,16.105736],[-13.484934,16.154984],[-13.501703,16.095143],[-13.440028,16.101861],[-13.388558,16.052096],[-13.369774,15.985485],[-13.315927,15.93045],[-13.31603,15.881771],[-13.27996,15.82286],[-13.286135,15.769633],[-13.228258,15.71129],[-13.248747,15.65672],[-13.237844,15.62344],[-13.178235,15.628194],[-13.109712,15.596413],[-13.091806,15.575123],[-13.083845,15.49275],[-12.96432,15.509158],[-12.918974,15.365368],[-12.828049,15.283874],[-12.83345,15.269999],[-12.884196,15.270826],[-12.888356,15.250879],[-12.856782,15.221992],[-12.787225,15.214163],[-12.779758,15.146389],[-12.717049,15.10342],[-12.622946,15.102258],[-12.484892,15.017276],[-12.447633,14.907437],[-12.26413,14.774939]]]}}]}
