{"type":"FeatureCollection","features":[{"type":"Feature","properties":{"name":"Somalia","ISO3166-1-Alpha-3":"SOM","ISO3166-1-Alpha-2":"SO"},"geometry":{"type":"Polygon","coordinates":[[[46.466963,6.538292],[47.979169,7.996567],[48.939111,9.451233],[48.939112,11.24913],[49.239594,11.300279],[49.303477,11.345445],[49.4192,11.344794],[49.521739,11.393785],[49.576834,11.460028],[49.686778,11.474351],[49.851248,11.464911],[49.942149,11.51557],[50.07252,11.508734],[50.161876,11.563381],[50.268321,11.589301],[50.372325,11.668931],[50.437022,11.690619],[50.512706,11.771226],[50.52947,11.859524],[50.561209,11.907904],[50.641124,11.954413],[50.797864,11.989119],[50.867055,11.942891],[50.970083,11.932323],[51.048839,11.878648],[51.127696,11.878648],[51.292698,11.833108],[51.249359,11.728775],[51.247801,11.652391],[51.12086,11.505316],[51.125011,11.447984],[51.081309,11.341498],[51.07252,11.233791],[51.085948,11.187974],[51.189504,11.138306],[51.12379,11.038764],[51.115082,10.993354],[51.138194,10.676744],[51.160655,10.598456],[51.107432,10.576565],[51.092296,10.482164],[51.035818,10.467515],[51.010102,10.434027],[51.038097,10.416083],[51.220388,10.442043],[51.176117,10.562812],[51.292532,10.480075],[51.395173,10.479023],[51.417038,10.447485],[51.397509,10.395793],[51.367419,10.367726],[51.272873,10.377905],[51.240977,10.425605],[51.090099,10.407313],[50.927389,10.327844],[50.901703,10.234442],[50.912814,10.176853],[50.8838,10.101264],[50.901703,10.011664],[50.806163,9.624457],[50.840343,9.456122],[50.830333,9.419623],[50.768321,9.319281],[50.689464,9.274848],[50.646983,9.211371],[50.633637,9.073188],[50.439708,8.88817],[50.374278,8.698879],[50.326508,8.641099],[50.303477,8.504584],[50.256196,8.472561],[50.156423,8.320624],[50.091075,8.161038],[49.929373,8.051744],[49.824229,7.933905],[49.803233,7.82689],[49.823416,7.805325],[49.825043,7.757758],[49.752208,7.650295],[49.744151,7.589057],[49.586599,7.314765],[49.367035,7.025702],[49.247325,6.810614],[49.074718,6.415269],[49.085623,6.307359],[49.036143,6.144232],[48.646739,5.480048],[48.548106,5.375067],[48.448009,5.208726],[48.202403,4.908922],[48.055675,4.612942],[47.948497,4.457099],[46.834239,3.232489],[46.625743,3.023912],[46.351573,2.788642],[46.289399,2.696234],[46.236501,2.667629],[46.047618,2.455064],[45.826345,2.308824],[45.232188,1.967678],[45.001475,1.86636],[44.550059,1.559068],[44.332774,1.38996],[44.221365,1.275621],[44.157888,1.24079],[44.138031,1.191596],[43.97877,1.068671],[43.932628,1.009833],[43.781912,0.921617],[43.734223,0.854967],[43.658946,0.804918],[42.770274,-0.129327],[42.580333,-0.29754],[42.550792,-0.357599],[42.519298,-0.369317],[42.479747,-0.422052],[42.47641,-0.465997],[42.465994,-0.449395],[42.412608,-0.490981],[42.166515,-0.802667],[42.071544,-0.828709],[42.071951,-0.884454],[42.016368,-0.968032],[41.971934,-0.99977],[41.95281,-0.894464],[41.946462,-0.954767],[41.97169,-1.023614],[41.873871,-1.176039],[41.872895,-1.195489],[41.897472,-1.183201],[41.885427,-1.209649],[41.862804,-1.212335],[41.829112,-1.168878],[41.836599,-1.262302],[41.65211,-1.565118],[41.610606,-1.593194],[41.535085,-1.696303],[41.522871,-1.572771],[40.979751,-0.870798],[40.965385,2.814145],[40.979751,2.841895],[41.342727,3.201149],[41.912201,4.007974],[41.923466,4.070554],[42.068367,4.174553],[42.13534,4.200081],[42.297294,4.201734],[42.831628,4.302322],[42.899634,4.361104],[42.960406,4.517374],[43.119259,4.647702],[43.528485,4.841566],[43.932284,4.945203],[44.912586,4.899392],[44.941525,4.911484],[45.935986,5.996689],[46.466963,6.538292]]]}}]}
