{"type":"FeatureCollection","features":[{"type":"Feature","properties":{"name":"Suriname","ISO3166-1-Alpha-3":"SUR","ISO3166-1-Alpha-2":"SR"},"geometry":{"type":"Polygon","coordinates":[[[-54.080805,3.309314],[-54.176559,3.200581],[-54.211182,3.127407],[-54.177076,3.116555],[-54.190667,3.059143],[-54.162968,2.955996],[-54.191339,2.877345],[-54.170203,2.853057],[-54.285338,2.677977],[-54.375617,2.483777],[-54.423469,2.435925],[-54.493387,2.417063],[-54.531576,2.340168],[-54.584751,2.348333],[-54.634128,2.320118],[-54.704124,2.32482],[-54.703194,2.445847],[-54.743036,2.466517],[-54.841919,2.433496],[-54.880289,2.447345],[-54.978577,2.54305],[-54.959095,2.608989],[-55.120894,2.524808],[-55.137793,2.56217],[-55.171951,2.559328],[-55.25192,2.497885],[-55.32052,2.518297],[-55.354523,2.494888],[-55.37106,2.442539],[-55.399585,2.430189],[-55.608306,2.433961],[-55.724294,2.396909],[-55.773568,2.440059],[-55.853769,2.462642],[-55.971023,2.530338],[-55.996913,2.503259],[-56.013346,2.398821],[-56.050243,2.347041],[-56.10378,2.349057],[-56.146775,2.256194],[-56.072929,2.241518],[-56.03133,2.163487],[-55.918262,2.050393],[-55.922034,1.886217],[-55.953815,1.853273],[-56.019651,1.833507],[-56.209768,1.888542],[-56.273796,1.887509],[-56.347951,1.926602],[-56.429807,1.9227],[-56.579772,2.016803],[-56.677802,2.018405],[-56.70519,2.029645],[-56.801464,2.165967],[-56.838877,2.281102],[-56.880141,2.294796],[-56.883887,2.339755],[-56.938458,2.41143],[-56.930241,2.436183],[-56.959593,2.483777],[-56.951274,2.515455],[-57.000573,2.514163],[-56.997111,2.555142],[-57.027238,2.59359],[-57.020468,2.635447],[-57.05597,2.642372],[-57.102944,2.740454],[-57.08987,2.773889],[-57.13705,2.77115],[-57.126405,2.82603],[-57.174619,2.818951],[-57.202266,2.846236],[-57.219629,2.908299],[-57.183818,2.944679],[-57.234615,2.970362],[-57.226451,3.021264],[-57.205987,3.028137],[-57.248568,3.112369],[-57.233324,3.14167],[-57.286033,3.142393],[-57.280452,3.329772],[-57.308409,3.39491],[-57.366752,3.36561],[-57.425043,3.387495],[-57.430934,3.360623],[-57.476254,3.338945],[-57.522401,3.365248],[-57.554234,3.346748],[-57.649939,3.385944],[-57.664615,3.417544],[-57.644048,3.51666],[-57.702856,3.555676],[-57.72611,3.607197],[-57.829773,3.662439],[-57.875145,3.812197],[-57.942117,3.905447],[-58.032138,3.987716],[-58.065934,4.171839],[-57.953848,4.299015],[-57.952659,4.409732],[-57.837421,4.65088],[-57.88455,4.762863],[-57.925374,4.796142],[-57.918501,4.829758],[-57.842795,4.929881],[-57.773962,4.926445],[-57.686939,5.006259],[-57.610096,4.99135],[-57.517596,5.012434],[-57.490259,4.99135],[-57.280452,5.026103],[-57.321432,5.070157],[-57.288979,5.171029],[-57.247276,5.172373],[-57.233324,5.142116],[-57.184903,5.183147],[-57.237613,5.268723],[-57.26743,5.266295],[-57.253787,5.234927],[-57.280452,5.225341],[-57.288824,5.30854],[-57.331715,5.30761],[-57.332284,5.327867],[-57.265208,5.403366],[-57.24767,5.484931],[-57.163686,5.557074],[-57.102283,5.886416],[-57.066029,5.9501],[-56.956537,6.011574],[-56.830356,5.985557],[-56.659512,5.979716],[-56.57395,5.940756],[-55.936006,5.804661],[-55.897694,5.763007],[-55.897694,5.676703],[-55.884023,5.741929],[-55.915362,5.821771],[-55.899963,5.841964],[-55.933959,5.849827],[-55.951169,5.881511],[-55.900654,5.951945],[-55.844382,5.975962],[-55.637318,5.985907],[-55.335967,5.962708],[-55.2329,5.903266],[-55.14784,5.908177],[-55.103107,5.866412],[-55.129872,5.820746],[-55.101039,5.830499],[-55.08552,5.882799],[-55.010121,5.855536],[-54.981191,5.865465],[-54.950307,5.850287],[-54.900258,5.875393],[-54.863026,5.855536],[-54.903472,5.885403],[-54.933319,5.869672],[-55.016591,5.871975],[-55.12564,5.918647],[-55.159966,5.958114],[-55.116851,5.985256],[-55.044799,5.993105],[-54.77359,5.985256],[-54.471781,5.94097],[-54.036731,5.842351],[-53.986357,5.745665],[-54.031148,5.66931],[-54.061106,5.512885],[-54.170969,5.348375],[-54.332002,5.196196],[-54.343577,5.156379],[-54.448636,5.024294],[-54.450806,4.936728],[-54.486721,4.902958],[-54.47866,4.755189],[-54.435458,4.709404],[-54.423469,4.604345],[-54.450806,4.484224],[-54.394117,4.269818],[-54.41055,4.208581],[-54.334689,4.131713],[-54.353861,4.041718],[-54.18736,3.814678],[-54.125503,3.788736],[-54.050107,3.634534],[-54.017861,3.641458],[-53.988819,3.610995],[-54.00303,3.455397],[-54.080805,3.309314]]]}}]}
