{"type":"FeatureCollection","features":[{"type":"Feature","properties":{"name":"South Sudan","ISO3166-1-Alpha-3":"SSD","ISO3166-1-Alpha-2":"SS"},"geometry":{"type":"Polygon","coordinates":[[[35.920835,4.619332],[35.781222,4.619922],[35.778439,4.678338],[35.739402,4.681127],[35.711518,4.661608],[35.700365,4.589111],[35.610641,4.620014],[35.52218,4.780461],[35.570836,4.904313],[35.49564,4.926429],[35.396117,4.926429],[35.433715,5.003836],[35.411598,5.030376],[35.263419,4.948545],[35.245726,4.98172],[34.666277,4.76498],[34.381188,4.620158],[33.490648,3.749746],[33.164466,3.763053],[32.997241,3.885526],[32.840352,3.794291],[32.756429,3.769022],[32.371801,3.731065],[32.187782,3.61916],[32.16799,3.512242],[32.076161,3.53317],[32.030168,3.585932],[31.93002,3.59836],[31.901908,3.704297],[31.777884,3.816435],[31.68683,3.712824],[31.564771,3.689802],[31.523739,3.656083],[31.29502,3.774189],[31.214818,3.792354],[31.141489,3.785119],[31.077668,3.735303],[30.944447,3.679286],[30.839543,3.490202],[30.837683,3.562678],[30.779082,3.602598],[30.746939,3.674867],[30.693351,3.63195],[30.553463,3.60451],[30.562868,3.694866],[30.525247,3.867543],[30.456828,3.867595],[30.33792,3.927875],[30.189351,3.95609],[30.122688,4.102464],[30.0429,4.133108],[29.989363,4.21778],[29.924147,4.245582],[29.930348,4.308653],[29.882703,4.344025],[29.814852,4.346764],[29.787825,4.368804],[29.777696,4.523859],[29.796713,4.556028],[29.74514,4.583907],[29.715323,4.57967],[29.618533,4.641578],[29.535024,4.660699],[29.457612,4.669535],[29.44273,4.583442],[29.390226,4.493758],[29.33886,4.449549],[29.303927,4.387149],[29.242845,4.387356],[29.221296,4.340692],[29.173495,4.348004],[28.98622,4.495928],[28.903641,4.478591],[28.789953,4.48859],[28.783648,4.530371],[28.755433,4.553987],[28.695178,4.532593],[28.638644,4.432082],[28.570535,4.405107],[28.557306,4.373533],[28.496844,4.369011],[28.404137,4.277828],[28.357421,4.282866],[28.303161,4.352242],[28.177587,4.347229],[28.101726,4.442133],[28.04974,4.419137],[28.011241,4.480141],[28.014031,4.550033],[27.92923,4.569981],[27.914037,4.54931],[27.849132,4.553212],[27.772444,4.595819],[27.7526,4.777668],[27.685938,4.797899],[27.671882,4.855906],[27.640979,4.890943],[27.552716,4.900529],[27.514578,4.92244],[27.501349,4.96329],[27.43634,5.013158],[27.441301,5.070725],[27.264465,5.260145],[27.218059,5.42551],[27.261054,5.577593],[27.247515,5.592605],[27.217336,5.585397],[27.218369,5.645315],[27.123801,5.768745],[27.072745,5.791224],[27.036055,5.785126],[26.981071,5.859204],[26.916475,5.849644],[26.894255,5.889667],[26.81891,5.894628],[26.805061,5.957183],[26.776329,5.981884],[26.705016,6.009789],[26.602179,6.010616],[26.543578,6.030847],[26.48105,6.104951],[26.424826,6.072447],[26.42927,6.113091],[26.500067,6.167971],[26.508955,6.205462],[26.455625,6.230474],[26.452008,6.28029],[26.375837,6.312587],[26.28964,6.387208],[26.289124,6.459426],[26.27021,6.465653],[26.379867,6.619778],[26.378007,6.65329],[26.236207,6.72003],[26.147634,6.804702],[26.091203,6.830334],[26.073633,6.895136],[26.045418,6.899683],[26.035806,6.922266],[26.026091,6.99668],[25.969453,7.003553],[25.960461,7.024482],[25.888735,7.05187],[25.877469,7.087734],[25.800781,7.104942],[25.786209,7.142666],[25.592422,7.211241],[25.516768,7.269945],[25.481163,7.266173],[25.360033,7.335574],[25.316211,7.417223],[25.190431,7.501197],[25.165213,7.5799],[25.252546,7.62243],[25.279418,7.659482],[25.269909,7.760768],[25.216889,7.864069],[25.173171,7.888564],[25.059173,7.896108],[24.952616,7.996567],[24.917993,8.087027],[24.800171,8.180277],[24.614859,8.217148],[24.51285,8.207149],[24.431097,8.271408],[24.332085,8.245725],[24.206615,8.283268],[24.152872,8.317891],[24.121556,8.372307],[24.137162,8.438866],[24.193179,8.532426],[24.25054,8.579632],[24.211266,8.627071],[24.235761,8.682003],[24.170328,8.689327],[24.176953,8.709857],[24.380093,8.844216],[24.493833,8.858349],[24.558377,8.886746],[24.559307,8.999865],[24.659869,9.176986],[24.680178,9.373357],[24.792522,9.520402],[24.796398,9.818859],[24.913859,9.890715],[24.976284,9.967351],[25.028994,10.092047],[25.017057,10.168011],[25.07695,10.286867],[25.232754,10.322317],[25.327425,10.316581],[25.82848,10.419546],[25.893644,10.351333],[25.905426,10.181266],[26.010794,10.122691],[26.102623,9.987841],[26.179466,9.95898],[26.556859,9.520454],[26.625744,9.480663],[26.694318,9.476942],[27.080393,9.606831],[27.33924,9.612799],[27.769602,9.583318],[27.895072,9.59541],[27.997076,9.38493],[28.04511,9.331407],[28.843841,9.324545],[28.828745,9.427474],[28.913833,9.529031],[29.132258,9.667731],[29.483089,9.761679],[29.567321,9.841364],[29.613882,9.914461],[29.615432,10.058147],[30.012979,10.270485],[30.484578,9.972028],[30.765284,9.724291],[30.83696,9.749354],[31.164382,9.764005],[31.234817,9.792323],[31.664816,10.214236],[31.864184,10.472127],[31.942887,10.655552],[32.414073,11.050851],[32.430713,11.082193],[32.435363,11.107023],[32.364153,11.240013],[32.348754,11.30758],[32.34834,11.703163],[32.082207,11.999811],[32.746662,12.002731],[32.731779,12.216155],[33.209218,12.210367],[33.203017,12.128098],[33.144984,11.934673],[33.132427,11.686213],[33.083231,11.599164],[33.182088,10.843241],[33.140023,10.739036],[33.3813,10.645785],[33.468995,10.543905],[33.916978,10.174522],[33.966794,10.047269],[33.956097,9.933994],[33.973254,9.854852],[33.904886,9.7107],[33.881425,9.499215],[33.900855,9.45529],[34.070698,9.454592],[34.11185,8.626555],[34.090249,8.556507],[33.970774,8.445377],[33.824116,8.419487],[33.751872,8.368793],[33.695545,8.372875],[33.620407,8.460699],[33.552143,8.446824],[33.484757,8.474006],[33.480519,8.45765],[33.361353,8.434293],[33.23516,8.455635],[33.174078,8.404475],[33.161882,8.361506],[33.164363,8.292777],[33.208288,8.253683],[33.169944,8.205495],[33.185137,8.14108],[33.117544,8.104158],[32.9898,7.917244],[33.058323,7.797975],[33.120851,7.783299],[33.164518,7.801127],[33.233919,7.783195],[33.29159,7.733069],[33.347142,7.718961],[33.462329,7.749502],[33.550851,7.691315],[33.637202,7.691315],[33.71606,7.657156],[33.761071,7.598142],[33.882407,7.536079],[34.006534,7.409936],[34.030615,7.3487],[34.033612,7.250256],[34.132417,7.163388],[34.181407,7.167212],[34.198253,7.064376],[34.280729,6.980092],[34.439169,6.934875],[34.503661,6.89002],[34.523298,6.844183],[34.511102,6.814314],[34.524745,6.752871],[34.618486,6.736541],[34.703545,6.684916],[34.733518,6.637606],[34.784264,6.44183],[34.832633,6.353541],[34.844725,6.248689],[34.959447,6.061724],[34.969782,5.996689],[34.955313,5.952558],[34.979911,5.912844],[34.974433,5.863106],[35.079543,5.699782],[35.098663,5.622474],[35.261961,5.511887],[35.27364,5.479873],[35.250695,5.435147],[35.287489,5.374092],[35.344953,5.352362],[35.430219,5.427215],[35.469287,5.430755],[35.598168,5.368743],[35.683641,5.379595],[35.80415,5.318023],[35.775315,5.24658],[35.807354,5.144674],[35.755884,5.063439],[35.751647,4.854356],[35.784513,4.764181],[35.920835,4.619332]]]}}]}
