{"type":"FeatureCollection","features":[{"type":"Feature","properties":{"name":"El Salvador","ISO3166-1-Alpha-3":"SLV","ISO3166-1-Alpha-2":"SV"},"geometry":{"type":"MultiPolygon","coordinates":[[[[-90.098307,13.731404],[-90.106976,13.844066],[-90.022976,13.936954],[-89.835855,14.059091],[-89.747644,14.037646],[-89.752605,14.07524],[-89.689844,14.170015],[-89.524505,14.231768],[-89.558586,14.302823],[-89.598351,14.32799],[-89.576078,14.35313],[-89.584062,14.401809],[-89.555175,14.410827],[-89.541351,14.381526],[-89.503033,14.420051],[-89.4311,14.418708],[-89.398182,14.445373],[-89.396864,14.426046],[-89.153985,14.351296],[-89.107476,14.39597],[-89.09448,14.344862],[-89.032985,14.323675],[-88.965986,14.191383],[-88.906016,14.199574],[-88.881263,14.1842],[-88.838759,14.100407],[-88.746387,14.111336],[-88.746645,14.052477],[-88.704865,14.038033],[-88.690938,14.009999],[-88.633862,14.014469],[-88.504361,13.983695],[-88.496816,13.851197],[-88.392946,13.879774],[-88.360106,13.872384],[-88.355067,13.890962],[-88.285433,13.905974],[-88.236367,13.938143],[-88.244893,13.989251],[-88.125391,13.991266],[-88.087538,13.980543],[-88.015321,13.866364],[-87.954782,13.892461],[-87.925326,13.879619],[-87.860911,13.890187],[-87.817891,13.91587],[-87.790606,13.870472],[-87.703608,13.814998],[-87.755026,13.689915],[-87.789934,13.532819],[-87.779469,13.509978],[-87.733426,13.507704],[-87.721153,13.460833],[-87.817169,13.406562],[-87.838287,13.440945],[-87.873769,13.365261],[-87.791534,13.304958],[-87.789906,13.287014],[-87.817983,13.250393],[-87.912465,13.198188],[-87.892934,13.166571],[-87.928212,13.158637],[-88.324941,13.166571],[-88.352284,13.174018],[-88.328114,13.197089],[-88.358429,13.228664],[-88.337921,13.194525],[-88.391754,13.193915],[-88.40685,13.18769],[-88.365875,13.180243],[-88.414825,13.171576],[-88.441029,13.208197],[-88.427358,13.201361],[-88.413686,13.221218],[-88.449574,13.254584],[-88.462148,13.262234],[-88.454701,13.215033],[-88.529775,13.242947],[-88.553985,13.276435],[-88.598663,13.283881],[-88.722768,13.269599],[-88.577382,13.262844],[-88.53661,13.221218],[-88.598663,13.228664],[-88.473907,13.198635],[-88.4617,13.16828],[-88.527455,13.198432],[-88.785675,13.245266],[-89.251454,13.472317],[-89.384999,13.495307],[-89.527067,13.494173],[-89.679766,13.534732],[-89.808048,13.526858],[-89.849662,13.606876],[-90.098307,13.731404]]],[[[-87.726293,13.198387],[-87.706087,13.211726],[-87.693194,13.167862],[-87.723111,13.164078],[-87.726293,13.198387]]],[[[-87.765782,13.248011],[-87.751387,13.228925],[-87.763805,13.214287],[-87.780169,13.241643],[-87.765782,13.248011]]]]}}]}
