{"type":"FeatureCollection","features":[{"type":"Feature","properties":{"name":"Syria","ISO3166-1-Alpha-3":"SYR","ISO3166-1-Alpha-2":"SY"},"geometry":{"type":"Polygon","coordinates":[[[35.75759,32.744347],[35.834226,32.827946],[35.849729,32.895823],[35.888073,32.944941],[35.85903,32.99021],[35.848902,33.098678],[35.811488,33.111908],[35.830195,33.189991],[35.807664,33.201721],[35.803633,33.248463],[35.768597,33.272699],[35.802083,33.31249],[35.763842,33.334401],[35.809938,33.360032],[35.8211,33.406722],[35.919492,33.462351],[35.933238,33.527825],[36.035247,33.567797],[36.029666,33.59764],[35.921559,33.640299],[35.948431,33.70921],[36.05044,33.816438],[36.13829,33.850622],[36.165678,33.829797],[36.231824,33.852534],[36.357501,33.823776],[36.36763,33.857547],[36.311096,33.87199],[36.268928,33.906769],[36.288565,33.946508],[36.391091,34.044719],[36.47522,34.053504],[36.488449,34.088644],[36.604101,34.199102],[36.56276,34.262949],[36.581984,34.299897],[36.518628,34.353641],[36.52514,34.422939],[36.449795,34.464538],[36.433466,34.49433],[36.335384,34.493477],[36.319881,34.514122],[36.383546,34.553809],[36.388921,34.596236],[36.436256,34.597838],[36.440184,34.62936],[36.367526,34.629205],[36.308925,34.687548],[36.26159,34.627242],[36.037934,34.62843],[35.9699,34.649849],[35.866873,34.924221],[35.900564,35.021918],[35.887869,35.109198],[35.962413,35.197943],[35.915294,35.287909],[35.928966,35.321479],[35.918956,35.41767],[35.81837,35.508938],[35.770518,35.504218],[35.778087,35.541164],[35.723399,35.582099],[35.778494,35.612738],[35.771169,35.667792],[35.800059,35.681464],[35.840343,35.747463],[35.835948,35.789984],[35.798595,35.849677],[35.87086,35.851793],[35.911305,35.91775],[35.980263,35.926852],[36.003931,35.869181],[36.157617,35.822569],[36.174877,35.922666],[36.196891,35.951708],[36.269031,35.958736],[36.277506,35.994187],[36.29735,36.000749],[36.358018,35.99398],[36.373004,36.227609],[36.450726,36.19991],[36.480181,36.225542],[36.664253,36.229004],[36.648646,36.305899],[36.577643,36.332874],[36.593352,36.373492],[36.552735,36.408166],[36.531237,36.479015],[36.565344,36.5325],[36.569271,36.620143],[36.639861,36.828089],[36.964699,36.75383],[37.018443,36.706649],[37.014515,36.642261],[37.053066,36.619936],[37.104432,36.650994],[37.241892,36.65859],[37.446117,36.634199],[37.654063,36.732126],[37.819738,36.760548],[38.122975,36.884623],[38.224261,36.908394],[38.479956,36.855736],[38.66413,36.719517],[38.725005,36.693937],[39.03217,36.701172],[39.239599,36.661278],[39.765252,36.742151],[40.190136,36.884416],[40.413894,37.004022],[40.525722,37.025881],[40.708967,37.100476],[40.896449,37.122696],[41.20134,37.064974],[41.479773,37.075568],[42.009249,37.175613],[42.211201,37.324906],[42.22319,37.288139],[42.292023,37.285064],[42.346696,37.239769],[42.335328,37.171169],[42.377186,37.062235],[41.843781,36.617869],[41.789935,36.589292],[41.385411,36.516377],[41.276994,36.354785],[41.236687,36.060332],[41.354509,35.825566],[41.363501,35.655241],[41.34221,35.593694],[41.261078,35.494165],[41.243095,35.366525],[41.20134,35.243018],[41.204234,34.793123],[40.965282,34.401855],[40.690467,34.331497],[38.774511,33.371685],[36.819385,32.316788],[36.689574,32.319656],[36.653504,32.342859],[36.387887,32.379317],[36.177357,32.527318],[36.066253,32.517319],[36.005998,32.607907],[36.003621,32.655088],[35.955355,32.657439],[35.944193,32.690771],[35.75759,32.744347]]]}}]}
