{"type":"FeatureCollection","features":[{"type":"Feature","properties":{"name":"eSwatini","ISO3166-1-Alpha-3":"SWZ","ISO3166-1-Alpha-2":"SZ"},"geometry":{"type":"Polygon","coordinates":[[[31.949243,-25.958104],[32.070579,-26.009781],[32.057454,-26.0412],[32.081432,-26.14879],[32.039884,-26.283666],[32.052338,-26.386812],[32.107063,-26.500293],[32.117398,-26.582252],[32.113884,-26.840014],[32.073163,-26.811386],[31.990068,-26.808285],[31.942112,-27.10067],[31.947383,-27.255493],[31.96826,-27.316264],[31.52653,-27.31089],[31.141954,-27.196478],[30.953645,-27.000315],[30.955092,-26.891381],[30.902589,-26.831333],[30.880213,-26.772215],[30.80244,-26.808905],[30.785697,-26.716921],[30.782906,-26.472388],[30.804559,-26.397457],[30.969871,-26.209148],[31.119836,-25.910045],[31.309282,-25.757393],[31.401473,-25.735999],[31.834573,-25.982082],[31.863357,-25.989937],[31.949243,-25.958104]]]}}]}
