{"type":"FeatureCollection","features":[{"type":"Feature","properties":{"name":"Turks and Caicos Islands","ISO3166-1-Alpha-3":"TCA","ISO3166-1-Alpha-2":"TC"},"geometry":{"type":"MultiPolygon","coordinates":[[[[-72.460764,21.70539],[-72.43342,21.709215],[-72.433258,21.680121],[-72.481313,21.630316],[-72.460764,21.70539]]],[[[-71.507965,21.70539],[-71.590566,21.753811],[-71.576283,21.766832],[-71.480946,21.725491],[-71.451894,21.690172],[-71.459584,21.664455],[-71.507965,21.70539]]],[[[-71.802846,21.787909],[-71.83552,21.79149],[-71.850657,21.856269],[-71.809397,21.839993],[-71.678782,21.841864],[-71.63093,21.774319],[-71.679311,21.822089],[-71.645172,21.746405],[-71.686147,21.774319],[-71.699818,21.759996],[-71.741119,21.794908],[-71.802846,21.787909]]],[[[-72.337229,21.800971],[-72.330434,21.862454],[-72.23176,21.793362],[-72.179596,21.800971],[-72.146311,21.827135],[-72.124379,21.815253],[-72.159088,21.774319],[-72.165273,21.794827],[-72.194447,21.766913],[-72.234242,21.766832],[-72.234242,21.781155],[-72.29186,21.748928],[-72.30309,21.774319],[-72.281239,21.761542],[-72.275136,21.774319],[-72.316151,21.794827],[-72.315419,21.770819],[-72.339508,21.766669],[-72.309926,21.822089],[-72.337229,21.800971]]],[[[-72.021962,21.904608],[-72.036244,21.938788],[-72.017445,21.956936],[-71.911041,21.948432],[-71.903391,21.866523],[-71.857411,21.843166],[-71.894643,21.83218],[-71.954254,21.866929],[-71.947581,21.94245],[-71.991933,21.899888],[-72.021962,21.904608]]],[[[-71.138092,21.513617],[-71.128896,21.472235],[-71.144887,21.431627],[-71.138092,21.513617]]],[[[-71.687815,21.299791],[-71.674062,21.306545],[-71.699086,21.291938],[-71.687815,21.299791]]],[[[-71.634348,21.318793],[-71.628814,21.324368],[-71.634674,21.294501],[-71.634348,21.318793]]],[[[-71.209828,21.341376],[-71.192494,21.335028],[-71.213694,21.310614],[-71.209828,21.341376]]],[[[-71.49828,21.569403],[-71.496327,21.507392],[-71.520985,21.489325],[-71.539703,21.516547],[-71.508941,21.527818],[-71.49828,21.569403]]],[[[-72.124908,21.854641],[-72.119496,21.857896],[-72.124379,21.846869],[-72.124908,21.854641]]],[[[-72.094797,21.882514],[-72.087026,21.880927],[-72.093007,21.867174],[-72.094797,21.882514]]]]}}]}
