{"type":"FeatureCollection","features":[{"type":"Feature","properties":{"name":"Thailand","ISO3166-1-Alpha-3":"THA","ISO3166-1-Alpha-2":"TH"},"geometry":{"type":"MultiPolygon","coordinates":[[[[102.913585,11.645901],[102.893321,11.76968],[102.777029,11.902533],[102.766938,12.011786],[102.631847,12.152045],[102.653575,12.159166],[102.605724,12.221259],[102.557302,12.183743],[102.582367,12.049262],[102.553884,12.056789],[102.532237,12.113593],[102.473643,12.148993],[102.350352,12.195705],[102.324474,12.180325],[102.295909,12.190009],[102.263194,12.289537],[102.29005,12.282904],[102.336274,12.30744],[102.359874,12.347073],[102.352061,12.367255],[102.324474,12.365302],[102.345063,12.344794],[102.33074,12.327826],[102.291677,12.318061],[102.286143,12.385688],[102.304047,12.427395],[102.27003,12.392564],[102.27003,12.440375],[102.242442,12.426256],[102.20574,12.435777],[102.208507,12.3994],[102.23585,12.413723],[102.273448,12.326158],[102.264822,12.30622],[102.228282,12.323676],[102.12436,12.410549],[102.087169,12.464748],[102.078136,12.509263],[102.098643,12.495592],[102.08546,12.50434],[102.112315,12.537258],[102.092947,12.523383],[102.078136,12.529731],[102.098643,12.543402],[102.047862,12.542304],[102.064464,12.570746],[102.009288,12.564521],[102.043224,12.523505],[102.064464,12.522935],[102.056977,12.468329],[102.008962,12.534084],[101.960785,12.537258],[101.94988,12.60635],[101.934255,12.583726],[101.947765,12.529731],[101.830251,12.672797],[101.766124,12.705878],[101.686371,12.702135],[101.659841,12.660102],[101.581065,12.652655],[101.571056,12.632148],[101.465099,12.63231],[101.418142,12.595649],[101.323497,12.642157],[101.087738,12.680609],[100.988617,12.649359],[100.974457,12.598049],[100.926117,12.619127],[100.940766,12.636379],[100.917654,12.662584],[100.857921,12.652655],[100.864594,12.701117],[100.837413,12.707913],[100.867931,12.771145],[100.8921,12.762519],[100.919932,12.81094],[100.864594,12.919582],[100.899587,12.982245],[100.933604,13.002753],[100.878266,13.098334],[100.94516,13.200914],[100.912446,13.29385],[100.932384,13.338121],[100.981293,13.359036],[100.970876,13.437201],[100.995779,13.496161],[100.96339,13.471381],[100.888927,13.468248],[100.679861,13.509223],[100.592052,13.554511],[100.59783,13.61225],[100.575857,13.519599],[100.337169,13.481879],[100.275076,13.516669],[100.237153,13.477362],[100.053071,13.413031],[100.021658,13.366604],[100.001313,13.372016],[100.015636,13.365871],[100.006196,13.332831],[99.962738,13.309882],[99.967133,13.259019],[100.073985,13.152777],[100.10434,13.057318],[99.987641,12.790473],[99.96046,12.667914],[99.980805,12.454657],[100.012218,12.36872],[99.982758,12.270453],[100.02003,12.192694],[99.955333,12.072496],[99.831228,11.924709],[99.836925,11.843451],[99.809825,11.824612],[99.817068,11.741441],[99.780447,11.73725],[99.751801,11.709866],[99.641856,11.523261],[99.625743,11.440497],[99.569347,11.33397],[99.586192,11.195136],[99.569347,11.179145],[99.562022,11.19892],[99.528575,11.186835],[99.496349,11.13288],[99.51531,11.039211],[99.494151,10.967475],[99.511567,10.86636],[99.443207,10.870347],[99.435069,10.801825],[99.375011,10.711982],[99.37436,10.681383],[99.313162,10.647366],[99.288259,10.562934],[99.240408,10.521877],[99.268321,10.508205],[99.240408,10.456977],[99.288748,10.412014],[99.285004,10.364488],[99.234141,10.343695],[99.200043,10.378485],[99.151622,10.357367],[99.168956,10.287746],[99.22462,10.232367],[99.254649,10.234442],[99.24171,10.214504],[99.201345,10.210639],[99.151622,10.103461],[99.178884,10.025295],[99.158458,9.990546],[99.17213,9.850246],[99.144786,9.788235],[99.223155,9.542629],[99.323578,9.391547],[99.290782,9.390082],[99.235525,9.33633],[99.234141,9.278266],[99.255056,9.232489],[99.350759,9.219184],[99.378184,9.192939],[99.474783,9.200995],[99.535818,9.281684],[99.593516,9.274848],[99.689464,9.315863],[99.781586,9.308417],[99.803396,9.322659],[99.853526,9.294664],[99.885997,9.233303],[99.886485,9.157904],[99.91627,9.101996],[99.933116,9.000556],[99.919444,8.980048],[99.92628,8.863349],[99.967133,8.605658],[100.040782,8.545559],[100.098481,8.426459],[100.144216,8.388821],[100.18629,8.397203],[100.164806,8.50137],[100.131114,8.514553],[100.150645,8.522935],[100.180837,8.501207],[100.22047,8.448717],[100.271495,8.317084],[100.440196,7.476996],[100.5746,7.209153],[100.573985,7.194973],[100.548139,7.19705],[100.472423,7.258857],[100.425548,7.267564],[100.438975,7.294135],[100.408122,7.37869],[100.406016,7.527655],[100.389508,7.566181],[100.358927,7.57861],[100.325564,7.57448],[100.289561,7.518215],[100.272634,7.531073],[100.275564,7.576972],[100.323497,7.6164],[100.320567,7.707953],[100.288748,7.788316],[100.210623,7.780911],[100.144786,7.719428],[100.17921,7.531195],[100.225108,7.479478],[100.278819,7.362209],[100.370128,7.332709],[100.384939,7.266303],[100.426872,7.245309],[100.392345,7.222561],[100.424436,7.171206],[100.494802,7.136623],[100.555869,7.144695],[100.588634,7.179592],[100.58542,7.224402],[100.765147,6.98314],[100.827347,6.951699],[100.849946,6.962063],[100.997573,6.856675],[101.191417,6.861884],[101.244267,6.902029],[101.351329,6.875922],[101.328298,6.917873],[101.262543,6.94477],[101.291731,6.954572],[101.557384,6.841783],[101.771658,6.500718],[102.07309,6.257514],[102.060002,6.094797],[101.934739,5.981729],[101.912931,5.859308],[101.800483,5.739909],[101.726793,5.78647],[101.665918,5.765592],[101.630778,5.828405],[101.634085,5.855587],[101.557914,5.911346],[101.248993,5.786986],[101.212302,5.681515],[101.122179,5.62989],[101.059805,5.709575],[100.99862,5.729548],[100.965289,5.792412],[101.015312,5.898349],[101.07877,5.938166],[101.094273,6.085754],[101.052519,6.134562],[101.053449,6.15761],[101.089157,6.188848],[101.081664,6.246467],[101.023063,6.24099],[100.974281,6.272616],[100.910099,6.235796],[100.832997,6.236675],[100.805609,6.414803],[100.733882,6.456377],[100.729954,6.493197],[100.630684,6.444776],[100.467231,6.513221],[100.387391,6.522084],[100.329204,6.557766],[100.263316,6.700006],[100.166836,6.695122],[100.167198,6.566138],[100.145701,6.539524],[100.127289,6.442288],[100.090099,6.484849],[100.103526,6.533189],[100.080577,6.536811],[100.063324,6.506578],[99.991222,6.597846],[99.964122,6.593736],[99.960948,6.660549],[99.937348,6.66474],[99.867524,6.7626],[99.82488,6.769599],[99.797211,6.821682],[99.685802,6.877346],[99.69044,6.935492],[99.713878,6.942206],[99.680919,6.973619],[99.67921,7.02676],[99.748057,7.126044],[99.677582,7.123277],[99.672374,7.170722],[99.614106,7.136664],[99.557872,7.197455],[99.545421,7.266303],[99.585216,7.306708],[99.603526,7.376166],[99.549571,7.301825],[99.524669,7.311347],[99.525401,7.370022],[99.508149,7.384955],[99.488292,7.285712],[99.470714,7.279975],[99.378184,7.32095],[99.336599,7.383612],[99.347423,7.423489],[99.329845,7.503404],[99.295584,7.507148],[99.308849,7.528306],[99.292735,7.620673],[99.249766,7.627753],[99.255707,7.657375],[99.153087,7.730658],[99.130544,7.767239],[99.112153,7.705512],[99.091482,7.69184],[99.033214,7.722805],[99.014415,7.815009],[99.062266,7.859361],[99.069591,7.924872],[99.028087,7.903754],[98.967784,7.956204],[98.96046,8.006781],[98.917979,8.051337],[98.843598,8.002875],[98.800304,8.052436],[98.770274,8.023668],[98.747406,8.068264],[98.744151,8.214911],[98.727061,8.253852],[98.706554,8.225898],[98.703136,8.298529],[98.624034,8.281155],[98.626231,8.346096],[98.655447,8.379625],[98.603526,8.397203],[98.598888,8.374905],[98.526052,8.33633],[98.493663,8.343207],[98.486664,8.324897],[98.466319,8.335761],[98.428233,8.316962],[98.453136,8.294013],[98.462901,8.216132],[98.424978,8.148424],[98.405528,8.164496],[98.391287,8.136542],[98.356944,8.185004],[98.286876,8.219916],[98.199474,8.534369],[98.209727,8.581488],[98.247325,8.514553],[98.253103,8.534654],[98.219981,8.569159],[98.240489,8.651068],[98.219981,8.726223],[98.250743,8.759955],[98.261567,8.850653],[98.32488,8.975246],[98.364024,8.973944],[98.358084,8.995998],[98.391287,9.035305],[98.332693,9.026068],[98.329845,9.052069],[98.382009,9.071926],[98.32838,9.164374],[98.322276,9.209377],[98.339692,9.199774],[98.370779,9.226467],[98.351899,9.25137],[98.457205,9.548529],[98.486827,9.528062],[98.531098,9.566107],[98.46339,9.604438],[98.514171,9.654731],[98.493663,9.685736],[98.513194,9.694892],[98.493663,9.71369],[98.543956,9.706488],[98.565766,9.742621],[98.521007,9.754625],[98.507986,9.740383],[98.507986,9.774563],[98.555431,9.798041],[98.583018,9.842841],[98.549001,9.809272],[98.512706,9.836859],[98.549001,9.883734],[98.576182,9.87759],[98.589854,9.905463],[98.571625,9.915473],[98.59197,9.942694],[98.63087,9.952704],[98.59962,9.973863],[98.603526,9.993598],[98.72047,10.227932],[98.790383,10.500265],[98.777257,10.583231],[98.747905,10.623125],[98.756793,10.666068],[98.83007,10.763556],[98.868208,10.769886],[98.892082,10.808515],[98.981896,10.832415],[98.980242,10.918017],[99.001533,10.957627],[99.05507,10.94525],[99.076877,10.996513],[99.212993,11.108264],[99.243275,11.197664],[99.428173,11.496896],[99.449774,11.613763],[99.542585,11.640479],[99.606871,11.725694],[99.630022,11.815766],[99.561395,11.87292],[99.574004,11.976324],[99.518401,12.025934],[99.541655,12.140655],[99.452255,12.12939],[99.473752,12.187268],[99.387039,12.465907],[99.403265,12.575926],[99.276865,12.665585],[99.266736,12.702843],[99.224465,12.717468],[99.210719,12.792269],[99.175269,12.83343],[99.153151,12.913554],[99.16483,12.975514],[99.093207,13.038327],[99.102095,13.171342],[99.172789,13.199506],[99.190152,13.229504],[99.172789,13.300921],[99.187878,13.42714],[99.152015,13.581963],[99.152531,13.714875],[99.101165,13.778824],[99.090003,13.870111],[99.007114,13.949641],[98.935284,14.085395],[98.753693,14.200116],[98.706977,14.269983],[98.67039,14.267916],[98.601454,14.313649],[98.54771,14.377676],[98.418209,14.607559],[98.297493,14.721247],[98.243336,14.805118],[98.191143,14.98813],[98.198998,15.051382],[98.160447,15.106366],[98.19073,15.179178],[98.17719,15.220597],[98.232898,15.226798],[98.283024,15.289972],[98.38524,15.256253],[98.394748,15.280076],[98.377488,15.296458],[98.40343,15.360097],[98.474537,15.383481],[98.515464,15.363456],[98.533551,15.325965],[98.559906,15.355317],[98.567141,15.452546],[98.540269,15.711962],[98.574375,15.835985],[98.583781,15.976959],[98.546987,16.047497],[98.619127,16.051011],[98.679589,16.126149],[98.807229,16.110542],[98.835445,16.144545],[98.843093,16.208728],[98.883711,16.25875],[98.902521,16.381637],[98.843403,16.438378],[98.839579,16.472432],[98.788626,16.374557],[98.682379,16.273478],[98.663259,16.286656],[98.629463,16.402669],[98.631633,16.463131],[98.564247,16.551962],[98.56156,16.601727],[98.456657,16.723218],[98.474537,16.776652],[98.517531,16.803006],[98.49004,16.843211],[98.500582,16.862228],[98.524559,16.850445],[98.50947,16.892665],[98.484458,16.905894],[98.474537,16.950439],[98.417899,17.029039],[98.299664,17.064748],[98.294393,17.107587],[98.268348,17.107742],[98.278993,17.136578],[98.092648,17.312226],[98.08872,17.372791],[98.035494,17.405037],[97.982784,17.505444],[97.759335,17.691479],[97.74962,17.739849],[97.676136,17.830334],[97.69908,17.833331],[97.685541,17.880718],[97.754064,17.969034],[97.720061,18.053059],[97.694222,18.061508],[97.684301,18.146103],[97.617948,18.241678],[97.643269,18.27302],[97.637585,18.306326],[97.573816,18.333094],[97.528341,18.26532],[97.486483,18.29214],[97.452583,18.333611],[97.443075,18.403348],[97.351401,18.551169],[97.388918,18.542228],[97.427469,18.489519],[97.509531,18.491276],[97.617948,18.553158],[97.745692,18.571064],[97.759748,18.622792],[97.723368,18.851977],[97.657842,18.925719],[97.703318,18.964373],[97.727812,19.037082],[97.810804,19.11222],[97.812561,19.208467],[97.764089,19.266396],[97.806154,19.301097],[97.767086,19.397525],[97.84212,19.479381],[97.848632,19.567644],[98.008312,19.639112],[98.004591,19.723913],[98.024538,19.802978],[98.045622,19.807629],[98.072907,19.777295],[98.111355,19.77714],[98.213261,19.717764],[98.237548,19.664692],[98.307312,19.689988],[98.439603,19.68774],[98.488799,19.706705],[98.532621,19.675854],[98.623778,19.737504],[98.749248,19.763498],[98.80785,19.806544],[98.899317,19.748615],[99.000913,19.821013],[99.016829,20.041],[99.073466,20.101229],[99.177749,20.121796],[99.295675,20.062497],[99.441403,20.101617],[99.510339,20.15381],[99.525842,20.196184],[99.486258,20.245484],[99.466414,20.322172],[99.420629,20.375553],[99.651932,20.306824],[99.78717,20.334083],[99.837709,20.416843],[99.937135,20.445006],[99.985917,20.387025],[100.036147,20.373124],[100.099295,20.317805],[100.102964,20.263596],[100.152522,20.239153],[100.167095,20.292613],[100.209159,20.312999],[100.240372,20.372814],[100.306518,20.399686],[100.344345,20.389971],[100.46103,20.190707],[100.51281,20.155282],[100.548674,20.158021],[100.543351,20.06658],[100.483975,19.8807],[100.43142,19.838273],[100.379175,19.745669],[100.474259,19.524985],[100.566657,19.495633],[100.607016,19.540927],[100.633268,19.542167],[100.753002,19.48243],[100.879816,19.613584],[101.002548,19.610613],[101.124659,19.565112],[101.207961,19.589555],[101.254884,19.547154],[101.251731,19.494444],[101.192872,19.452793],[101.172356,19.376389],[101.178454,19.346624],[101.211269,19.326367],[101.235712,19.12811],[101.317877,19.05013],[101.326404,19.020546],[101.283926,18.981478],[101.224911,18.874766],[101.228632,18.795624],[101.205843,18.730072],[101.23473,18.658449],[101.160884,18.599796],[101.155355,18.556724],[101.077892,18.510422],[101.030298,18.427791],[101.082284,18.364203],[101.155407,18.322888],[101.130137,18.291159],[101.12838,18.245735],[101.162796,18.195299],[101.141609,18.123959],[101.165173,18.053421],[101.112308,18.011305],[101.066161,17.933997],[101.000842,17.884801],[101.000274,17.830489],[100.965186,17.797623],[100.975521,17.779794],[100.958571,17.764136],[100.953817,17.699799],[100.885656,17.595878],[100.901934,17.561927],[100.981515,17.547612],[101.132307,17.461674],[101.247029,17.592157],[101.383765,17.684916],[101.404022,17.715561],[101.388002,17.729307],[101.453476,17.751011],[101.468307,17.720367],[101.502724,17.765377],[101.556261,17.792145],[101.53404,17.80956],[101.570523,17.828887],[101.577551,17.868109],[101.600392,17.854364],[101.636204,17.894826],[101.729067,17.912189],[101.790407,18.073575],[101.883786,18.030839],[101.904301,18.037117],[102.078503,18.213799],[102.171934,18.200286],[102.191571,18.152071],[102.25658,18.094039],[102.306706,18.051457],[102.366392,18.038797],[102.412229,17.9942],[102.599608,17.955184],[102.61232,17.91529],[102.595267,17.840824],[102.68291,17.810077],[102.672988,17.865371],[102.852719,17.972031],[102.954935,18.012132],[103.037927,17.990686],[103.073067,18.035515],[103.07131,18.125561],[103.138593,18.166722],[103.168204,18.249766],[103.295379,18.287774],[103.240189,18.335988],[103.244065,18.380068],[103.306851,18.425672],[103.396768,18.441408],[103.5488,18.415415],[103.695562,18.353222],[103.801395,18.338262],[103.857774,18.286482],[103.881287,18.284415],[103.951257,18.332991],[104.000039,18.318444],[104.122357,18.095279],[104.210879,18.008618],[104.270307,17.874001],[104.352627,17.819327],[104.452001,17.665951],[104.702632,17.527303],[104.792704,17.423485],[104.819317,17.36106],[104.81446,17.194042],[104.740356,17.002581],[104.77901,16.704873],[104.753016,16.614801],[104.754515,16.528915],[104.855491,16.454087],[104.908046,16.35337],[105.015481,16.276734],[105.032586,16.165268],[105.058114,16.121188],[105.237225,16.050804],[105.422071,16.009877],[105.362488,15.95479],[105.360628,15.919391],[105.412046,15.79976],[105.447961,15.764879],[105.568522,15.749376],[105.640921,15.68199],[105.650998,15.634602],[105.604282,15.439214],[105.486253,15.374902],[105.477468,15.352811],[105.499017,15.324673],[105.558032,15.325138],[105.563975,15.272531],[105.463102,15.189436],[105.443775,15.133806],[105.45194,15.094765],[105.520877,15.066136],[105.553536,15.005338],[105.593068,14.990792],[105.534157,14.934025],[105.550642,14.902296],[105.543046,14.880101],[105.517776,14.877672],[105.524391,14.837235],[105.50155,14.827339],[105.489147,14.786334],[105.507544,14.564048],[105.415973,14.428164],[105.3351,14.385712],[105.29474,14.399071],[105.268592,14.36437],[105.155007,14.33047],[105.101419,14.230528],[105.047314,14.214069],[104.975949,14.301118],[104.97383,14.380648],[104.771672,14.439869],[104.712864,14.406848],[104.692865,14.433978],[104.66837,14.409638],[104.610441,14.418966],[104.542848,14.360391],[104.492619,14.374007],[104.452621,14.356928],[104.247466,14.401086],[104.201267,14.377987],[104.177031,14.404212],[104.140909,14.365998],[104.110213,14.380441],[104.001383,14.345069],[103.973994,14.36729],[103.919837,14.364577],[103.885162,14.340418],[103.824029,14.368039],[103.674891,14.386487],[103.67148,14.42956],[103.637064,14.44328],[103.596136,14.404342],[103.533401,14.419069],[103.449685,14.371579],[103.422503,14.384834],[103.362869,14.353466],[103.138231,14.319747],[102.918606,14.185492],[102.869772,14.020618],[102.772827,13.936076],[102.69862,13.761797],[102.54235,13.669709],[102.541058,13.6486],[102.597747,13.60545],[102.513205,13.567157],[102.332234,13.5646],[102.313424,13.541009],[102.330115,13.496361],[102.328203,13.27516],[102.38205,13.136615],[102.490157,12.996081],[102.467213,12.969468],[102.478892,12.953629],[102.464836,12.927532],[102.506642,12.787515],[102.479253,12.677108],[102.588549,12.609826],[102.762078,12.43609],[102.765127,12.416349],[102.720066,12.36121],[102.692212,12.178483],[102.843004,11.866047],[102.9138,11.765536],[102.928787,11.668695],[102.913585,11.645901]]],[[[97.871837,9.379584],[97.840017,9.404283],[97.843598,9.424954],[97.868419,9.420396],[97.871837,9.379584]]],[[[99.698741,9.542222],[99.703461,9.521308],[99.668142,9.519192],[99.698741,9.542222]]],[[[99.684255,9.620022],[99.678071,9.610419],[99.678233,9.624091],[99.684255,9.620022]]],[[[99.247813,6.574856],[99.257579,6.56094],[99.217296,6.536933],[99.158458,6.554389],[99.247813,6.574856]]],[[[99.672374,6.516547],[99.658702,6.492336],[99.600271,6.583441],[99.656993,6.723822],[99.704438,6.558295],[99.672374,6.516547]]],[[[99.405447,7.266303],[99.453868,7.239],[99.417247,7.235338],[99.383311,7.194078],[99.377778,7.252346],[99.385509,7.27558],[99.405447,7.266303]]],[[[99.034923,7.644273],[99.075857,7.608954],[99.086111,7.536526],[99.117442,7.479193],[99.099946,7.467231],[99.05714,7.504055],[99.031261,7.561916],[99.020681,7.636868],[99.034923,7.644273]]],[[[99.124278,7.657375],[99.108735,7.594184],[99.044607,7.663398],[99.067068,7.675198],[99.124278,7.657375]]],[[[98.540538,8.104926],[98.602387,8.063463],[98.603526,7.903754],[98.577322,7.919623],[98.563243,7.986314],[98.582286,8.015367],[98.551117,8.042548],[98.528494,8.123481],[98.540538,8.104926]]],[[[98.41863,7.903754],[98.431651,7.917426],[98.439789,7.886623],[98.399669,7.864569],[98.398123,7.815009],[98.343923,7.832913],[98.32309,7.770941],[98.29184,7.777493],[98.267751,7.890082],[98.28533,7.903754],[98.254161,7.92829],[98.281423,8.003079],[98.281423,8.191799],[98.330089,8.170478],[98.343516,8.109198],[98.360118,8.118842],[98.405528,8.082506],[98.422618,8.099311],[98.439138,8.082506],[98.41863,7.99315],[98.398123,7.972642],[98.41863,7.903754]]],[[[98.637543,8.171291],[98.62086,8.089993],[98.5796,8.106147],[98.570079,8.118883],[98.59669,8.130316],[98.624034,8.191799],[98.637543,8.171291]]],[[[98.295665,9.145168],[98.323009,9.076239],[98.309337,9.048977],[98.254242,9.036811],[98.240489,9.048977],[98.24822,9.150092],[98.273285,9.15998],[98.295665,9.145168]]],[[[100.07016,9.586412],[100.090668,9.56094],[100.060883,9.463813],[100.019298,9.425727],[99.946625,9.418199],[99.92628,9.565985],[99.959483,9.580756],[100.043712,9.564154],[100.07016,9.586412]]],[[[98.411632,9.768297],[98.416677,9.733466],[98.398123,9.706244],[98.384939,9.727932],[98.411632,9.768297]]],[[[100.035411,9.7956],[100.067231,9.775621],[100.090099,9.665269],[99.987641,9.719916],[99.970551,9.764594],[99.987641,9.801825],[100.035411,9.7956]]],[[[102.564138,11.707953],[102.58961,11.710028],[102.605968,11.684516],[102.598318,11.563381],[102.53004,11.604926],[102.5442,11.626044],[102.53004,11.68008],[102.555186,11.759833],[102.564138,11.707953]]],[[[102.399669,12.043158],[102.441173,11.967434],[102.427501,11.961371],[102.379161,12.002834],[102.37615,11.970893],[102.310883,11.981106],[102.31837,11.961168],[102.290375,11.97484],[102.2942,12.056789],[102.249522,12.153022],[102.342784,12.123603],[102.399669,12.043158]]],[[[97.869965,9.425238],[97.853282,9.461371],[97.895274,9.467353],[97.894786,9.438707],[97.869884,9.440741],[97.869965,9.425238]]],[[[98.288422,9.004462],[98.306977,8.957913],[98.261567,8.878567],[98.252208,8.997016],[98.260916,9.012926],[98.288422,9.004462]]]]}}]}
