{"type":"FeatureCollection","features":[{"type":"Feature","properties":{"name":"Tajikistan","ISO3166-1-Alpha-3":"TJK","ISO3166-1-Alpha-2":"TJ"},"geometry":{"type":"MultiPolygon","coordinates":[[[[70.565904,41.018376],[70.61665,40.99352],[70.645072,40.935177],[70.56146,40.994605],[70.549781,41.015224],[70.565904,41.018376]]],[[[70.958955,40.238372],[70.979522,40.214084],[70.929293,40.170624],[70.792144,40.161374],[70.66595,40.104168],[70.63944,40.084945],[70.613963,39.975752],[70.500895,39.940561],[70.477227,39.900925],[70.455627,39.906816],[70.450872,39.937408],[70.520946,39.993736],[70.535622,40.015957],[70.525493,40.033682],[70.324265,40.077503],[70.241531,40.132745],[70.14717,40.136983],[70.004595,40.208761],[69.575474,40.1036],[69.518009,40.125097],[69.463129,40.025413],[69.501576,39.922474],[69.405355,39.896119],[69.313991,39.986914],[69.240714,39.82894],[69.226296,39.751011],[69.287533,39.677786],[69.286189,39.539707],[69.300348,39.515625],[69.361637,39.552884],[69.412176,39.52503],[69.477288,39.530405],[69.582295,39.573555],[69.669421,39.577792],[69.830445,39.536244],[69.907753,39.548492],[69.978757,39.534436],[70.040355,39.573606],[70.148979,39.554279],[70.200655,39.619495],[70.214814,39.591125],[70.20603,39.5241],[70.223289,39.519088],[70.33026,39.573089],[70.384313,39.570867],[70.477227,39.601201],[70.526113,39.575622],[70.622128,39.563529],[70.655976,39.493714],[70.699746,39.472165],[70.713285,39.398423],[70.770129,39.382093],[70.903351,39.420851],[70.977145,39.394909],[71.009288,39.407622],[71.062928,39.495627],[71.095898,39.51237],[71.249273,39.514385],[71.368543,39.591486],[71.459545,39.612105],[71.531375,39.553091],[71.492101,39.493663],[71.512875,39.458833],[71.554319,39.444157],[71.740251,39.448343],[71.748106,39.379561],[71.710899,39.32096],[71.751207,39.274245],[71.807017,39.272849],[72.049793,39.368864],[72.094751,39.275072],[72.203272,39.24081],[72.228903,39.189237],[72.31634,39.328815],[72.393234,39.350829],[72.476744,39.346127],[72.519015,39.375686],[72.575756,39.359304],[72.633737,39.394496],[72.835275,39.356204],[73.009321,39.348607],[73.071126,39.370725],[73.167864,39.355377],[73.326408,39.390878],[73.367645,39.443795],[73.512236,39.467411],[73.604323,39.459608],[73.632642,39.448343],[73.643804,39.351294],[73.602256,39.235772],[73.607837,39.207324],[73.673776,39.142625],[73.70933,39.065472],[73.826119,38.976898],[73.809582,38.932663],[73.717185,38.918582],[73.680804,38.872977],[73.735892,38.800423],[73.736408,38.721669],[73.816403,38.586586],[73.932882,38.529665],[74.028897,38.527236],[74.058766,38.547028],[74.037269,38.598472],[74.084397,38.614027],[74.123361,38.669475],[74.221443,38.649709],[74.334201,38.666995],[74.64612,38.56111],[74.696453,38.52398],[74.760325,38.519975],[74.832879,38.463648],[74.838253,38.379416],[74.771074,38.29154],[74.790711,38.081449],[74.809935,38.053208],[74.880421,38.02166],[74.890756,37.897714],[74.913701,37.880841],[74.886106,37.83056],[74.965171,37.767463],[74.886106,37.653465],[74.891893,37.599205],[75.164125,37.400638],[75.091778,37.378443],[75.06842,37.312142],[74.951528,37.281291],[74.892307,37.231114],[74.78854,37.331159],[74.660383,37.393972],[74.521167,37.375601],[74.378126,37.393765],[74.315598,37.426916],[74.303816,37.400173],[74.223924,37.403351],[74.187647,37.338394],[73.709227,37.217006],[73.680494,37.242457],[73.617656,37.233181],[73.597295,37.261809],[73.630988,37.295993],[73.690416,37.305218],[73.739096,37.338342],[73.753462,37.428388],[73.6745,37.43105],[73.485261,37.480969],[73.378394,37.452547],[73.296332,37.464949],[73.211479,37.40826],[73.132104,37.384386],[73.067509,37.315062],[72.995575,37.3093],[72.902247,37.2538],[72.79073,37.220262],[72.657714,37.028826],[72.474987,36.997484],[72.405947,37.007665],[72.259806,36.967305],[71.836576,36.699156],[71.748519,36.678641],[71.653021,36.687012],[71.61106,36.704841],[71.552872,36.769591],[71.528481,36.856149],[71.463059,36.948082],[71.459958,37.010739],[71.431123,37.066989],[71.45014,37.21667],[71.493858,37.307543],[71.48714,37.409087],[71.511221,37.485878],[71.497165,37.566545],[71.542537,37.719559],[71.529515,37.761133],[71.590286,37.815729],[71.597727,37.89836],[71.537059,37.944455],[71.341154,37.893295],[71.258265,37.926472],[71.272631,37.997992],[71.359086,38.184105],[71.358156,38.251258],[71.334384,38.280662],[71.217699,38.325827],[71.117395,38.398639],[71.049802,38.408664],[70.998229,38.465664],[70.950739,38.473053],[70.936217,38.433004],[70.871002,38.45321],[70.777261,38.446466],[70.741811,38.419439],[70.664865,38.405409],[70.68476,38.38665],[70.600011,38.347066],[70.583061,38.275081],[70.547197,38.262653],[70.470303,38.120517],[70.253934,37.973394],[70.26153,37.939287],[70.214711,37.929262],[70.17213,37.946083],[70.165205,37.889911],[70.196004,37.839914],[70.247164,37.819166],[70.275121,37.774181],[70.283079,37.704831],[70.248301,37.623338],[70.216468,37.617137],[70.157867,37.541431],[70.007592,37.548846],[69.918812,37.617137],[69.80223,37.581506],[69.754274,37.596673],[69.664977,37.576157],[69.508656,37.578973],[69.491448,37.536986],[69.37838,37.437406],[69.409851,37.245661],[69.445197,37.23641],[69.442148,37.223621],[69.407732,37.177473],[69.323913,37.120991],[69.245675,37.103886],[69.123615,37.169205],[68.985225,37.320359],[68.887867,37.338135],[68.915824,37.279069],[68.835829,37.329144],[68.810197,37.312091],[68.820378,37.250906],[68.759606,37.275245],[68.668862,37.278294],[68.657545,37.267675],[68.671239,37.247185],[68.648605,37.244369],[68.626901,37.206257],[68.551453,37.192615],[68.523858,37.164658],[68.403711,37.151635],[68.418025,37.128277],[68.391877,37.105437],[68.288317,37.103214],[68.277775,37.010068],[68.186411,37.01831],[68.032725,36.925241],[67.87811,37.064431],[67.78535,37.096548],[67.780544,37.188868],[67.820645,37.303306],[67.801215,37.466448],[67.829224,37.527943],[68.050192,37.760409],[68.122229,37.908333],[68.248733,37.948951],[68.344334,38.115452],[68.35622,38.212604],[68.183724,38.335491],[68.098044,38.432436],[68.086882,38.494034],[68.055153,38.536305],[68.037635,38.691645],[68.075927,38.726862],[68.066729,38.787969],[68.135975,38.804506],[68.172562,38.845279],[68.163725,38.887472],[68.100938,38.979276],[68.069106,38.996096],[68.003373,38.982118],[67.963272,39.00191],[67.845243,38.973772],[67.690524,38.989611],[67.667218,39.028368],[67.66758,39.131773],[67.58035,39.163605],[67.499011,39.165983],[67.35008,39.219829],[67.346462,39.280808],[67.386873,39.294192],[67.427284,39.47661],[67.491156,39.490097],[67.487642,39.538001],[67.717603,39.623371],[68.337565,39.527924],[68.51745,39.54844],[68.506702,39.56756],[68.600339,39.642853],[68.626178,39.84961],[68.651086,39.844701],[68.685089,39.868007],[68.741623,39.819638],[68.787356,39.881701],[68.758883,39.980558],[68.838258,39.864648],[68.880787,39.878342],[68.789372,39.993994],[68.761725,40.061483],[68.774696,40.07988],[68.813143,40.038901],[68.881769,40.070837],[68.977267,40.064894],[68.986982,40.091714],[68.977267,40.121015],[68.930655,40.146801],[68.687052,40.110318],[68.581116,40.164216],[68.698318,40.194964],[68.801877,40.19114],[69.019229,40.232067],[69.197926,40.182975],[69.285259,40.194964],[69.285259,40.218631],[69.212498,40.268758],[69.208364,40.298317],[69.305309,40.293821],[69.312699,40.34281],[69.198442,40.566517],[69.30934,40.595818],[69.314198,40.729298],[69.355074,40.780354],[69.417757,40.804229],[69.509224,40.77467],[69.66012,40.638709],[69.717687,40.63628],[69.803315,40.70563],[70.009659,40.75803],[70.104227,40.813324],[70.280392,40.877713],[70.335892,40.92696],[70.363539,41.032432],[70.445705,41.025921],[70.70512,40.807433],[70.703157,40.788933],[70.628743,40.815856],[70.621766,40.785987],[70.637424,40.770587],[70.767132,40.737618],[70.732096,40.674986],[70.525493,40.557112],[70.477796,40.505487],[70.369637,40.475515],[70.353824,40.456136],[70.384933,40.399706],[70.371394,40.364927],[70.524046,40.34374],[70.581821,40.221732],[70.622128,40.199563],[70.958955,40.238372]]],[[[70.498725,39.881908],[70.619906,39.850695],[70.698919,39.858447],[70.70481,39.822067],[70.581614,39.766566],[70.490147,39.850179],[70.483739,39.882218],[70.498725,39.881908]]]]}}]}
