{"type":"FeatureCollection","features":[{"type":"Feature","properties":{"name":"East Timor","ISO3166-1-Alpha-3":"TLS","ISO3166-1-Alpha-2":"TL"},"geometry":{"type":"MultiPolygon","coordinates":[[[[124.450531,-9.18019],[124.427939,-9.299483],[124.347893,-9.37462],[124.332338,-9.466605],[124.310066,-9.488722],[124.257511,-9.501228],[124.253997,-9.438699],[124.210692,-9.378858],[124.167232,-9.380615],[124.121085,-9.426917],[124.090286,-9.421543],[124.03004,-9.341974],[124.159353,-9.296482],[124.221202,-9.241143],[124.450531,-9.18019]]],[[[124.919507,-8.962016],[124.974783,-8.922133],[125.036876,-8.824802],[125.096446,-8.795831],[125.106456,-8.688735],[125.144298,-8.631443],[125.381033,-8.571466],[125.603526,-8.548923],[125.63087,-8.52158],[125.733165,-8.52158],[125.850597,-8.483819],[126.069102,-8.52158],[126.240245,-8.494806],[126.411632,-8.419122],[126.511974,-8.452081],[126.548839,-8.486749],[126.720225,-8.412856],[126.799327,-8.410089],[126.967052,-8.309015],[127.088878,-8.362726],[127.13795,-8.362726],[127.206065,-8.332615],[127.313243,-8.415216],[127.021169,-8.675714],[126.93922,-8.692153],[126.846202,-8.752537],[126.694184,-8.763442],[126.583263,-8.805841],[126.472423,-8.942804],[126.165863,-8.988377],[125.947113,-9.125746],[125.849864,-9.1242],[125.678559,-9.193048],[125.593028,-9.18963],[125.378754,-9.28102],[125.263682,-9.357354],[125.211111,-9.41961],[125.130544,-9.43377],[125.061615,-9.485772],[125.023407,-9.345578],[124.965995,-9.293385],[124.957933,-9.211943],[125.007232,-9.186105],[125.073947,-9.211323],[125.150634,-9.185381],[125.162365,-9.060634],[125.086814,-8.98622],[125.051829,-9.035003],[124.965891,-9.077274],[124.933025,-9.074484],[124.90791,-9.037483],[124.919507,-8.962016]]],[[[125.569347,-8.196384],[125.605154,-8.153009],[125.650645,-8.142836],[125.59669,-8.299249],[125.573578,-8.317315],[125.503673,-8.270766],[125.569347,-8.196384]]]]}}]}
