{"type":"FeatureCollection","features":[{"type":"Feature","properties":{"name":"Tunisia","ISO3166-1-Alpha-3":"TUN","ISO3166-1-Alpha-2":"TN"},"geometry":{"type":"MultiPolygon","coordinates":[[[[11.505112,33.181225],[11.456541,32.902101],[11.449926,32.637957],[11.560617,32.507578],[11.546354,32.434275],[11.444035,32.36849],[10.873217,32.136696],[10.772861,32.004508],[10.703098,31.962185],[10.628477,31.974122],[10.605946,31.953606],[10.584552,31.84028],[10.498873,31.744317],[10.427766,31.714603],[10.315422,31.715843],[10.263952,31.680496],[10.116881,31.494409],[10.106235,31.429194],[10.244832,31.078156],[10.245038,30.985707],[10.270153,30.915633],[10.253927,30.841788],[10.192225,30.731252],[9.871314,30.355151],[9.743467,30.331328],[9.519708,30.228905],[9.045008,32.071842],[9.019893,32.104863],[8.331253,32.527628],[8.282884,32.836369],[8.086824,33.094286],[8.002178,33.108368],[7.871953,33.184125],[7.75072,33.207664],[7.724985,33.231409],[7.693153,33.454109],[7.553006,33.658748],[7.484897,33.855015],[7.517453,34.095026],[7.631451,34.199102],[7.765293,34.244707],[7.831542,34.414386],[8.094058,34.530142],[8.236479,34.647654],[8.210641,34.681192],[8.266554,34.750283],[8.248881,34.901953],[8.300454,35.06768],[8.431299,35.241726],[8.317404,35.289475],[8.294356,35.32508],[8.290016,35.402595],[8.337041,35.537935],[8.323605,35.652192],[8.257666,35.750325],[8.24144,35.827737],[8.275649,36.03682],[8.317094,36.145909],[8.307069,36.243629],[8.354404,36.350909],[8.357712,36.430387],[8.295597,36.46868],[8.167852,36.491365],[8.169919,36.525834],[8.430369,36.662621],[8.461788,36.732798],[8.406701,36.767989],[8.413109,36.783906],[8.554495,36.803646],[8.641725,36.836357],[8.60251,36.939511],[8.692149,36.969387],[8.824392,36.979478],[8.925792,37.038886],[9.038748,37.151842],[9.15919,37.192816],[9.210704,37.233832],[9.34254,37.235338],[9.419119,37.275824],[9.453868,37.268297],[9.552745,37.309516],[9.591482,37.302924],[9.649262,37.331855],[9.74464,37.345201],[9.858897,37.328803],[9.861664,37.271186],[9.771821,37.213324],[9.815929,37.151842],[9.879893,37.150092],[9.914317,37.17829],[9.924978,37.213121],[9.819591,37.227607],[9.882498,37.263577],[9.979828,37.246039],[10.059825,37.264838],[10.075857,37.24494],[10.146251,37.236518],[10.272146,37.178534],[10.211274,37.158677],[10.177989,37.177965],[10.128103,37.158677],[10.161632,37.134345],[10.211274,37.1376],[10.227061,37.117662],[10.224376,37.095933],[10.21754,37.110297],[10.174327,37.076239],[10.182384,37.027045],[10.220063,36.97663],[10.347179,36.880276],[10.298839,36.821763],[10.25294,36.84634],[10.210704,36.831855],[10.188487,36.797593],[10.247244,36.786282],[10.272146,36.816067],[10.320079,36.748765],[10.355317,36.731187],[10.436995,36.728839],[10.518713,36.755797],[10.584972,36.876166],[10.733466,36.895812],[10.887543,37.006008],[10.90211,37.048814],[11.012706,37.084784],[11.051036,37.080308],[11.04835,37.020331],[11.136227,36.87053],[11.130545,36.854039],[11.02214,36.788276],[10.799929,36.451885],[10.550928,36.377256],[10.491068,36.258066],[10.474695,36.112486],[10.518565,35.979967],[10.582286,35.92182],[10.622081,35.842597],[10.74362,35.769672],[10.82309,35.780463],[10.84142,35.766548],[10.824522,35.733389],[10.841156,35.698798],[11.040998,35.63773],[11.055022,35.614476],[11.0171,35.602281],[11.014903,35.555162],[11.039236,35.5185],[11.085057,35.506785],[11.050666,35.459782],[11.042233,35.334435],[11.101329,35.266832],[11.160782,35.238232],[11.15916,35.218757],[11.111578,35.205595],[11.062912,35.153639],[11.01588,35.092841],[11.018105,35.034191],[10.917654,34.957424],[10.916336,34.873569],[10.856293,34.830878],[10.871421,34.797367],[10.811262,34.76888],[10.717296,34.66474],[10.625255,34.633246],[10.597023,34.544713],[10.431895,34.496324],[10.378724,34.42308],[10.288097,34.414008],[10.247244,34.372138],[10.12672,34.325629],[10.032777,34.184655],[10.005219,34.17064],[10.0713,33.946234],[10.163097,33.836249],[10.330251,33.702826],[10.489268,33.647121],[10.716645,33.706936],[10.739992,33.671578],[10.736924,33.60285],[10.674083,33.5456],[10.703624,33.496039],[10.738129,33.478013],[10.909434,33.539618],[10.932791,33.574042],[10.906505,33.616441],[10.936209,33.636298],[10.98463,33.643134],[11.042817,33.617865],[11.111583,33.540025],[11.116621,33.489973],[11.089929,33.454149],[11.110783,33.39297],[11.102074,33.364081],[11.131114,33.371527],[11.170665,33.331773],[11.293712,33.286811],[11.133637,33.311428],[11.121837,33.280015],[11.179535,33.211086],[11.245372,33.217922],[11.372244,33.183783],[11.433116,33.193549],[11.351899,33.258857],[11.505112,33.181225]]],[[[10.991466,33.841702],[11.060313,33.800727],[10.971039,33.738715],[10.956716,33.69774],[10.956716,33.732489],[10.941091,33.728217],[10.887786,33.640142],[10.871056,33.654333],[10.876921,33.688218],[10.826182,33.729804],[10.76342,33.700163],[10.740154,33.715478],[10.736013,33.884752],[10.77296,33.896308],[10.897797,33.87934],[10.929942,33.896308],[10.991466,33.841702]]],[[[10.964122,34.656684],[10.987153,34.67178],[11.110842,34.659506],[11.055708,34.620962],[10.964122,34.656684]]],[[[11.265798,34.773383],[11.304796,34.742294],[11.297035,34.728693],[11.130746,34.663291],[11.122306,34.680426],[11.170647,34.728592],[11.173025,34.758002],[11.222111,34.747645],[11.217502,34.781615],[11.25427,34.825822],[11.304171,34.805289],[11.265798,34.773383]]]]}}]}
