{"type":"FeatureCollection","features":[{"type":"Feature","properties":{"name":"Turkey","ISO3166-1-Alpha-3":"TUR","ISO3166-1-Alpha-2":"TR"},"geometry":{"type":"MultiPolygon","coordinates":[[[[43.440428,41.106588],[43.460479,41.022872],[43.565433,40.988145],[43.636178,40.933523],[43.659536,40.851978],[43.720618,40.762888],[43.729351,40.677105],[43.699534,40.634575],[43.707182,40.611941],[43.664807,40.574062],[43.652508,40.529414],[43.631476,40.536855],[43.638969,40.522592],[43.559491,40.477892],[43.625326,40.42017],[43.594217,40.345445],[43.675969,40.265967],[43.691369,40.23863],[43.673075,40.227727],[43.721393,40.169384],[43.652508,40.138998],[43.665427,40.110163],[43.912131,40.024328],[44.032433,40.008618],[44.10447,40.035955],[44.135476,40.022313],[44.255262,40.043397],[44.325645,40.034663],[44.522171,39.933533],[44.598187,39.831007],[44.692031,39.793024],[44.784325,39.69024],[44.806993,39.639902],[44.646504,39.719541],[44.590435,39.771527],[44.565734,39.765894],[44.459487,39.698457],[44.457627,39.638719],[44.414012,39.560894],[44.404814,39.43439],[44.387967,39.414495],[44.29495,39.381215],[44.176507,39.411549],[44.061372,39.400284],[44.014863,39.374084],[44.069434,39.287009],[44.077702,39.200063],[44.186636,39.145131],[44.179143,39.034931],[44.139197,38.993952],[44.151961,38.964625],[44.205756,38.875664],[44.275002,38.843573],[44.248648,38.721824],[44.260481,38.679242],[44.244307,38.658959],[44.297017,38.622321],[44.289524,38.382258],[44.363369,38.36461],[44.409051,38.381793],[44.458764,38.338333],[44.43675,38.29694],[44.372413,38.249501],[44.360579,38.147853],[44.327092,38.128397],[44.33381,38.10088],[44.29588,38.07902],[44.227564,37.98099],[44.225496,37.929314],[44.202087,37.897171],[44.219605,37.875312],[44.367142,37.860222],[44.4044,37.809735],[44.433029,37.806117],[44.43644,37.767799],[44.506461,37.779349],[44.59612,37.716381],[44.54527,37.663025],[44.540878,37.632717],[44.587438,37.584012],[44.565941,37.447173],[44.572142,37.430791],[44.638184,37.412601],[44.661646,37.375653],[44.698026,37.380045],[44.721384,37.343277],[44.801585,37.292686],[44.798485,37.260311],[44.753526,37.215326],[44.766135,37.14192],[44.733786,37.167242],[44.610279,37.178352],[44.454423,37.076343],[44.343112,37.042443],[44.306628,36.977227],[44.284821,36.969166],[44.234281,36.983661],[44.180021,37.087608],[44.18922,37.129208],[44.248337,37.16967],[44.235005,37.236772],[44.184465,37.279173],[44.088037,37.31116],[43.990369,37.312504],[43.89363,37.224912],[43.809398,37.199694],[43.746921,37.230648],[43.594217,37.22946],[43.529518,37.253903],[43.479599,37.243361],[43.336145,37.32023],[43.270309,37.30868],[43.114815,37.371131],[42.937048,37.320152],[42.814058,37.346817],[42.780468,37.375498],[42.715666,37.355292],[42.545237,37.140887],[42.357238,37.109984],[42.335328,37.171169],[42.346696,37.239769],[42.292023,37.285064],[42.22319,37.288139],[42.211201,37.324906],[42.009249,37.175613],[41.479773,37.075568],[41.20134,37.064974],[40.896449,37.122696],[40.708967,37.100476],[40.525722,37.025881],[40.413894,37.004022],[40.190136,36.884416],[39.765252,36.742151],[39.239599,36.661278],[39.03217,36.701172],[38.725005,36.693937],[38.66413,36.719517],[38.479956,36.855736],[38.224261,36.908394],[38.122975,36.884623],[37.819738,36.760548],[37.654063,36.732126],[37.446117,36.634199],[37.241892,36.65859],[37.104432,36.650994],[37.053066,36.619936],[37.014515,36.642261],[37.018443,36.706649],[36.964699,36.75383],[36.639861,36.828089],[36.569271,36.620143],[36.565344,36.5325],[36.531237,36.479015],[36.552735,36.408166],[36.593352,36.373492],[36.577643,36.332874],[36.648646,36.305899],[36.67004,36.237324],[36.593456,36.2181],[36.480181,36.225542],[36.450726,36.19991],[36.373004,36.227609],[36.358018,35.99398],[36.29735,36.000749],[36.277506,35.994187],[36.269031,35.958736],[36.196891,35.951708],[36.174877,35.922666],[36.157617,35.822569],[36.138497,35.819779],[36.05075,35.865409],[36.003931,35.869181],[35.980263,35.926852],[35.911305,35.91775],[35.975434,36.0185],[35.948416,36.087836],[35.787364,36.304267],[35.824474,36.36107],[35.908458,36.418158],[35.918712,36.448188],[35.990245,36.479641],[36.044932,36.537665],[36.178722,36.59634],[36.211192,36.642401],[36.188975,36.801744],[36.09547,36.897121],[36.020274,36.926337],[35.805431,36.775092],[35.684093,36.764635],[35.613536,36.719875],[35.6067,36.740383],[35.573009,36.70067],[35.579438,36.685126],[35.619802,36.712388],[35.634044,36.699368],[35.648123,36.733222],[35.664806,36.712388],[35.709158,36.719875],[35.622569,36.680732],[35.608653,36.646877],[35.695567,36.706204],[35.65797,36.675198],[35.623546,36.602525],[35.55714,36.58747],[35.490001,36.613918],[35.478689,36.598538],[35.531016,36.582709],[35.445486,36.59634],[35.346039,36.541083],[34.98227,36.720771],[34.900401,36.719875],[34.907888,36.740383],[34.770763,36.816067],[34.692882,36.81387],[34.554698,36.767646],[34.276215,36.586982],[34.177745,36.473375],[34.077322,36.413886],[34.077891,36.328843],[33.999766,36.302924],[33.958995,36.213568],[33.941417,36.213365],[33.950938,36.237698],[33.930919,36.290473],[33.871104,36.314887],[33.811046,36.267401],[33.824718,36.259914],[33.799083,36.230658],[33.705251,36.181708],[33.688243,36.13703],[33.647227,36.192572],[33.552257,36.127509],[33.530528,36.130805],[33.5442,36.144477],[33.458263,36.158149],[33.212413,36.124091],[33.156912,36.13703],[33.087738,36.082831],[32.940929,36.103502],[32.803722,36.027167],[32.670665,36.046698],[32.365489,36.177965],[32.287283,36.244818],[32.276134,36.287828],[32.192149,36.358385],[32.102061,36.486151],[32.018809,36.546536],[31.816742,36.589504],[31.736583,36.642279],[31.378591,36.767646],[31.376313,36.791938],[31.340831,36.80858],[30.939708,36.857001],[30.77589,36.849555],[30.686534,36.891181],[30.601736,36.838121],[30.569835,36.781317],[30.576671,36.6789],[30.556163,36.637885],[30.583507,36.59634],[30.569835,36.528022],[30.520844,36.489732],[30.47462,36.401597],[30.501638,36.363593],[30.494151,36.349311],[30.519867,36.341864],[30.427419,36.226386],[30.398611,36.205959],[30.384288,36.274237],[30.254568,36.308295],[30.158539,36.298651],[30.144705,36.25434],[30.131033,36.274237],[30.110606,36.240058],[30.048188,36.258775],[30.034841,36.25434],[30.055919,36.246894],[29.988455,36.21776],[29.916515,36.219062],[29.830089,36.185452],[29.779552,36.13935],[29.761729,36.13703],[29.775401,36.158149],[29.719249,36.162665],[29.672374,36.123358],[29.623871,36.177965],[29.6421,36.186957],[29.583507,36.185452],[29.623871,36.199123],[29.420421,36.230618],[29.411632,36.267401],[29.34962,36.232611],[29.23463,36.324286],[29.144705,36.349311],[29.144705,36.377183],[29.096365,36.390937],[29.130382,36.411363],[29.124197,36.453599],[29.096365,36.473456],[29.124278,36.493313],[29.114919,36.55268],[29.014415,36.547919],[29.036876,36.561469],[29.020518,36.589504],[29.041759,36.624254],[29.055837,36.614244],[29.096365,36.64411],[29.090587,36.627102],[29.116873,36.634223],[29.096365,36.665229],[28.956309,36.727525],[28.938975,36.751288],[28.849946,36.665229],[28.870372,36.63052],[28.884044,36.671454],[28.901703,36.658271],[28.86964,36.606635],[28.828868,36.602525],[28.818614,36.620795],[28.84254,36.637885],[28.787852,36.650946],[28.782725,36.677395],[28.746349,36.697699],[28.664887,36.692572],[28.649181,36.718329],[28.623383,36.699368],[28.603526,36.733547],[28.610362,36.816067],[28.59669,36.794989],[28.546153,36.823432],[28.524425,36.8133],[28.527843,36.788764],[28.486827,36.801744],[28.500499,36.816067],[28.456065,36.828518],[28.466319,36.853339],[28.451996,36.883612],[28.37672,36.854438],[28.424815,36.829088],[28.396007,36.789496],[28.314952,36.816067],[28.314952,36.794989],[28.278168,36.796454],[28.278331,36.814154],[28.314952,36.829088],[28.257172,36.846177],[28.236664,36.813218],[28.248871,36.766832],[28.295095,36.719875],[28.233572,36.719875],[28.233572,36.699368],[28.162283,36.672675],[28.111501,36.604193],[28.061697,36.59634],[28.035899,36.564765],[27.977712,36.565741],[27.959239,36.602525],[28.034434,36.602525],[28.08961,36.64411],[28.075938,36.657782],[28.048025,36.637885],[28.061209,36.66474],[28.037934,36.690619],[28.029633,36.670356],[27.966075,36.688788],[28.04184,36.719875],[28.116384,36.718817],[28.082205,36.747138],[28.110037,36.775092],[28.130544,36.753974],[28.118419,36.800605],[28.047211,36.763332],[28.034434,36.775092],[27.917654,36.740383],[27.912446,36.754136],[27.856212,36.740383],[27.806488,36.76081],[27.719412,36.756252],[27.684255,36.726711],[27.671153,36.657782],[27.554535,36.685126],[27.472667,36.650946],[27.404307,36.665229],[27.394054,36.684149],[27.362804,36.685126],[27.355805,36.712388],[27.414317,36.709296],[27.449555,36.753974],[27.611501,36.765326],[27.623383,36.801744],[27.645356,36.806464],[27.76002,36.781317],[27.799083,36.806627],[27.897146,36.812323],[28.027517,36.781317],[28.055431,36.80858],[28.007009,36.829088],[28.024587,36.839097],[28.007009,36.857001],[28.055431,36.870673],[28.021251,36.911607],[28.061697,36.92593],[28.04184,36.93891],[28.157237,36.932115],[28.165294,36.911607],[28.157237,36.945787],[28.185232,36.93891],[28.212413,37.000434],[28.24464,36.988186],[28.246593,37.00788],[28.329356,37.03677],[28.304698,37.050849],[28.126231,37.035875],[28.10727,37.032131],[28.110037,37.014106],[27.986583,37.035142],[27.787852,37.00788],[27.780447,36.993598],[27.687673,37.005439],[27.636485,36.980536],[27.567149,36.996649],[27.562022,36.97309],[27.472667,36.993598],[27.438487,37.027737],[27.396821,37.027737],[27.383311,36.993598],[27.376475,37.027737],[27.328624,37.014106],[27.308116,36.959418],[27.263194,36.963365],[27.22877,37.061835],[27.294444,37.110297],[27.25294,37.123969],[27.321788,37.123969],[27.321788,37.158677],[27.342296,37.130113],[27.383311,37.151842],[27.386567,37.130072],[27.438487,37.123969],[27.459809,37.089504],[27.565115,37.125637],[27.575531,37.1376],[27.554535,37.130113],[27.527843,37.192816],[27.587657,37.198798],[27.575531,37.178534],[27.609874,37.199652],[27.589366,37.230699],[27.615977,37.274726],[27.553233,37.272935],[27.514659,37.229315],[27.500011,37.233832],[27.517751,37.245998],[27.5088,37.268052],[27.463634,37.252021],[27.491384,37.327338],[27.472667,37.343695],[27.468516,37.315619],[27.446137,37.305609],[27.396821,37.323147],[27.396739,37.365627],[27.438487,37.390815],[27.407237,37.412746],[27.321788,37.370917],[27.330333,37.35163],[27.246104,37.336168],[27.190766,37.357327],[27.205089,37.398261],[27.226248,37.405097],[27.222504,37.476752],[27.177745,37.466539],[27.180431,37.544582],[27.209321,37.5633],[27.208507,37.596869],[27.011485,37.665717],[27.020763,37.686265],[27.127208,37.688544],[27.213145,37.713446],[27.249522,37.74433],[27.261567,37.803534],[27.239106,37.864407],[27.27475,37.929023],[27.239106,37.987942],[27.141124,37.986029],[27.07016,38.020006],[27.055919,38.045722],[26.975434,38.065253],[26.893403,38.05622],[26.873057,38.035102],[26.842052,38.076077],[26.835216,38.131293],[26.79363,38.172268],[26.776052,38.165229],[26.760265,38.216742],[26.635916,38.203599],[26.622895,38.138739],[26.609223,38.144965],[26.594981,38.103949],[26.567638,38.144965],[26.556895,38.122301],[26.523774,38.147406],[26.519298,38.179674],[26.49171,38.174018],[26.417491,38.220649],[26.417491,38.200181],[26.390147,38.223822],[26.390147,38.261664],[26.354015,38.228258],[26.233084,38.28026],[26.307628,38.323065],[26.28891,38.340644],[26.294119,38.369859],[26.307628,38.357856],[26.321137,38.377672],[26.314301,38.336737],[26.38502,38.318427],[26.383311,38.343573],[26.417491,38.336737],[26.475922,38.366889],[26.451508,38.426093],[26.489106,38.406195],[26.513031,38.432929],[26.440766,38.472805],[26.387869,38.45425],[26.403819,38.487535],[26.36964,38.535346],[26.348969,38.635484],[26.356293,38.661689],[26.414073,38.679389],[26.505626,38.652655],[26.630382,38.519232],[26.643321,38.467719],[26.588145,38.460883],[26.605235,38.453803],[26.588145,38.418687],[26.622081,38.405341],[26.673106,38.307196],[26.699962,38.325751],[26.677501,38.343573],[26.670665,38.385159],[26.702403,38.430162],[26.725352,38.432929],[26.766856,38.364081],[26.795095,38.358629],[26.924571,38.377672],[27.013357,38.412502],[27.088634,38.402248],[27.164236,38.446601],[27.022309,38.46247],[26.935395,38.434882],[26.945079,38.446601],[26.897634,38.494696],[26.814708,38.542792],[26.889822,38.508043],[26.835216,38.549018],[26.848888,38.597398],[26.79363,38.597398],[26.801036,38.611721],[26.753184,38.617906],[26.759451,38.638414],[26.719086,38.652655],[26.753184,38.666327],[26.719086,38.720933],[26.818207,38.755439],[26.903494,38.734565],[26.897227,38.748277],[26.935069,38.770453],[26.897227,38.816555],[26.937673,38.830227],[26.960785,38.806138],[26.958751,38.844468],[27.013357,38.871161],[27.033539,38.8605],[27.062673,38.886868],[27.04127,38.891669],[27.057872,38.918524],[27.04127,38.94009],[26.982595,38.919623],[26.962413,38.94009],[26.924571,38.94009],[26.866222,38.913398],[26.806488,38.950141],[26.799164,38.998358],[26.814708,39.021959],[26.79363,39.021959],[26.873057,39.062934],[26.875255,39.090888],[26.823741,39.149075],[26.737804,39.197211],[26.718761,39.262885],[26.609223,39.275214],[26.645518,39.317572],[26.653819,39.306464],[26.635916,39.296942],[26.670665,39.28266],[26.670258,39.305976],[26.814708,39.399359],[26.801036,39.433539],[26.850841,39.439765],[26.867931,39.471503],[26.929861,39.487738],[26.937673,39.574774],[26.893403,39.584377],[26.832856,39.55683],[26.807872,39.570705],[26.456798,39.521186],[26.362153,39.48135],[26.286632,39.487616],[26.249278,39.465644],[26.112966,39.459174],[26.074229,39.474514],[26.069998,39.496283],[26.110688,39.597886],[26.156749,39.649237],[26.163585,39.704169],[26.136404,39.755683],[26.154959,39.826158],[26.136404,39.837592],[26.167654,39.973578],[26.197765,40.008857],[26.25115,39.994859],[26.311046,40.019477],[26.362153,40.063463],[26.369395,40.102932],[26.39324,40.108222],[26.40797,40.193671],[26.500743,40.212958],[26.735606,40.403551],[26.897227,40.406155],[26.991466,40.388617],[27.096365,40.452297],[27.215343,40.447699],[27.286957,40.468207],[27.328624,40.41356],[27.294444,40.406155],[27.452322,40.322008],[27.55128,40.308824],[27.612966,40.331],[27.762706,40.315375],[27.883556,40.386298],[27.791759,40.39289],[27.750173,40.457587],[27.684255,40.496161],[27.76002,40.537055],[27.780447,40.515326],[27.9699,40.502997],[28.034434,40.474433],[27.903982,40.399888],[27.908458,40.374213],[27.944672,40.366034],[28.11199,40.396064],[28.347992,40.404039],[28.486827,40.399888],[28.458832,40.379462],[28.545421,40.391303],[28.637706,40.36518],[28.771983,40.402533],[28.938731,40.36518],[29.051606,40.367336],[29.090099,40.427232],[29.151541,40.434068],[29.065684,40.481879],[28.969493,40.461371],[28.916677,40.470893],[28.774181,40.522773],[28.792654,40.55329],[28.986339,40.644761],[29.281586,40.66592],[29.391856,40.707831],[29.41684,40.686754],[29.490571,40.72724],[29.527517,40.721503],[29.559906,40.691067],[29.753266,40.724555],[29.924164,40.716457],[29.939301,40.735053],[29.92921,40.758043],[29.775401,40.748725],[29.666189,40.783515],[29.428722,40.776068],[29.377778,40.756537],[29.329112,40.790351],[29.339529,40.807807],[29.31544,40.824449],[29.254568,40.810777],[29.294932,40.838772],[29.263927,40.869778],[29.028087,40.982123],[29.007579,41.030504],[29.062348,41.076321],[29.090587,41.140937],[29.069102,41.152777],[29.169688,41.2331],[29.231781,41.240709],[29.884613,41.148993],[30.136892,41.143785],[30.217052,41.167141],[30.282481,41.215522],[30.369965,41.181342],[30.833263,41.079901],[31.231212,41.091986],[31.392751,41.188422],[31.419607,41.280341],[31.396169,41.295478],[31.403575,41.316474],[31.471039,41.324774],[31.498302,41.352037],[31.658946,41.397935],[31.871593,41.504584],[32.161876,41.612006],[32.263357,41.72016],[32.351817,41.729438],[32.382579,41.75609],[32.399669,41.742499],[32.612559,41.839545],[32.67921,41.83633],[32.926117,41.881822],[33.324474,42.019029],[34.331309,41.947943],[34.482677,41.975246],[34.561778,41.95185],[34.694184,41.94595],[34.798595,41.962226],[34.889008,42.007799],[34.94809,42.098782],[35.023936,42.092515],[35.044444,42.051581],[35.081554,42.029202],[35.1338,42.023627],[35.171235,42.044135],[35.216319,42.023627],[35.11671,42.006903],[35.092133,41.928046],[35.125743,41.875312],[35.209483,41.811347],[35.195811,41.804511],[35.224783,41.761868],[35.298188,41.715155],[35.576671,41.629706],[35.956798,41.736274],[35.928966,41.70893],[35.915294,41.646226],[35.972911,41.728583],[36.038097,41.687812],[36.044932,41.701483],[36.134451,41.599066],[36.119965,41.49433],[36.134451,41.4619],[36.236827,41.358873],[36.331879,41.323188],[36.343761,41.288723],[36.39503,41.256415],[36.45102,41.240424],[36.517914,41.262641],[36.579356,41.307318],[36.619884,41.375067],[36.758067,41.366278],[36.984874,41.294501],[37.031912,41.242825],[37.039724,41.181545],[37.135509,41.146633],[37.299327,41.140367],[37.52475,41.037177],[37.607921,41.050442],[37.689789,41.140367],[37.715099,41.114732],[37.783865,41.122626],[37.785167,41.060004],[37.895763,40.982123],[37.934744,40.995103],[38.201427,40.941352],[38.268321,40.950385],[38.330903,40.917873],[38.539399,40.926907],[38.637055,40.97602],[38.677908,40.948635],[38.717621,40.954779],[38.783702,41.001776],[38.908376,41.037665],[39.041759,41.043402],[39.168305,41.079739],[39.273204,41.050442],[39.430186,41.112494],[39.492931,41.10102],[39.630056,41.00849],[39.729991,41.017157],[39.895681,40.954779],[39.99936,40.982123],[40.085704,40.926459],[40.142751,40.922797],[40.301036,40.968451],[40.464854,41.050442],[40.557384,41.042467],[40.698253,41.098131],[40.827485,41.197943],[40.922048,41.190619],[41.042735,41.232489],[41.121349,41.285549],[41.190766,41.295722],[41.285004,41.353827],[41.390391,41.37934],[41.424164,41.407864],[41.438162,41.451361],[41.520763,41.514228],[41.63997,41.47871],[41.702601,41.489045],[41.706839,41.463155],[41.812982,41.421814],[41.947961,41.505581],[42.019585,41.485066],[42.158387,41.499897],[42.463072,41.431839],[42.535522,41.493489],[42.565184,41.567128],[42.660992,41.588264],[42.819949,41.572347],[42.766516,41.504341],[42.829974,41.472508],[42.868008,41.500207],[43.002057,41.382695],[43.12391,41.312932],[43.18401,41.298979],[43.103136,41.248801],[43.172021,41.242342],[43.230622,41.17263],[43.383274,41.187203],[43.437586,41.156197],[43.451797,41.132581],[43.440428,41.106588]]],[[[28.016775,41.972561],[28.044932,41.890204],[27.97755,41.887356],[27.972016,41.822252],[28.08839,41.676907],[28.075938,41.660549],[28.097179,41.626695],[28.232758,41.518988],[28.384288,41.447455],[28.908458,41.266547],[29.109223,41.235297],[29.086762,41.191881],[29.040782,41.164293],[29.070649,41.130194],[29.042166,41.066352],[28.989513,41.031073],[28.992361,41.008205],[28.946137,41.009467],[28.822032,40.961615],[28.770193,40.979315],[28.625255,40.968411],[28.595225,40.977973],[28.603526,41.009467],[28.575531,41.023668],[28.58253,41.046373],[28.551931,41.080512],[28.527843,41.08515],[28.562511,41.03677],[28.541352,40.989569],[28.435313,41.042914],[28.165294,41.08515],[28.013031,41.040717],[27.941254,40.971096],[27.737804,41.012641],[27.524181,40.989203],[27.47169,40.94184],[27.424815,40.831285],[27.330821,40.760972],[27.287934,40.703559],[27.177745,40.632636],[27.047537,40.612209],[26.989757,40.563788],[26.911632,40.550727],[26.68336,40.455471],[26.601573,40.346137],[26.426524,40.230292],[26.345551,40.199774],[26.375824,40.15351],[26.230642,40.064887],[26.157481,40.055325],[26.271983,40.230414],[26.266938,40.257758],[26.21811,40.296861],[26.231781,40.310126],[26.209972,40.321926],[26.219086,40.331448],[26.321137,40.36518],[26.564464,40.499457],[26.683767,40.515326],[26.732758,40.563788],[26.788259,40.562934],[26.828949,40.601996],[26.790375,40.66059],[26.609223,40.639472],[26.505626,40.598578],[26.444672,40.619045],[26.39975,40.604153],[26.091319,40.605414],[26.053722,40.66059],[26.058116,40.697699],[26.033214,40.735053],[26.112287,40.746971],[26.158279,40.812187],[26.212022,40.84743],[26.226182,40.899313],[26.239204,40.885671],[26.260391,40.920449],[26.304006,40.909029],[26.294395,40.92665],[26.359093,40.964684],[26.333152,40.990729],[26.368085,41.007731],[26.374183,41.03114],[26.32509,41.074083],[26.339456,41.114494],[26.317339,41.122297],[26.336046,41.15258],[26.32106,41.187616],[26.336046,41.228906],[26.320543,41.246217],[26.412113,41.265699],[26.540168,41.351792],[26.591121,41.329313],[26.631738,41.357528],[26.595461,41.612448],[26.576445,41.591003],[26.46441,41.648518],[26.476192,41.675726],[26.333359,41.713036],[26.316305,41.743758],[26.334185,41.789543],[26.375527,41.816622],[26.526112,41.824244],[26.558978,41.901733],[26.542958,41.920362],[26.605693,41.967414],[26.736745,41.958965],[26.780566,41.983433],[26.819427,41.965657],[26.938903,41.996223],[27.046545,42.082936],[27.173824,42.057072],[27.216405,42.095623],[27.273353,42.091747],[27.39686,41.989324],[27.546411,41.901164],[27.562741,41.906435],[27.550752,41.924212],[27.609301,41.953487],[27.687074,41.968602],[27.815335,41.946795],[27.811925,41.994699],[28.016775,41.972561]]],[[[26.060557,39.837592],[26.083018,39.834947],[26.074962,39.784898],[25.978038,39.834174],[26.060557,39.837592]]],[[[26.012218,40.166571],[26.012218,40.146064],[25.990245,40.136908],[25.765961,40.097154],[25.663259,40.126166],[25.759044,40.206732],[25.925955,40.242825],[25.971853,40.221137],[25.963064,40.157131],[26.012218,40.166571]]],[[[27.657563,40.653144],[27.702403,40.653022],[27.732677,40.62519],[27.604747,40.576809],[27.535981,40.601996],[27.526378,40.639106],[27.545909,40.660346],[27.554535,40.646918],[27.605235,40.663275],[27.657563,40.653144]]],[[[27.645193,40.459866],[27.656586,40.449449],[27.596365,40.457994],[27.579926,40.476549],[27.60727,40.505439],[27.640473,40.494127],[27.645193,40.459866]]]]}}]}
