{"type":"FeatureCollection","features":[{"type":"Feature","properties":{"name":"Trinidad and Tobago","ISO3166-1-Alpha-3":"TTO","ISO3166-1-Alpha-2":"TT"},"geometry":{"type":"MultiPolygon","coordinates":[[[[-61.002268,10.699368],[-61.032704,10.683539],[-61.013539,10.534491],[-61.04247,10.509955],[-61.02302,10.394843],[-60.961293,10.330024],[-60.990224,10.299262],[-61.002797,10.247545],[-60.996002,10.138251],[-61.19164,10.073798],[-61.544097,10.076158],[-61.622914,10.05565],[-61.686187,10.08161],[-61.793324,10.084133],[-61.88976,10.042304],[-61.9287,10.056464],[-61.805898,10.13288],[-61.669057,10.184027],[-61.626943,10.24726],[-61.506581,10.240668],[-61.462148,10.282213],[-61.487945,10.430121],[-61.462148,10.558173],[-61.488881,10.631049],[-61.667592,10.706773],[-61.602122,10.747748],[-61.485748,10.754584],[-61.447865,10.775702],[-61.43342,10.756537],[-61.366567,10.802965],[-61.180084,10.797553],[-61.078521,10.830959],[-60.907297,10.837144],[-61.002268,10.699368]]],[[[-60.530507,11.35106],[-60.53303,11.266506],[-60.803334,11.143256],[-60.847524,11.163967],[-60.681304,11.296454],[-60.595815,11.327297],[-60.560374,11.321194],[-60.530507,11.35106]]]]}}]}
