{"type":"FeatureCollection","features":[{"type":"Feature","properties":{"name":"Tuvalu","ISO3166-1-Alpha-3":"TUV","ISO3166-1-Alpha-2":"TV"},"geometry":{"type":"MultiPolygon","coordinates":[[[[179.191254,-8.542087],[179.199392,-8.460626],[179.21754,-8.520603],[179.191254,-8.542087]]],[[[178.380544,-8.070001],[178.373302,-8.069024],[178.383149,-8.039239],[178.380544,-8.070001]]],[[[177.152599,-7.197361],[177.150401,-7.190362],[177.153005,-7.195001],[177.152599,-7.197361]]],[[[176.314301,-6.302341],[176.319184,-6.289239],[176.322927,-6.288832],[176.314301,-6.302341]]],[[[177.344086,-6.121026],[177.337169,-6.108168],[177.356619,-6.114516],[177.344086,-6.121026]]],[[[176.135265,-5.692804],[176.125255,-5.679132],[176.148448,-5.70672],[176.135265,-5.692804]]],[[[179.906749,-9.399347],[179.905284,-9.420668],[179.898611,-9.386814],[179.906749,-9.399347]]],[[[179.867849,-9.343194],[179.878429,-9.360772],[179.871755,-9.350193],[179.867849,-9.343194]]],[[[178.682791,-7.491469],[178.665212,-7.454034],[178.691091,-7.475356],[178.682791,-7.491469]]]]}}]}
