{"type":"FeatureCollection","features":[{"type":"Feature","properties":{"name":"United Republic of Tanzania","ISO3166-1-Alpha-3":"TZA","ISO3166-1-Alpha-2":"TZ"},"geometry":{"type":"MultiPolygon","coordinates":[[[[32.920863,-9.4079],[32.752295,-9.337413],[32.713228,-9.28584],[32.518046,-9.258245],[32.459703,-9.168018],[32.423426,-9.143834],[32.231448,-9.133808],[32.134141,-9.064148],[32.057247,-9.049576],[31.980559,-9.0719],[31.938081,-9.061771],[31.917721,-9.022497],[31.936634,-8.93258],[31.787599,-8.892169],[31.709775,-8.919661],[31.672671,-8.913047],[31.55335,-8.809074],[31.539036,-8.70355],[31.427518,-8.633477],[31.38597,-8.632547],[31.353311,-8.587175],[31.260913,-8.623969],[31.206756,-8.580767],[31.077824,-8.61632],[30.959536,-8.550485],[30.828278,-8.388117],[30.654955,-7.92737],[30.441635,-7.596331],[30.369598,-7.31025],[30.29446,-7.149433],[30.090855,-6.890018],[30.012721,-6.825215],[29.873091,-6.754212],[29.707003,-6.619336],[29.633932,-6.446944],[29.525515,-6.273104],[29.476113,-6.002113],[29.49606,-5.938654],[29.60303,-5.781661],[29.612435,-5.704354],[29.49637,-5.391711],[29.455649,-5.229964],[29.377824,-5.087544],[29.32377,-4.920164],[29.321032,-4.836345],[29.401337,-4.586851],[29.404179,-4.449805],[29.638273,-4.446808],[29.732841,-4.463344],[29.784104,-4.37384],[29.847356,-4.370533],[30.003005,-4.271935],[30.051478,-4.180157],[30.149766,-4.08683],[30.208781,-3.930457],[30.31172,-3.789897],[30.33699,-3.773774],[30.381587,-3.788346],[30.373112,-3.703597],[30.428871,-3.602208],[30.432282,-3.551875],[30.46892,-3.513014],[30.507161,-3.511051],[30.639142,-3.41948],[30.640434,-3.392815],[30.603279,-3.372558],[30.640538,-3.33287],[30.712006,-3.301865],[30.721463,-3.280987],[30.747921,-3.294113],[30.799753,-3.274579],[30.832205,-3.172777],[30.817684,-3.099086],[30.778255,-3.04741],[30.825488,-2.978577],[30.732057,-2.99346],[30.683687,-2.969998],[30.637592,-2.974443],[30.62953,-2.947674],[30.53889,-2.898995],[30.488454,-2.94354],[30.474191,-2.903233],[30.415797,-2.851659],[30.450523,-2.741795],[30.52256,-2.649398],[30.442668,-2.681127],[30.412128,-2.670172],[30.508091,-2.463466],[30.5546,-2.400628],[30.63785,-2.39701],[30.674799,-2.351742],[30.758825,-2.381094],[30.834376,-2.345334],[30.887809,-2.082507],[30.853496,-2.0237],[30.816754,-2.018739],[30.826934,-1.934093],[30.796962,-1.929338],[30.824247,-1.902053],[30.83789,-1.836838],[30.831017,-1.594165],[30.791588,-1.590961],[30.738878,-1.489469],[30.737534,-1.406683],[30.555323,-1.31842],[30.5546,-1.273461],[30.511191,-1.170418],[30.467266,-1.155329],[30.470884,-1.118122],[30.453004,-1.097348],[30.481012,-1.059107],[30.638626,-1.07337],[30.687098,-1.025001],[30.777118,-0.98583],[30.828381,-1.002573],[34.000022,-1.002573],[34.015422,-1.037507],[34.052526,-1.0404],[37.644865,-3.045963],[37.700055,-3.31437],[37.671943,-3.324292],[37.669876,-3.356125],[37.627191,-3.370284],[37.58523,-3.412969],[37.579442,-3.446352],[37.608174,-3.463612],[37.599079,-3.513428],[37.708323,-3.527174],[37.770955,-3.655435],[39.215099,-4.688653],[39.216075,-4.749119],[39.170177,-4.779962],[39.215994,-4.795668],[39.213552,-4.856378],[39.162283,-4.938653],[39.163341,-4.848321],[39.145681,-4.899835],[39.108653,-4.916599],[39.132172,-5.010186],[39.084483,-5.047784],[39.082774,-5.061456],[39.129161,-5.04754],[39.142751,-5.09588],[39.04363,-5.232192],[39.048188,-5.246677],[39.074555,-5.218845],[39.080577,-5.231134],[39.026378,-5.378513],[38.981293,-5.417413],[38.99879,-5.465265],[38.985362,-5.504978],[38.921641,-5.616306],[38.888927,-5.63714],[38.902599,-5.643324],[38.895193,-5.710545],[38.83253,-5.815606],[38.8213,-5.924981],[38.779063,-6.054864],[38.813243,-6.130629],[38.856781,-6.16367],[38.860037,-6.231622],[38.841156,-6.267755],[38.852224,-6.348728],[38.91505,-6.4367],[38.964692,-6.47324],[39.036876,-6.483168],[38.991384,-6.452081],[39.040863,-6.470147],[39.212738,-6.641778],[39.24586,-6.731052],[39.263927,-6.744399],[39.28004,-6.727146],[39.280284,-6.830499],[39.300466,-6.849379],[39.293712,-6.815199],[39.312022,-6.816339],[39.464529,-6.85768],[39.553722,-7.000746],[39.54005,-7.02809],[39.547537,-7.118259],[39.532563,-7.116876],[39.497895,-7.177179],[39.477875,-7.151056],[39.435883,-7.180271],[39.414399,-7.240899],[39.367442,-7.271417],[39.369802,-7.306899],[39.32781,-7.309259],[39.35434,-7.370782],[39.303966,-7.4485],[39.27475,-7.596449],[39.302013,-7.754083],[39.252615,-7.823337],[39.305024,-7.791762],[39.32781,-7.726332],[39.355235,-7.752537],[39.340831,-7.781671],[39.395518,-7.77988],[39.443533,-7.832615],[39.420909,-7.902032],[39.437022,-7.99391],[39.45753,-7.979669],[39.454356,-8.010431],[39.361827,-8.206801],[39.340831,-8.206801],[39.348318,-8.275079],[39.333995,-8.268813],[39.32781,-8.295587],[39.293712,-8.268813],[39.302094,-8.295099],[39.28004,-8.309259],[39.305349,-8.38893],[39.303071,-8.505466],[39.357677,-8.588311],[39.35434,-8.713962],[39.439138,-8.755466],[39.452647,-8.805352],[39.488536,-8.826918],[39.553722,-8.922296],[39.520681,-8.923028],[39.449392,-8.858657],[39.413097,-8.867364],[39.388682,-8.898858],[39.464203,-8.898858],[39.447602,-8.925551],[39.491873,-8.938409],[39.498546,-9.1242],[39.569184,-9.093032],[39.643809,-9.18906],[39.642833,-9.368585],[39.615977,-9.397149],[39.569102,-9.404962],[39.567393,-9.447524],[39.615896,-9.4249],[39.650727,-9.444757],[39.740896,-9.666762],[39.746593,-9.706476],[39.696951,-9.744887],[39.752289,-9.74863],[39.800629,-9.823826],[39.800059,-9.872654],[39.752289,-9.879002],[39.790212,-9.923028],[39.714203,-9.952081],[39.724376,-10.007501],[39.690766,-10.04339],[39.716482,-10.038751],[39.763194,-9.982843],[39.826915,-9.99033],[39.914317,-10.033868],[39.974946,-10.133396],[39.985118,-10.220961],[40.000499,-10.192641],[39.98878,-10.13128],[40.019786,-10.132908],[40.13266,-10.169692],[40.135509,-10.247654],[40.120616,-10.271173],[40.160411,-10.28045],[40.173839,-10.255141],[40.232107,-10.296645],[40.238943,-10.268731],[40.266856,-10.268731],[40.198009,-10.24212],[40.232107,-10.200453],[40.301036,-10.268731],[40.348806,-10.358087],[40.42213,-10.355645],[40.426768,-10.33587],[40.392589,-10.312107],[40.427013,-10.300063],[40.449392,-10.345392],[40.410899,-10.392267],[40.43686,-10.392267],[40.424571,-10.437188],[40.43686,-10.474786],[40.389193,-10.535273],[40.288527,-10.583022],[40.161093,-10.704358],[40.008131,-10.811122],[39.760498,-10.943104],[39.498498,-10.990646],[39.263267,-11.166759],[39.211591,-11.17389],[39.126221,-11.139681],[39.060799,-11.160145],[38.896261,-11.167689],[38.759732,-11.263187],[38.654209,-11.275796],[38.492255,-11.413462],[38.347664,-11.358789],[38.25661,-11.27714],[38.1669,-11.283755],[38.109332,-11.249648],[37.938077,-11.283961],[37.868417,-11.327783],[37.818497,-11.459868],[37.816947,-11.533558],[37.647758,-11.635981],[37.503788,-11.672671],[37.469681,-11.71949],[37.378318,-11.708845],[37.3408,-11.68094],[37.27021,-11.698406],[37.141639,-11.674738],[37.071566,-11.62916],[37.032395,-11.564874],[36.905892,-11.59278],[36.820109,-11.573556],[36.738047,-11.674738],[36.625702,-11.721351],[36.545707,-11.729412],[36.494857,-11.68094],[36.378068,-11.68094],[36.278746,-11.708845],[36.199681,-11.701507],[36.179218,-11.675565],[36.168055,-11.578724],[36.022225,-11.505653],[35.969825,-11.502449],[35.970341,-11.461211],[35.939749,-11.434133],[35.826371,-11.413462],[35.764256,-11.474854],[35.69563,-11.494594],[35.703381,-11.516505],[35.66483,-11.572006],[35.576257,-11.605182],[35.532745,-11.59557],[35.531505,-11.612727],[35.498742,-11.582341],[35.441175,-11.591436],[35.423501,-11.576553],[34.964615,-11.573556],[34.960687,-11.498522],[34.886583,-11.375429],[34.80049,-11.331917],[34.765557,-11.345146],[34.737032,-11.296777],[34.757496,-11.277553],[34.72866,-11.253989],[34.714087,-11.202726],[34.613525,-11.102164],[34.592958,-11.016174],[34.645461,-10.913235],[34.656727,-10.769884],[34.67502,-10.752418],[34.647631,-10.708389],[34.660034,-10.665498],[34.624377,-10.583436],[34.600399,-10.578061],[34.581072,-10.539717],[34.592958,-10.481736],[34.565053,-10.409803],[34.58562,-10.290017],[34.524745,-10.094783],[34.536424,-10.043003],[34.4833,-9.946162],[34.331682,-9.769222],[34.317936,-9.719199],[34.079811,-9.511046],[34.012735,-9.477457],[33.945866,-9.55001],[33.964469,-9.594659],[33.954857,-9.660598],[33.911862,-9.717959],[33.734612,-9.584117],[33.650638,-9.610988],[33.559481,-9.593315],[33.480519,-9.624424],[33.438971,-9.62153],[33.300272,-9.492236],[33.202397,-9.493476],[33.172941,-9.511046],[33.103901,-9.487895],[32.97471,-9.381235],[32.920863,-9.4079]]],[[[39.895681,-7.637628],[39.910981,-7.654474],[39.893403,-7.754083],[39.823253,-7.913995],[39.754649,-7.915297],[39.726329,-7.973403],[39.686778,-7.988865],[39.629731,-7.985772],[39.587169,-7.945489],[39.621918,-7.939223],[39.693044,-7.870294],[39.703868,-7.819431],[39.814301,-7.788507],[39.773448,-7.775486],[39.8449,-7.737726],[39.895681,-7.637628]]],[[[39.543468,-6.321222],[39.574067,-6.377618],[39.569509,-6.420831],[39.508474,-6.462823],[39.443696,-6.421563],[39.416515,-6.301365],[39.394054,-6.308201],[39.403575,-6.373712],[39.375662,-6.363377],[39.37436,-6.32879],[39.300466,-6.239353],[39.276052,-6.274102],[39.282481,-6.312188],[39.198578,-6.220798],[39.177013,-6.157892],[39.212901,-6.11419],[39.186209,-5.994317],[39.19044,-5.914239],[39.197439,-5.896661],[39.211111,-5.917739],[39.28004,-5.841974],[39.295258,-5.736505],[39.313487,-5.718438],[39.355724,-5.803806],[39.372569,-5.970798],[39.402843,-6.048028],[39.430186,-6.054864],[39.437022,-6.157892],[39.416515,-6.192071],[39.45753,-6.212009],[39.464854,-6.187433],[39.500987,-6.196222],[39.498546,-6.123793],[39.524913,-6.175063],[39.543468,-6.321222]]],[[[39.643077,-5.413995],[39.650564,-5.338474],[39.698253,-5.34238],[39.663585,-5.287205],[39.716563,-5.289646],[39.726329,-5.280369],[39.690766,-5.259861],[39.764171,-5.262384],[39.780935,-5.239353],[39.736339,-5.240004],[39.649913,-5.190851],[39.746104,-5.205173],[39.742524,-5.161798],[39.718272,-5.170505],[39.72047,-5.136326],[39.690766,-5.137465],[39.700694,-5.079197],[39.725434,-5.080499],[39.677257,-5.044366],[39.698253,-5.01336],[39.68393,-5.020196],[39.681163,-4.987237],[39.712087,-4.992852],[39.715994,-4.976821],[39.677257,-4.945082],[39.684093,-4.890313],[39.712087,-4.93141],[39.735199,-4.910333],[39.805919,-4.96087],[39.821544,-4.993829],[39.855968,-4.897231],[39.878184,-4.987726],[39.835623,-5.026462],[39.828136,-5.102146],[39.838634,-5.137465],[39.848481,-5.108982],[39.861176,-5.114516],[39.855968,-5.253025],[39.796072,-5.406834],[39.780935,-5.383233],[39.764008,-5.432306],[39.729015,-5.454197],[39.738617,-5.431085],[39.705414,-5.442966],[39.643077,-5.413995]]],[[[39.74204,-7.994825],[39.796737,-7.992453],[39.801492,-8.006587],[39.702796,-8.091393],[39.7028,-8.049004],[39.74204,-7.994825]]],[[[39.226104,-5.769169],[39.237862,-5.856047],[39.21447,-5.858106],[39.226104,-5.769169]]],[[[39.575458,-5.394548],[39.652181,-5.450943],[39.659811,-5.47597],[39.615331,-5.463799],[39.575458,-5.394548]]]]}}]}
