{"type":"FeatureCollection","features":[{"type":"Feature","properties":{"name":"Uganda","ISO3166-1-Alpha-3":"UGA","ISO3166-1-Alpha-2":"UG"},"geometry":{"type":"Polygon","coordinates":[[[30.471786,-1.066837],[30.337455,-1.066239],[30.317405,-1.137035],[30.212192,-1.259509],[30.165579,-1.277492],[30.147183,-1.345085],[29.938462,-1.472932],[29.880739,-1.453605],[29.864203,-1.370303],[29.825135,-1.323897],[29.774906,-1.366272],[29.734805,-1.348185],[29.6391,-1.38901],[29.577915,-1.38839],[29.587113,-1.310565],[29.557038,-1.181787],[29.57006,-1.077918],[29.54846,-1.002573],[29.554661,-0.928573],[29.610781,-0.863977],[29.60303,-0.7229],[29.630573,-0.622028],[29.618843,-0.599394],[29.653053,-0.565597],[29.629385,-0.442401],[29.714341,-0.007492],[29.703075,0.072503],[29.761263,0.172135],[29.797127,0.164797],[29.839605,0.358481],[29.940477,0.498317],[29.919496,0.618103],[29.926834,0.774889],[29.947298,0.824602],[30.038352,0.878914],[30.154831,0.90868],[30.220977,1.017097],[30.215292,1.077093],[30.238857,1.136004],[30.277976,1.171609],[30.323813,1.155848],[30.364947,1.202047],[30.43161,1.207008],[30.478274,1.238634],[30.681724,1.500349],[31.025837,1.778239],[31.271455,2.102999],[31.280447,2.15341],[31.190116,2.221519],[31.177559,2.30291],[31.112602,2.282084],[31.055241,2.290249],[31.035501,2.30694],[31.041288,2.331228],[30.968011,2.405436],[30.930907,2.405591],[30.900573,2.345956],[30.87179,2.332055],[30.819803,2.37598],[30.80492,2.434374],[30.710559,2.445123],[30.737017,2.519537],[30.73526,2.593073],[30.801613,2.769083],[30.828691,2.786084],[30.853393,2.853367],[30.843988,2.932794],[30.743839,3.055474],[30.804197,3.246005],[30.91003,3.393412],[30.896388,3.519967],[30.839543,3.490202],[30.944447,3.679286],[31.077668,3.735303],[31.141489,3.785119],[31.214818,3.792354],[31.29502,3.774189],[31.523739,3.656083],[31.564771,3.689802],[31.68683,3.712824],[31.777884,3.816435],[31.901908,3.704297],[31.93002,3.59836],[32.030168,3.585932],[32.076161,3.53317],[32.16799,3.512242],[32.187782,3.61916],[32.371801,3.731065],[32.756429,3.769022],[32.840352,3.794291],[32.997241,3.885526],[33.164466,3.763053],[33.490648,3.749746],[33.977078,4.219692],[34.006017,4.205713],[34.069269,4.08802],[34.061104,4.007767],[34.107096,3.959501],[34.084772,3.877336],[34.204971,3.874545],[34.196703,3.847389],[34.148954,3.822688],[34.17903,3.7961],[34.152468,3.775636],[34.240938,3.78362],[34.278868,3.709723],[34.337056,3.734579],[34.439686,3.667736],[34.434518,3.52622],[34.381291,3.476869],[34.398551,3.433642],[34.383978,3.388347],[34.424079,3.304812],[34.434001,3.182029],[34.444853,3.159136],[34.53384,3.118467],[34.58469,2.928711],[34.6405,2.860137],[34.685045,2.880962],[34.730107,2.85285],[34.81868,2.597982],[34.841832,2.58775],[34.865603,2.604855],[34.875628,2.591212],[34.8871,2.522379],[34.923584,2.477318],[34.906117,2.436907],[34.867876,2.411482],[34.865603,2.347506],[34.967509,2.101914],[34.962031,1.977813],[35.006473,1.916861],[34.979704,1.8703],[34.972676,1.654241],[34.933712,1.575693],[34.882553,1.552232],[34.859505,1.517919],[34.838421,1.437174],[34.778993,1.388547],[34.810516,1.272533],[34.797907,1.231916],[34.683805,1.209075],[34.628925,1.163599],[34.580452,1.152541],[34.561228,1.093371],[34.507485,1.102518],[34.487021,1.082467],[34.457152,0.957617],[34.388009,0.815817],[34.298402,0.759283],[34.2521,0.655],[34.149574,0.603634],[34.075677,0.422249],[34.085185,0.347008],[33.893569,0.109814],[33.953514,-0.154356],[33.894809,-0.662749],[33.904214,-1.002573],[30.828381,-1.002573],[30.777118,-0.98583],[30.687098,-1.025001],[30.638626,-1.07337],[30.471786,-1.066837]]]}}]}
