{"type":"FeatureCollection","features":[{"type":"Feature","properties":{"name":"United States Minor Outlying Islands","ISO3166-1-Alpha-3":"UMI","ISO3166-1-Alpha-2":"UM"},"geometry":{"type":"MultiPolygon","coordinates":[[[[-169.530263,16.760199],[-169.523508,16.75849],[-169.539174,16.754462],[-169.530263,16.760199]]],[[[-160.029978,-0.376153],[-160.008901,-0.372491],[-160.02477,-0.388767],[-160.029978,-0.376153]]],[[[-176.485829,0.196519],[-176.479115,0.197903],[-176.479319,0.190334],[-176.485829,0.196519]]],[[[-176.459543,0.225898],[-176.459177,0.219224],[-176.463938,0.221869],[-176.459543,0.225898]]],[[[-176.636179,0.790188],[-176.640045,0.803534],[-176.639027,0.806952],[-176.636179,0.790188]]],[[[166.619395,19.281643],[166.638194,19.286444],[166.634776,19.305732],[166.652354,19.284247],[166.619395,19.281643]]],[[[-177.328928,28.211086],[-177.322865,28.207668],[-177.3249,28.204983],[-177.328928,28.211086]]],[[[-177.357655,28.214423],[-177.372182,28.202338],[-177.385243,28.206977],[-177.357655,28.214423]]],[[[-169.532338,16.733059],[-169.541697,16.72191],[-169.549509,16.723456],[-169.532338,16.733059]]],[[[-169.513661,16.743964],[-169.513661,16.745592],[-169.512766,16.74433],[-169.513661,16.743964]]],[[[-75.024322,18.417263],[-75.003163,18.403713],[-75.017812,18.396674],[-75.024322,18.417263]]],[[[-162.060862,5.887193],[-162.073069,5.869371],[-162.09435,5.875352],[-162.075063,5.885525],[-162.103627,5.888577],[-162.060862,5.887193]]],[[[-162.400177,6.445136],[-162.385284,6.445136],[-162.385284,6.430243],[-162.400177,6.445136]]]]}}]}
