{"type":"FeatureCollection","features":[{"type":"Feature","properties":{"name":"Uzbekistan","ISO3166-1-Alpha-3":"UZB","ISO3166-1-Alpha-2":"UZ"},"geometry":{"type":"MultiPolygon","coordinates":[[[[71.78552,39.989705],[71.757304,39.903095],[71.696843,39.913844],[71.665527,39.940199],[71.78552,39.989705]]],[[[70.958955,40.238372],[70.622128,40.199563],[70.581821,40.221732],[70.524046,40.34374],[70.371394,40.364927],[70.384933,40.399706],[70.353824,40.456136],[70.369637,40.475515],[70.477796,40.505487],[70.525493,40.557112],[70.732096,40.674986],[70.767132,40.737618],[70.637424,40.770587],[70.621766,40.785987],[70.628743,40.815856],[70.703157,40.788933],[70.70512,40.807433],[70.445705,41.025921],[70.363539,41.032432],[70.335892,40.92696],[70.280392,40.877713],[70.104227,40.813324],[70.009659,40.75803],[69.803315,40.70563],[69.690919,40.630028],[69.647511,40.647443],[69.509224,40.77467],[69.417757,40.804229],[69.355074,40.780354],[69.314198,40.729298],[69.30934,40.595818],[69.198442,40.566517],[69.312699,40.34281],[69.305309,40.293821],[69.208364,40.298317],[69.212498,40.268758],[69.285259,40.218631],[69.285259,40.194964],[69.197926,40.182975],[69.019229,40.232067],[68.801877,40.19114],[68.698318,40.194964],[68.581116,40.164216],[68.687052,40.110318],[68.930655,40.146801],[68.977267,40.121015],[68.986982,40.091714],[68.977267,40.064894],[68.881769,40.070837],[68.813143,40.038901],[68.774696,40.07988],[68.761725,40.061483],[68.789372,39.993994],[68.880787,39.878342],[68.838258,39.864648],[68.758883,39.980558],[68.787356,39.881701],[68.741623,39.819638],[68.685089,39.868007],[68.651086,39.844701],[68.626178,39.84961],[68.600339,39.642853],[68.506702,39.56756],[68.51745,39.54844],[68.337565,39.527924],[67.717603,39.623371],[67.587378,39.562651],[67.507435,39.552936],[67.487642,39.538001],[67.491156,39.490097],[67.427284,39.47661],[67.386873,39.294192],[67.346462,39.280808],[67.35008,39.219829],[67.499011,39.165983],[67.58035,39.163605],[67.66758,39.131773],[67.667218,39.028368],[67.690524,38.989611],[67.845243,38.973772],[67.963272,39.00191],[68.003373,38.982118],[68.069106,38.996096],[68.100938,38.979276],[68.163725,38.887472],[68.172562,38.845279],[68.135975,38.804506],[68.066729,38.787969],[68.075927,38.726862],[68.037635,38.691645],[68.055153,38.536305],[68.086882,38.494034],[68.098044,38.432436],[68.183724,38.335491],[68.35622,38.212604],[68.344334,38.115452],[68.248733,37.948951],[68.122229,37.908333],[68.050192,37.760409],[67.829224,37.527943],[67.797339,37.424435],[67.820645,37.303306],[67.780544,37.188868],[67.746593,37.229408],[67.633163,37.254058],[67.561385,37.2199],[67.503145,37.281963],[67.391163,37.21959],[67.259129,37.185147],[67.187816,37.258244],[67.123324,37.281963],[67.097382,37.34059],[67.005915,37.384386],[66.734975,37.363302],[66.694099,37.343406],[66.588576,37.36847],[66.519588,37.36418],[66.494835,37.379425],[66.497005,37.397744],[66.546615,37.45079],[66.493491,37.522207],[66.519123,37.62525],[66.518813,37.782708],[66.645782,37.945902],[66.624336,37.993832],[66.554159,38.026853],[66.439438,38.035457],[66.306939,38.08039],[66.231078,38.148784],[65.876681,38.272962],[65.81436,38.266193],[65.740204,38.224076],[65.60414,38.237409],[65.205301,38.449644],[64.977718,38.61227],[64.634897,38.744148],[64.424315,38.882951],[64.337344,38.970956],[64.283394,38.979689],[64.205982,38.949458],[64.150585,38.949458],[63.709268,39.190891],[63.477551,39.402919],[62.593161,39.890228],[62.452808,40.009239],[62.421595,40.115072],[62.435754,40.194189],[62.405059,40.245245],[62.353279,40.430402],[62.191842,40.499028],[62.134171,40.577834],[62.100064,40.660413],[62.036812,40.736326],[61.982707,40.885671],[61.979297,40.998842],[61.877907,41.124984],[61.654355,41.249421],[61.43318,41.300323],[61.343986,41.193817],[61.281355,41.157282],[61.2026,41.168806],[61.09966,41.2241],[61.022766,41.216865],[61.01026,41.237226],[60.978014,41.202809],[60.930265,41.240223],[60.860295,41.252987],[60.65886,41.243789],[60.478096,41.212111],[60.299916,41.309831],[60.094244,41.389516],[60.059207,41.434165],[60.071713,41.514366],[60.09259,41.545476],[60.16473,41.584956],[60.058277,41.718592],[60.049182,41.753499],[60.102408,41.795279],[60.225398,41.765462],[60.252684,41.780061],[60.228912,41.819619],[60.088766,41.919355],[59.931773,41.947647],[59.906451,41.966613],[59.919267,41.98966],[59.997195,42.010615],[59.974458,42.09924],[59.983656,42.145594],[60.036986,42.169701],[60.028201,42.199518],[59.960712,42.222721],[59.866351,42.304215],[59.689514,42.309796],[59.426481,42.286774],[59.361575,42.32579],[59.258429,42.347545],[59.223806,42.460872],[59.146084,42.526759],[59.122003,42.537999],[59.009245,42.518465],[58.89442,42.547843],[58.587876,42.791188],[58.534546,42.654503],[58.441838,42.647837],[58.258283,42.689514],[58.121341,42.624247],[58.145732,42.592569],[58.306239,42.528671],[58.490621,42.297574],[58.397603,42.287859],[58.384684,42.387827],[58.325049,42.431856],[58.203816,42.469502],[58.133226,42.454567],[58.079896,42.497304],[58.016024,42.499707],[57.908641,42.430434],[57.937476,42.354238],[57.888073,42.261582],[57.827302,42.227372],[57.850453,42.191431],[57.619769,42.148178],[57.382264,42.163629],[57.288213,42.129419],[57.207805,42.07056],[57.115511,41.952092],[56.978361,41.895118],[56.950146,41.86605],[56.971954,41.748538],[56.960481,41.647201],[57.012054,41.557826],[57.019599,41.465946],[57.07417,41.394994],[57.161399,41.367967],[57.080061,41.322027],[57.029521,41.262599],[56.793463,41.288334],[55.978422,41.321717],[55.975839,44.994412],[57.478279,45.336924],[58.554906,45.557169],[61.036305,44.382822],[61.08023,44.335486],[61.102864,44.236061],[61.161672,44.168106],[61.985704,43.493341],[62.026115,43.480629],[63.208007,43.627467],[64.426744,43.547033],[64.855038,43.712914],[64.922941,43.719115],[65.271447,43.417015],[65.51691,43.297229],[65.795239,42.877203],[66.101267,42.990323],[66.053208,42.440873],[66.013727,42.40302],[66.008663,42.002657],[66.504137,41.993484],[66.538863,41.740761],[66.602632,41.493799],[66.688208,41.199192],[66.73296,41.158057],[66.81528,41.141883],[67.748143,41.184102],[67.834908,41.156869],[67.937434,41.20038],[68.034379,41.042716],[68.05908,41.054756],[68.082128,41.042716],[68.117371,41.066745],[68.131324,41.029641],[68.099698,41.013622],[68.120575,40.965304],[68.080578,40.872958],[67.990919,40.811102],[68.067504,40.788002],[68.226099,40.678862],[68.461743,40.584656],[68.514815,40.619124],[68.61424,40.609099],[68.62039,40.622224],[68.601115,40.630028],[68.627418,40.667131],[68.609434,40.71581],[68.574605,40.724492],[68.559773,40.751312],[68.549696,40.835028],[68.571866,40.870478],[68.570884,40.913524],[68.589177,40.9066],[68.600133,40.930061],[68.689378,40.964943],[68.773766,41.087261],[68.842443,41.110102],[68.880219,41.155525],[68.943781,41.164879],[69.031217,41.208752],[69.054782,41.315412],[69.036178,41.374013],[69.128059,41.395149],[69.217149,41.460054],[69.402358,41.474834],[69.380809,41.518811],[69.393779,41.544959],[69.477288,41.573122],[69.624566,41.66831],[69.912404,41.712856],[69.972039,41.764584],[70.1111,41.825975],[70.204169,41.935813],[70.270315,41.965553],[70.315067,42.034593],[70.357907,42.06224],[70.470199,42.091618],[70.534227,42.024981],[70.57903,42.016248],[70.610243,42.02741],[70.734266,42.197296],[70.842373,42.192542],[71.045772,42.29096],[71.253201,42.197555],[71.238215,42.160244],[71.118429,42.122908],[70.977145,42.044231],[70.845474,42.030356],[70.814003,41.919535],[70.648948,41.887393],[70.506476,41.78559],[70.453663,41.71208],[70.169288,41.578342],[70.148255,41.552452],[70.166549,41.520206],[70.344419,41.493799],[70.398989,41.464964],[70.453198,41.405484],[70.66781,41.471372],[70.769199,41.352102],[70.75628,41.269627],[70.770439,41.238518],[70.828524,41.249111],[70.914203,41.193042],[71.024688,41.189787],[71.123079,41.158212],[71.18013,41.108138],[71.185711,41.180227],[71.206382,41.188753],[71.241522,41.175162],[71.276145,41.113151],[71.325238,41.157334],[71.393657,41.112737],[71.416085,41.127362],[71.418772,41.3474],[71.52383,41.296654],[71.585532,41.323525],[71.637415,41.431271],[71.595454,41.493747],[71.62739,41.543202],[71.671418,41.547388],[71.689505,41.493799],[71.671935,41.425483],[71.696119,41.447445],[71.721648,41.424759],[71.745212,41.45282],[71.847015,41.341819],[71.871613,41.194489],[71.977033,41.195213],[72.033773,41.15661],[72.108497,41.196401],[72.158417,41.187875],[72.185599,41.060647],[72.165135,40.999359],[72.289778,41.023544],[72.33236,41.072843],[72.395198,41.022045],[72.481911,41.008816],[72.483358,40.970575],[72.545577,40.956519],[72.619474,40.88009],[72.658231,40.867171],[72.868658,40.864122],[72.870311,40.818181],[73.00343,40.870168],[73.053556,40.83632],[73.14337,40.833839],[73.148641,40.813686],[73.118048,40.782938],[72.783908,40.669663],[72.760034,40.641758],[72.748355,40.575096],[72.664226,40.577783],[72.625468,40.5105],[72.585781,40.508743],[72.447908,40.560471],[72.381556,40.612148],[72.351893,40.601967],[72.370083,40.557732],[72.363469,40.512309],[72.426204,40.45934],[72.394061,40.389422],[72.211644,40.425596],[72.259599,40.44239],[72.254225,40.458307],[72.165858,40.454431],[72.099299,40.426371],[72.043178,40.349321],[71.956672,40.31568],[71.958222,40.286534],[72.019821,40.258732],[72.01889,40.240026],[71.836473,40.249172],[71.775908,40.179926],[71.707178,40.144269],[71.673072,40.147886],[71.660153,40.224471],[71.62832,40.258887],[71.592973,40.198426],[71.521246,40.203749],[71.441355,40.260903],[71.365132,40.294131],[71.283225,40.29842],[71.253821,40.324413],[71.201008,40.263848],[71.053213,40.274235],[70.995129,40.266587],[70.958955,40.238372]],[[70.565904,41.018376],[70.549781,41.015224],[70.56146,40.994605],[70.645072,40.935177],[70.61665,40.99352],[70.565904,41.018376]]],[[[71.176926,40.042001],[71.223745,40.057866],[71.244002,40.046756],[71.174704,39.993994],[71.17703,39.968156],[71.221058,39.931724],[71.208449,39.888781],[71.098895,39.8755],[71.060964,39.904129],[71.021897,39.880823],[71.007634,39.911157],[71.050371,39.962885],[71.045823,39.99203],[70.98314,40.021383],[70.954046,40.095797],[70.977145,40.144579],[71.008564,40.157757],[71.078844,40.07864],[71.176926,40.042001]]]]}}]}
