{"type":"FeatureCollection","features":[{"type":"Feature","properties":{"name":"Saint Vincent and the Grenadines","ISO3166-1-Alpha-3":"VCT","ISO3166-1-Alpha-2":"VC"},"geometry":{"type":"MultiPolygon","coordinates":[[[[-61.194,13.036851],[-61.242421,12.974799],[-61.277211,12.988471],[-61.239613,12.995795],[-61.249257,13.016343],[-61.201487,13.051174],[-61.194,13.036851]]],[[[-61.167348,13.146064],[-61.185211,13.132514],[-61.210194,13.144192],[-61.271352,13.18651],[-61.279368,13.215888],[-61.270375,13.290107],[-61.243398,13.294379],[-61.212026,13.368883],[-61.187123,13.380439],[-61.144032,13.374091],[-61.123931,13.308254],[-61.13801,13.186916],[-61.167348,13.146064]]],[[[-61.441396,12.607896],[-61.426625,12.591864],[-61.455922,12.586086],[-61.441396,12.607896]]],[[[-61.319407,12.733791],[-61.328359,12.699449],[-61.353098,12.696479],[-61.319407,12.733791]]],[[[-61.191762,12.868232],[-61.174957,12.881781],[-61.187611,12.856391],[-61.191762,12.868232]]]]}}]}
