{"type":"FeatureCollection","features":[{"type":"Feature","properties":{"name":"Venezuela","ISO3166-1-Alpha-3":"VEN","ISO3166-1-Alpha-2":"VE"},"geometry":{"type":"MultiPolygon","coordinates":[[[[-60.020985,8.55801],[-59.815595,8.287764],[-59.829289,8.245105],[-59.957059,8.200147],[-60.000674,8.15294],[-60.029587,8.042818],[-60.129219,8.028813],[-60.231125,7.964114],[-60.37476,7.823606],[-60.525758,7.813374],[-60.586995,7.727126],[-60.601257,7.63385],[-60.631695,7.6246],[-60.67115,7.566051],[-60.716496,7.551582],[-60.730578,7.525433],[-60.700657,7.4535],[-60.660634,7.436136],[-60.601774,7.330148],[-60.643555,7.25067],[-60.628413,7.191138],[-60.548005,7.125509],[-60.475322,7.188503],[-60.372021,7.172277],[-60.299932,7.121013],[-60.303575,7.054144],[-60.359696,7.004897],[-60.377344,6.938544],[-60.420958,6.942213],[-60.548728,6.863096],[-60.63955,6.837723],[-60.700347,6.767082],[-60.721534,6.759692],[-60.79352,6.793824],[-60.837625,6.786357],[-60.90757,6.815244],[-60.899482,6.768554],[-60.933821,6.731735],[-61.12983,6.715844],[-61.190188,6.632878],[-61.21197,6.561435],[-61.139752,6.441262],[-61.160913,6.342353],[-61.146702,6.294216],[-61.114792,6.264012],[-61.121562,6.186652],[-61.16112,6.18288],[-61.194477,6.132857],[-61.269382,6.107225],[-61.338086,5.986793],[-61.396713,5.945581],[-61.379608,5.9053],[-60.739854,5.202138],[-60.664303,5.170254],[-60.598674,4.99688],[-60.59193,4.949725],[-60.612626,4.900581],[-60.71815,4.784283],[-60.895813,4.708525],[-60.977281,4.53497],[-61.168587,4.490244],[-61.315581,4.520785],[-61.29305,4.44805],[-61.333228,4.423865],[-61.501874,4.401851],[-61.526731,4.285502],[-61.567271,4.248527],[-61.737803,4.252067],[-61.866891,4.157034],[-62.035046,4.159876],[-62.153592,4.090294],[-62.428097,4.183182],[-62.462978,4.174708],[-62.483701,4.13918],[-62.536979,4.125408],[-62.560957,4.037791],[-62.744357,4.034018],[-62.766216,4.020712],[-62.788798,3.899401],[-62.740429,3.741943],[-62.749576,3.660372],[-62.786318,3.604406],[-62.889412,3.560817],[-62.997054,3.599135],[-63.251199,3.88656],[-63.35171,3.958726],[-63.4254,3.968364],[-63.46886,3.867233],[-63.510666,3.854546],[-63.622804,3.935213],[-63.671587,3.946246],[-63.771012,3.928805],[-63.87514,3.949812],[-63.996425,3.880798],[-64.037663,3.882503],[-64.063811,3.911597],[-64.108149,4.0581],[-64.1467,4.110551],[-64.240596,4.142022],[-64.364981,4.151867],[-64.58967,4.118871],[-64.69987,4.264159],[-64.74594,4.287621],[-64.791622,4.284417],[-64.813042,4.210571],[-64.727104,4.140782],[-64.642897,3.972963],[-64.531431,3.853513],[-64.434538,3.778478],[-64.324157,3.724115],[-64.202976,3.594717],[-64.19786,3.515084],[-64.245609,3.41894],[-64.216308,3.251431],[-64.222923,3.123996],[-64.105953,2.947211],[-63.997562,2.714926],[-64.012186,2.60377],[-64.057817,2.510442],[-64.047972,2.471323],[-63.831319,2.428638],[-63.384834,2.420577],[-63.361115,2.40001],[-63.372639,2.266839],[-63.411758,2.149379],[-63.617533,2.101165],[-63.783208,1.974997],[-63.958339,1.970708],[-64.036629,1.927274],[-64.092957,1.622615],[-64.301523,1.446657],[-64.352941,1.365835],[-64.389579,1.369297],[-64.394773,1.39219],[-64.364594,1.497093],[-64.40901,1.507506],[-64.551197,1.419527],[-64.604217,1.331289],[-64.730876,1.247574],[-64.839293,1.270828],[-64.897404,1.219668],[-64.966469,1.2006],[-65.022486,1.139983],[-65.136769,1.126909],[-65.178988,0.955395],[-65.203044,0.923821],[-65.327196,0.910281],[-65.400009,0.81654],[-65.413884,0.74161],[-65.45122,0.69014],[-65.542661,0.649315],[-65.585217,0.691483],[-65.587336,0.739129],[-65.533179,0.816334],[-65.518503,0.88651],[-65.535814,0.928472],[-65.596043,0.98361],[-65.74544,0.974154],[-65.891761,0.895605],[-65.974082,0.80698],[-66.079192,0.777576],[-66.134382,0.731119],[-66.208745,0.763107],[-66.285071,0.745847],[-66.346204,0.759386],[-66.407079,0.802071],[-66.875061,1.22251],[-66.900899,1.288966],[-66.883536,1.349945],[-66.932731,1.424643],[-66.93361,1.501692],[-66.974176,1.580034],[-66.980894,1.665946],[-67.087296,1.938823],[-67.132616,1.99081],[-67.114633,2.102999],[-67.177833,2.154495],[-67.217262,2.266064],[-67.17375,2.336448],[-67.189718,2.394377],[-67.325421,2.47463],[-67.340614,2.510494],[-67.47089,2.627128],[-67.500294,2.675342],[-67.575586,2.691103],[-67.594293,2.776111],[-67.626591,2.813421],[-67.690411,2.806341],[-67.751028,2.842102],[-67.823323,2.827322],[-67.855931,2.789753],[-67.838619,2.88613],[-67.452183,3.243679],[-67.395804,3.266572],[-67.309453,3.383929],[-67.304647,3.425709],[-67.403917,3.504464],[-67.499829,3.717914],[-67.537449,3.73551],[-67.59481,3.73091],[-67.631759,3.761865],[-67.644419,3.834625],[-67.693874,3.928599],[-67.720642,4.074972],[-67.786219,4.172976],[-67.804926,4.268474],[-67.779398,4.350795],[-67.793092,4.428981],[-67.875051,4.532644],[-67.822858,4.743588],[-67.826372,4.894844],[-67.793092,5.063335],[-67.82663,5.120386],[-67.813505,5.186558],[-67.843684,5.297249],[-67.834589,5.339313],[-67.772577,5.409671],[-67.652481,5.477961],[-67.617031,5.541601],[-67.64907,5.65609],[-67.625144,5.784506],[-67.485204,5.944083],[-67.422469,5.978241],[-67.428567,6.03847],[-67.491199,6.114486],[-67.486961,6.166782],[-67.449961,6.197943],[-67.490475,6.201638],[-67.573984,6.266234],[-67.827199,6.313414],[-67.9043,6.275148],[-67.924144,6.234556],[-67.977991,6.217839],[-68.146508,6.223781],[-68.304172,6.176988],[-68.449021,6.194998],[-68.584724,6.170012],[-68.635315,6.13588],[-68.807863,6.184326],[-69.061129,6.217839],[-69.246104,6.080664],[-69.331396,6.15637],[-69.443638,6.122237],[-70.129203,6.972547],[-70.195013,6.97756],[-70.319062,6.938286],[-70.451664,7.007687],[-70.510704,7.009702],[-70.578607,7.085822],[-70.639275,7.073471],[-70.703302,7.09993],[-70.895539,7.06851],[-70.961323,7.009444],[-71.011268,6.990892],[-71.136041,6.992132],[-71.184048,6.962574],[-71.275516,6.984381],[-71.292517,7.025774],[-71.413905,7.030993],[-71.4677,7.012441],[-71.50992,7.03461],[-71.594721,7.030115],[-71.620404,7.052129],[-71.667016,7.051509],[-71.6696,7.027738],[-71.774038,7.028926],[-71.771506,7.011149],[-71.848194,6.983864],[-71.993818,7.012855],[-72.098256,7.086752],[-72.164143,7.220801],[-72.16404,7.328856],[-72.206208,7.381876],[-72.414619,7.413812],[-72.478698,7.484454],[-72.463402,7.570753],[-72.483349,7.649353],[-72.451774,7.832805],[-72.458647,7.893524],[-72.491204,7.937501],[-72.430122,7.990521],[-72.407074,8.043774],[-72.350075,8.042585],[-72.335761,8.103899],[-72.395964,8.256603],[-72.393535,8.355383],[-72.67543,8.651514],[-72.800022,9.079447],[-72.79103,9.113941],[-72.826687,9.141691],[-72.95531,9.103993],[-73.009725,9.295377],[-73.212245,9.173446],[-73.377816,9.164687],[-73.390839,9.194504],[-73.324383,9.255922],[-73.178448,9.523037],[-73.107652,9.577995],[-72.98554,9.812167],[-72.987711,9.999417],[-72.935621,10.175194],[-72.914899,10.432904],[-72.754392,10.674853],[-72.682975,10.855618],[-72.57647,10.957368],[-72.499317,11.120795],[-72.341342,11.16211],[-72.267083,11.154902],[-72.007926,11.624615],[-71.97108,11.661925],[-71.449458,11.795457],[-71.357629,11.850802],[-71.327507,11.849998],[-71.336049,11.789252],[-71.371449,11.783108],[-71.378163,11.75845],[-71.507069,11.709784],[-71.674428,11.684719],[-71.900706,11.621324],[-71.96052,11.591254],[-71.970123,11.511379],[-71.93932,11.380764],[-71.856923,11.216986],[-71.769765,11.10635],[-71.626454,11.01496],[-71.624664,11.000963],[-71.679311,10.987982],[-71.697133,11.02558],[-71.744211,11.035956],[-71.768666,11.015286],[-71.715688,10.95775],[-71.710439,10.878607],[-71.674062,10.802395],[-71.576283,10.721096],[-71.610422,10.637885],[-71.629547,10.454006],[-71.754465,10.370998],[-71.897694,10.139228],[-71.969065,10.105699],[-72.043691,9.929592],[-72.124379,9.826077],[-72.09024,9.754625],[-71.998931,9.654731],[-71.946848,9.541164],[-71.987864,9.610053],[-72.00829,9.575873],[-71.96052,9.51789],[-71.983713,9.497463],[-72.015126,9.521308],[-71.995229,9.459215],[-71.936391,9.50019],[-71.918935,9.480292],[-71.918935,9.50019],[-71.84439,9.439358],[-71.900746,9.434556],[-71.905263,9.384711],[-71.891591,9.425727],[-71.833567,9.425727],[-71.760854,9.364732],[-71.734527,9.384711],[-71.73998,9.289374],[-71.816518,9.233303],[-71.7447,9.237616],[-71.734527,9.206],[-71.75182,9.190741],[-71.734527,9.165025],[-71.761871,9.130845],[-71.708567,9.076728],[-71.645904,9.049628],[-71.557688,9.041571],[-71.371409,9.093329],[-71.241038,9.155748],[-71.20641,9.232164],[-71.151723,9.28852],[-71.062408,9.326646],[-71.09024,9.555406],[-71.06607,9.589545],[-71.035634,9.744086],[-71.086171,9.811998],[-71.072418,9.857856],[-71.162465,9.970933],[-71.206939,9.980618],[-71.267812,10.151923],[-71.363881,10.219957],[-71.46935,10.401801],[-71.466298,10.502143],[-71.541575,10.564887],[-71.537465,10.597968],[-71.500111,10.627997],[-71.535308,10.686347],[-71.527903,10.740953],[-71.583119,10.809231],[-71.445912,10.79621],[-71.435292,10.818915],[-71.453359,10.871894],[-71.412465,10.919094],[-71.447662,10.920396],[-71.501129,10.960028],[-71.293935,10.98664],[-70.8697,11.196275],[-70.685618,11.248033],[-70.513905,11.25316],[-70.480133,11.289008],[-70.507436,11.261664],[-70.51061,11.286363],[-70.48644,11.295111],[-70.433948,11.287597],[-70.287953,11.357082],[-70.231067,11.351587],[-70.159006,11.401435],[-70.154466,11.469974],[-70.099374,11.429547],[-70.07901,11.457343],[-70.036529,11.440904],[-70.053909,11.506482],[-70.119862,11.522406],[-70.096301,11.531066],[-70.161598,11.568545],[-70.024374,11.514073],[-69.925899,11.513061],[-69.844605,11.436232],[-69.794911,11.436713],[-69.743642,11.503363],[-69.816029,11.693671],[-69.825022,11.675238],[-69.849517,11.693671],[-69.927724,11.658433],[-69.950063,11.656684],[-69.945139,11.673245],[-70.186513,11.602688],[-70.211781,11.609076],[-70.229888,11.627875],[-70.212392,11.687201],[-70.233144,11.748358],[-70.2058,11.734687],[-70.207997,11.774319],[-70.223948,11.788398],[-70.24059,11.761949],[-70.284535,11.857327],[-70.301991,11.85814],[-70.254628,12.006822],[-70.213246,12.056789],[-70.2058,12.112006],[-70.144276,12.117987],[-70.01773,12.19892],[-69.925364,12.159613],[-69.835317,12.015204],[-69.808583,11.803616],[-69.747141,11.63227],[-69.700307,11.540188],[-69.623606,11.46776],[-69.588694,11.463039],[-69.500071,11.508734],[-69.376698,11.494045],[-69.270416,11.536038],[-69.109039,11.49136],[-69.061879,11.453518],[-68.863189,11.452867],[-68.754384,11.374091],[-68.65567,11.347886],[-68.48351,11.206936],[-68.417592,11.179145],[-68.40331,11.200263],[-68.388661,11.128241],[-68.278432,10.925482],[-68.287262,10.912828],[-68.335072,10.939602],[-68.376617,10.919094],[-68.23884,10.884955],[-68.266184,10.8581],[-68.326568,10.84927],[-68.331939,10.829576],[-68.287099,10.657904],[-68.209584,10.537258],[-68.129547,10.487738],[-68.006459,10.488471],[-67.941233,10.466457],[-67.880605,10.479967],[-67.865387,10.452216],[-67.777577,10.495998],[-67.170033,10.555976],[-67.012359,10.611233],[-66.541575,10.632717],[-66.333974,10.611233],[-66.275868,10.652167],[-66.046539,10.576483],[-66.076161,10.548896],[-66.121693,10.542955],[-66.122222,10.507025],[-65.95287,10.35163],[-65.882069,10.309556],[-65.929921,10.323188],[-65.944163,10.309556],[-65.923004,10.282213],[-65.896962,10.287991],[-65.802113,10.225653],[-65.717641,10.22016],[-65.84732,10.281399],[-65.868479,10.309556],[-65.580434,10.185452],[-65.169545,10.097317],[-65.08019,10.062567],[-65.175689,10.083645],[-65.148915,10.058417],[-65.083974,10.047512],[-64.96349,10.097317],[-64.776601,10.090399],[-64.728627,10.136054],[-64.71703,10.227607],[-64.676096,10.213324],[-64.696604,10.199693],[-64.667633,10.187323],[-64.631418,10.248114],[-64.572418,10.261705],[-64.579905,10.248114],[-64.552235,10.242336],[-64.468373,10.248603],[-64.376698,10.300767],[-64.382232,10.316962],[-64.454945,10.313422],[-64.463368,10.332831],[-64.429067,10.323188],[-64.380605,10.343695],[-64.380605,10.370998],[-64.402415,10.370998],[-64.381256,10.386217],[-64.357411,10.33869],[-64.339182,10.390692],[-64.210561,10.439276],[-64.188547,10.477607],[-64.127675,10.477607],[-64.051829,10.447943],[-63.943023,10.460395],[-63.863637,10.446112],[-63.655019,10.494534],[-63.729726,10.497504],[-63.82315,10.549384],[-63.966664,10.581366],[-64.045481,10.570258],[-64.03185,10.590074],[-64.086171,10.567125],[-64.169057,10.570258],[-64.233876,10.515041],[-64.297678,10.619859],[-64.270741,10.672675],[-64.240793,10.646064],[-64.144765,10.617418],[-64.048899,10.652167],[-63.91511,10.631049],[-63.846832,10.652167],[-63.812123,10.713609],[-63.756947,10.665595],[-63.553334,10.629136],[-63.466176,10.667629],[-63.404897,10.665839],[-63.387563,10.699368],[-63.339752,10.672675],[-63.251291,10.680569],[-63.16161,10.734687],[-63.137441,10.706773],[-63.014231,10.721096],[-62.928212,10.699368],[-62.705678,10.76203],[-62.154205,10.686347],[-62.102406,10.713609],[-61.845774,10.740953],[-61.876861,10.722724],[-61.886708,10.680121],[-61.897694,10.690375],[-61.962473,10.652167],[-62.088938,10.631293],[-62.252675,10.632392],[-62.33495,10.530219],[-62.662343,10.567043],[-62.923329,10.530829],[-63.010813,10.453559],[-62.894114,10.529283],[-62.857004,10.531562],[-62.831125,10.406806],[-62.866119,10.391506],[-62.897817,10.412014],[-62.995188,10.407864],[-63.003977,10.38467],[-62.975982,10.398342],[-62.956166,10.357367],[-62.997141,10.323188],[-62.978586,10.310981],[-63.003977,10.275377],[-62.93163,10.285631],[-62.957102,10.383775],[-62.942494,10.405178],[-62.879791,10.370998],[-62.801625,10.405178],[-62.764475,10.395331],[-62.674957,10.293362],[-62.674957,10.213324],[-62.626576,10.130805],[-62.656606,10.08218],[-62.712554,10.069322],[-62.777455,10.086493],[-62.822743,10.04206],[-62.851389,10.08039],[-62.894114,10.069322],[-62.901519,10.103461],[-62.935129,10.083645],[-62.963002,10.110297],[-63.017649,10.103461],[-62.982167,10.069078],[-62.952992,10.08808],[-62.936025,10.008246],[-62.920766,10.007961],[-62.931711,10.065009],[-62.914622,10.083645],[-62.895579,10.044013],[-62.853139,10.05565],[-62.797922,10.028998],[-62.801096,9.995998],[-62.777415,10.018459],[-62.784983,10.06977],[-62.764312,10.076158],[-62.716705,10.048407],[-62.61852,10.09162],[-62.605946,10.133246],[-62.619537,10.224433],[-62.579945,10.224433],[-62.494944,10.151801],[-62.426178,9.967515],[-62.44164,9.932807],[-62.408925,9.924018],[-62.377594,9.88467],[-62.32429,9.785631],[-62.318715,9.706244],[-62.270497,9.766669],[-62.242991,9.842841],[-62.257232,9.974351],[-62.221995,9.938381],[-62.1787,9.846137],[-62.175893,9.704983],[-62.215688,9.637926],[-62.181874,9.648871],[-62.154286,9.726142],[-62.160471,9.850246],[-62.19518,9.932807],[-62.119456,9.921454],[-62.08845,9.879299],[-62.027333,9.874416],[-62.13561,9.940619],[-62.221425,9.951809],[-62.236806,9.966946],[-62.196476,10.019678],[-62.025383,9.957357],[-61.831451,9.791938],[-61.810374,9.748196],[-61.845774,9.651028],[-61.797353,9.760891],[-61.7801,9.759223],[-61.743316,9.699408],[-61.743316,9.596381],[-61.731028,9.694037],[-61.763173,9.760891],[-61.797353,9.774563],[-61.828172,9.827158],[-61.592519,9.781968],[-61.578114,9.808824],[-61.670966,9.896499],[-61.636735,9.898771],[-61.475701,9.801701],[-61.422265,9.736261],[-61.458042,9.812458],[-61.503098,9.839567],[-61.439168,9.818411],[-61.236508,9.632169],[-61.206044,9.577379],[-61.191965,9.583319],[-61.208323,9.603827],[-61.130116,9.572496],[-61.053212,9.581285],[-60.960601,9.538723],[-60.961293,9.487454],[-60.920725,9.490302],[-60.862294,9.456122],[-60.797434,9.384711],[-60.78539,9.313544],[-60.797434,9.294745],[-60.810414,9.315863],[-60.821889,9.272773],[-60.968658,9.206],[-61.085439,9.102444],[-61.11205,9.04149],[-60.959137,9.182522],[-61.006581,9.048774],[-61.078521,8.997463],[-61.09968,8.960354],[-61.11205,8.857123],[-61.180084,8.735826],[-61.209462,8.609036],[-61.233306,8.589301],[-61.277211,8.589016],[-61.348541,8.610093],[-61.523061,8.596625],[-61.60554,8.630561],[-61.659047,8.616523],[-61.651967,8.585842],[-61.598744,8.555487],[-61.537262,8.527574],[-61.499664,8.534369],[-61.434234,8.479153],[-61.35912,8.486558],[-61.284047,8.397203],[-61.18102,8.493394],[-61.026601,8.500922],[-61.040151,8.472846],[-61.077992,8.466457],[-61.085764,8.415595],[-61.071889,8.403306],[-61.066558,8.456285],[-61.020375,8.468817],[-60.975575,8.575995],[-60.692454,8.604682],[-60.626088,8.555487],[-60.478912,8.532375],[-60.461578,8.534369],[-60.403717,8.622504],[-60.371897,8.635403],[-60.197825,8.623847],[-60.020985,8.55801]]],[[[-61.016469,8.610093],[-60.996002,8.602688],[-60.992543,8.576728],[-61.027699,8.543118],[-61.050649,8.555487],[-61.041575,8.518541],[-61.270375,8.514553],[-61.22761,8.571601],[-61.180247,8.569648],[-61.126373,8.534369],[-61.137847,8.55976],[-61.098459,8.602688],[-61.016469,8.610093]]],[[[-60.920277,9.028469],[-60.875478,9.027981],[-60.838368,9.000556],[-60.865712,8.99433],[-60.850819,8.970649],[-60.86498,8.94123],[-60.933583,8.883938],[-61.091624,8.822414],[-61.016713,8.880316],[-60.920277,9.028469]]],[[[-61.085439,8.890692],[-61.096588,8.90058],[-61.069325,8.978827],[-61.002268,9.000556],[-60.930816,9.075629],[-60.85204,9.096137],[-60.87564,9.043647],[-60.942983,9.025824],[-61.043813,8.91177],[-61.085439,8.890692]]],[[[-60.873158,9.116604],[-60.961293,9.069403],[-60.936757,9.164618],[-60.853342,9.194037],[-60.847483,9.163031],[-60.873158,9.116604]]],[[[-60.81786,9.206],[-60.757924,9.230414],[-60.728505,9.192939],[-60.797434,9.17182],[-60.823801,9.122301],[-60.845204,9.116604],[-60.81786,9.206]]],[[[-63.976552,10.809231],[-63.903635,10.777289],[-63.909169,10.735541],[-64.004506,10.775702],[-63.976552,10.809231]]],[[[-65.22761,10.953803],[-65.208241,10.949897],[-65.204945,10.904364],[-65.244618,10.884955],[-65.237864,10.898586],[-65.31664,10.891099],[-65.411773,10.92475],[-65.376698,10.966051],[-65.329905,10.977607],[-65.22761,10.953803]]],[[[-63.846832,11.135403],[-63.787668,10.973782],[-63.819569,10.980536],[-63.819569,10.953803],[-63.842926,10.96776],[-63.898061,10.884955],[-63.976552,10.891099],[-64.059722,10.857611],[-64.056874,10.887112],[-64.096099,10.890937],[-64.116363,10.928616],[-64.175852,10.967475],[-64.224355,10.939358],[-64.408559,10.967475],[-64.370595,11.062486],[-64.220082,11.091539],[-64.188832,11.073635],[-64.18163,11.034084],[-64.049062,10.990709],[-64.017568,11.015286],[-64.017568,11.05622],[-63.976552,11.118313],[-63.935618,11.125149],[-63.880971,11.179145],[-63.846832,11.135403]]],[[[-66.608266,11.783108],[-66.587799,11.783108],[-66.641835,11.761461],[-66.704498,11.783108],[-66.650868,11.780178],[-66.615102,11.824042],[-66.608266,11.783108]]],[[[-66.132192,11.824042],[-66.102935,11.819281],[-66.114003,11.779934],[-66.194325,11.817694],[-66.132192,11.824042]]],[[[-64.607167,11.899115],[-64.556793,11.857327],[-64.562856,11.816596],[-64.648793,11.830268],[-64.607167,11.899115]]],[[[-66.749989,11.777574],[-66.728017,11.78205],[-66.854604,11.75137],[-66.749989,11.777574]]],[[[-66.733388,11.86994],[-66.711781,11.867906],[-66.81786,11.87108],[-66.733388,11.86994]]],[[[-67.65803,11.984931],[-67.637603,11.980048],[-67.674875,11.989651],[-67.65803,11.984931]]],[[[-67.680409,12.025051],[-67.681549,12.025784],[-67.679067,12.028144],[-67.680409,12.025051]]],[[[-67.677602,12.027818],[-67.677235,12.030015],[-67.676381,12.027818],[-67.677602,12.027818]]],[[[-67.677235,12.050238],[-67.674672,12.048407],[-67.676096,12.04442],[-67.677235,12.050238]]],[[[-67.681386,12.063707],[-67.68102,12.061835],[-67.684438,12.063463],[-67.681386,12.063707]]],[[[-67.687327,12.065579],[-67.688832,12.068996],[-67.687082,12.067532],[-67.687327,12.065579]]],[[[-63.639882,15.696031],[-63.639638,15.702948],[-63.633941,15.696194],[-63.639882,15.696031]]],[[[-61.390271,8.580581],[-61.314603,8.571314],[-61.302737,8.51499],[-61.260264,8.486377],[-61.263688,8.456088],[-61.293438,8.456939],[-61.338444,8.509952],[-61.433688,8.514154],[-61.540116,8.565411],[-61.390271,8.580581]]],[[[-60.745024,8.719359],[-60.676056,8.762917],[-60.687225,8.709995],[-60.666022,8.686418],[-60.611611,8.683771],[-60.617677,8.636723],[-60.808134,8.632888],[-60.745024,8.719359]]],[[[-60.951361,8.827825],[-60.883289,8.840489],[-60.861699,8.870245],[-60.778106,8.870098],[-60.732365,8.89215],[-60.737598,8.866613],[-60.686043,8.789015],[-60.769735,8.741511],[-60.846576,8.637715],[-61.093874,8.633744],[-61.169915,8.595314],[-61.167108,8.699385],[-61.12644,8.756478],[-61.059969,8.798163],[-60.951361,8.827825]]],[[[-62.331125,9.920559],[-62.316396,9.885647],[-62.325754,9.844184],[-62.349355,9.872301],[-62.348785,9.913723],[-62.331125,9.920559]]],[[[-62.40331,10.006293],[-62.391103,9.993354],[-62.408925,9.972561],[-62.436187,10.046576],[-62.40331,10.006293]]],[[[-62.240834,10.0515],[-62.235341,10.013861],[-62.298004,9.98371],[-62.286366,10.0244],[-62.240834,10.0515]]],[[[-62.665151,10.36636],[-62.649403,10.344916],[-62.65982,10.310004],[-62.787587,10.430121],[-62.781117,10.492906],[-62.665151,10.36636]]],[[[-64.168609,10.827948],[-64.155873,10.811957],[-64.174794,10.799221],[-64.220937,10.806464],[-64.20344,10.827297],[-64.168609,10.827948]]]]}}]}
