{"type":"FeatureCollection","features":[{"type":"Feature","properties":{"name":"British Virgin Islands","ISO3166-1-Alpha-3":"VGB","ISO3166-1-Alpha-2":"VG"},"geometry":{"type":"MultiPolygon","coordinates":[[[[-64.635121,18.405504],[-64.659685,18.383072],[-64.714128,18.386203],[-64.641705,18.451158],[-64.516845,18.43929],[-64.635121,18.405504]]],[[[-64.380605,18.480902],[-64.443349,18.443061],[-64.415395,18.511949],[-64.326039,18.511949],[-64.380605,18.480902]]],[[[-64.336537,18.72427],[-64.408559,18.744696],[-64.320302,18.746243],[-64.285064,18.734076],[-64.270741,18.70067],[-64.336537,18.72427]]],[[[-64.569447,18.357978],[-64.570912,18.334662],[-64.603017,18.355618],[-64.569447,18.357978]]],[[[-64.729807,18.453437],[-64.730336,18.437893],[-64.773997,18.442288],[-64.729807,18.453437]]],[[[-64.532704,18.494127],[-64.529164,18.476386],[-64.538238,18.465155],[-64.532704,18.494127]]]]}}]}
