{"type":"FeatureCollection","features":[{"type":"Feature","properties":{"name":"United States Virgin Islands","ISO3166-1-Alpha-3":"VIR","ISO3166-1-Alpha-2":"VI"},"geometry":{"type":"MultiPolygon","coordinates":[[[[-64.559397,17.751614],[-64.895172,17.682766],[-64.876454,17.775865],[-64.838694,17.764838],[-64.771637,17.792629],[-64.689768,17.744778],[-64.630971,17.770331],[-64.559397,17.751614]]],[[[-64.700994,18.342976],[-64.704005,18.30331],[-64.801285,18.328253],[-64.746955,18.37359],[-64.66039,18.336723],[-64.700994,18.342976]]],[[[-64.871637,18.314623],[-65.041493,18.353658],[-64.986643,18.374823],[-64.926019,18.366154],[-64.950028,18.386599],[-64.84008,18.317489],[-64.871637,18.314623]]]]}}]}
