{"type":"FeatureCollection","features":[{"type":"Feature","properties":{"name":"Vietnam","ISO3166-1-Alpha-3":"VNM","ISO3166-1-Alpha-2":"VN"},"geometry":{"type":"MultiPolygon","coordinates":[[[[107.520393,14.704582],[107.490885,14.80424],[107.558168,14.886715],[107.461947,14.956814],[107.445565,15.025389],[107.589071,15.058178],[107.580492,15.096754],[107.615787,15.135511],[107.62726,15.196515],[107.653976,15.199564],[107.664105,15.268552],[107.58659,15.343354],[107.573154,15.411231],[107.493934,15.420042],[107.487475,15.481408],[107.442981,15.509209],[107.369342,15.496058],[107.316426,15.58874],[107.239118,15.645119],[107.225682,15.71682],[107.148787,15.773457],[107.186253,15.859395],[107.235656,15.855519],[107.375544,15.919081],[107.444738,16.00998],[107.435643,16.068839],[107.298959,16.064189],[107.238808,16.129818],[107.142018,16.176998],[107.108273,16.267484],[107.053393,16.295234],[106.956551,16.307068],[106.946009,16.346135],[106.897743,16.378536],[106.876298,16.418017],[106.855885,16.414658],[106.86405,16.504058],[106.846687,16.530052],[106.822864,16.530982],[106.742404,16.421531],[106.670677,16.444424],[106.64117,16.510363],[106.640188,16.586637],[106.57244,16.613561],[106.540659,16.659139],[106.524536,16.989248],[106.496838,16.963927],[106.411365,16.995708],[106.387129,17.047178],[106.394932,17.068003],[106.306358,17.176524],[106.310544,17.227115],[106.284551,17.284786],[106.259953,17.28923],[106.221816,17.244892],[106.185435,17.257397],[106.019296,17.394495],[105.819876,17.621561],[105.723086,17.673496],[105.64397,17.820102],[105.605212,17.85426],[105.606039,17.964124],[105.559324,18.015336],[105.546508,18.058951],[105.476021,18.127318],[105.46672,18.180959],[105.410031,18.201888],[105.365537,18.151038],[105.29505,18.195609],[105.292518,18.252737],[105.235933,18.249456],[105.166169,18.306791],[105.162862,18.366012],[105.079973,18.454353],[105.113615,18.580831],[105.169477,18.61486],[105.112684,18.698343],[104.919725,18.735576],[104.899364,18.770612],[104.872906,18.777976],[104.71028,18.796089],[104.556078,18.89647],[104.497683,18.967991],[104.413244,18.983106],[104.35516,19.047882],[104.25992,19.104055],[104.210621,19.100747],[104.198115,19.146946],[104.14773,19.182887],[104.036729,19.230249],[103.972754,19.225288],[103.892655,19.293888],[103.84842,19.299908],[103.952807,19.390962],[104.03828,19.412925],[104.060501,19.471293],[104.089956,19.48367],[104.071559,19.559143],[104.017351,19.600407],[104.000969,19.680738],[104.088716,19.651902],[104.13631,19.687456],[104.228966,19.706008],[104.295267,19.654874],[104.380068,19.685285],[104.505848,19.60281],[104.579229,19.618028],[104.614265,19.607435],[104.675967,19.724689],[104.805003,19.790886],[104.81663,19.848092],[104.755549,19.867006],[104.780663,19.908088],[104.873836,19.982657],[104.94949,19.995499],[104.943961,20.067097],[104.964425,20.076088],[104.904893,20.134638],[104.907994,20.175333],[104.819162,20.220989],[104.69085,20.196546],[104.657053,20.212695],[104.657363,20.279616],[104.688628,20.301036],[104.680928,20.340982],[104.575508,20.414052],[104.432364,20.411055],[104.35981,20.439735],[104.444973,20.534613],[104.495823,20.511927],[104.542642,20.535699],[104.615195,20.646493],[104.492309,20.702097],[104.452621,20.763592],[104.389059,20.770981],[104.278937,20.891542],[104.221059,20.892008],[104.193877,20.929886],[104.092282,20.961202],[104.056676,20.958825],[104.010581,20.908079],[103.785324,20.845964],[103.756746,20.795993],[103.754576,20.742921],[103.70724,20.721837],[103.714268,20.671711],[103.676338,20.656518],[103.577946,20.732896],[103.489373,20.752481],[103.440435,20.815733],[103.347676,20.789068],[103.115287,20.868391],[103.014518,21.040526],[102.951576,21.068999],[102.925634,21.141656],[102.889099,21.166409],[102.887859,21.226923],[102.801301,21.254828],[102.875198,21.305316],[102.883828,21.38836],[102.918038,21.450113],[102.84967,21.425412],[102.974107,21.575325],[102.947804,21.737124],[102.84719,21.704464],[102.826467,21.821305],[102.806727,21.836084],[102.789157,21.820323],[102.786676,21.739914],[102.752157,21.6809],[102.650664,21.657801],[102.625136,21.828643],[102.59103,21.901352],[102.478065,21.957576],[102.466386,21.995351],[102.482871,22.021396],[102.422151,22.06222],[102.38944,22.117101],[102.20697,22.245413],[102.154364,22.304686],[102.118655,22.397549],[102.164544,22.425506],[102.218029,22.410675],[102.252549,22.495476],[102.376882,22.615572],[102.35585,22.669935],[102.407268,22.693448],[102.442718,22.765175],[102.515789,22.745176],[102.535787,22.695825],[102.586689,22.716082],[102.831842,22.599707],[102.902587,22.477234],[103.029039,22.430157],[103.045059,22.440544],[103.04418,22.486484],[103.142004,22.537799],[103.141745,22.607045],[103.244891,22.668695],[103.309642,22.787938],[103.357081,22.776027],[103.401729,22.737838],[103.404313,22.688797],[103.447515,22.618259],[103.503635,22.581413],[103.550919,22.64079],[103.547147,22.700683],[103.590038,22.768017],[103.646934,22.799049],[103.836328,22.602756],[103.959525,22.507103],[103.985363,22.527153],[104.02381,22.719183],[104.086856,22.791556],[104.241161,22.824396],[104.236821,22.742076],[104.340173,22.686368],[104.449004,22.745176],[104.553545,22.836049],[104.588427,22.806852],[104.609821,22.823001],[104.700772,22.818247],[104.823606,22.924132],[104.797923,23.085569],[104.861279,23.119598],[104.870064,23.163548],[104.935072,23.154273],[105.06106,23.232459],[105.155627,23.26685],[105.200896,23.254008],[105.245544,23.330179],[105.312155,23.36581],[105.34404,23.304186],[105.425895,23.273206],[105.473851,23.194503],[105.528266,23.155513],[105.551572,23.059679],[105.690324,23.043969],[105.754712,23.005677],[105.853879,22.90465],[105.875997,22.928266],[105.961211,22.9324],[105.999245,22.975369],[106.132105,22.975007],[106.202385,22.946998],[106.227087,22.875556],[106.255405,22.854653],[106.457977,22.888966],[106.487794,22.925423],[106.58169,22.89527],[106.610371,22.85287],[106.667473,22.86752],[106.730363,22.797628],[106.789843,22.797188],[106.791497,22.772125],[106.746641,22.744349],[106.680186,22.57945],[106.646338,22.568804],[106.607632,22.609991],[106.577143,22.595314],[106.526913,22.43827],[106.541796,22.345097],[106.63378,22.30944],[106.662926,22.223296],[106.639671,22.190895],[106.672176,22.092503],[106.653107,21.968893],[106.674605,21.962175],[106.728761,22.008322],[106.781523,21.975042],[106.864774,21.968066],[106.920378,21.916958],[106.971227,21.93582],[107.009364,21.927448],[107.021147,21.892257],[106.987144,21.844818],[107.002905,21.810556],[107.065847,21.795828],[107.172352,21.715058],[107.272656,21.718314],[107.348155,21.599355],[107.426032,21.652065],[107.457037,21.631497],[107.461016,21.596357],[107.501324,21.581526],[107.533053,21.608656],[107.613204,21.605607],[107.777896,21.655992],[107.832363,21.639352],[107.991222,21.485663],[107.929698,21.442613],[107.909679,21.526516],[107.881928,21.534084],[107.868419,21.513617],[107.862804,21.530219],[107.835948,21.488349],[107.826671,21.526679],[107.812999,21.520453],[107.820567,21.493109],[107.796235,21.519477],[107.766856,21.520209],[107.752208,21.506781],[107.788585,21.494452],[107.786388,21.458401],[107.761811,21.450751],[107.748546,21.4112],[107.69809,21.398383],[107.669037,21.4112],[107.663422,21.378079],[107.63502,21.383246],[107.642345,21.342271],[107.608165,21.335517],[107.590587,21.293891],[107.554047,21.304511],[107.522309,21.348538],[107.526622,21.298774],[107.415294,21.328681],[107.409028,21.315009],[107.443126,21.287665],[107.367442,21.273383],[107.360606,21.239244],[107.35434,21.191474],[107.388438,21.184638],[107.35434,21.082221],[107.374278,21.027574],[107.333832,21.005845],[107.211192,20.992255],[107.23113,20.979193],[107.19337,20.952704],[107.197032,20.937649],[107.149181,20.930813],[107.066091,20.958726],[107.149181,21.040595],[107.083751,21.005845],[107.080333,21.03384],[107.063243,21.009345],[107.052989,21.03384],[107.046153,20.999701],[107.025645,21.03384],[107.039317,20.999701],[106.997813,21.020168],[107.025645,20.972357],[107.000987,20.951077],[106.85377,20.992255],[106.943126,20.910305],[106.901703,20.907864],[106.874278,20.937649],[106.88795,20.910305],[106.867931,20.882717],[106.833263,20.937649],[106.806,20.932074],[106.772472,20.957424],[106.820649,20.97602],[106.798106,21.024807],[106.778575,21.027574],[106.785411,21.013373],[106.730805,21.029853],[106.710297,21.020168],[106.717784,21.005845],[106.6421,21.020168],[106.682953,21.005845],[106.655772,21.005845],[106.67628,20.958726],[106.755138,20.938544],[106.744477,20.883002],[106.717784,20.90351],[106.699962,20.882758],[106.744477,20.848863],[106.749197,20.804348],[106.717784,20.807847],[106.755626,20.751207],[106.778575,20.746405],[106.805919,20.677558],[106.7671,20.713446],[106.71697,20.691311],[106.662608,20.697984],[106.703136,20.659654],[106.637543,20.628079],[106.586762,20.663275],[106.627208,20.616604],[106.624766,20.594631],[106.518565,20.540961],[106.579926,20.547187],[106.567719,20.524888],[106.579926,20.478258],[106.518565,20.437323],[106.594249,20.448188],[106.584158,20.381822],[106.559581,20.375922],[106.592593,20.275411],[106.581659,20.264177],[106.536957,20.309149],[106.498057,20.308254],[106.548513,20.291449],[106.569615,20.231994],[106.380707,20.211982],[106.38795,20.197496],[106.197032,20.012763],[106.203298,20.047512],[106.176036,19.992336],[106.107107,19.964993],[106.107107,20.033271],[106.083507,19.964993],[106.025157,19.999172],[105.955577,19.925482],[105.928884,19.793647],[105.915294,19.807318],[105.867442,19.773179],[105.928884,19.780015],[105.92335,19.766791],[105.895274,19.72134],[105.866954,19.721096],[105.819021,19.587592],[105.817556,19.610012],[105.790863,19.603461],[105.791759,19.587592],[105.805431,19.60871],[105.819021,19.57392],[105.812755,19.423163],[105.798595,19.430569],[105.771251,19.403266],[105.810069,19.321479],[105.812755,19.307034],[105.791759,19.320705],[105.808767,19.280178],[105.772309,19.235989],[105.743419,19.23192],[105.737071,19.108466],[105.643809,19.065375],[105.613292,18.985541],[105.634776,18.909817],[105.716645,18.85456],[105.702891,18.834133],[105.675059,18.85456],[105.688731,18.826646],[105.720063,18.823554],[105.751964,18.786322],[105.750743,18.662787],[105.77003,18.671576],[105.764415,18.758979],[105.783458,18.74726],[105.825938,18.593899],[105.879242,18.510932],[105.915294,18.47309],[105.949474,18.471015],[105.977306,18.402086],[106.110118,18.275539],[106.093435,18.258734],[106.165782,18.26557],[106.270844,18.204088],[106.346039,18.132717],[106.354015,18.114691],[106.306326,18.100491],[106.340343,18.100491],[106.34669,18.059475],[106.360199,18.100491],[106.434825,18.123521],[106.427745,18.072903],[106.52475,17.949612],[106.436046,17.881985],[106.470063,17.748196],[106.498057,17.710639],[106.448741,17.71601],[106.435557,17.739447],[106.374522,17.765286],[106.285167,17.772121],[106.42921,17.731147],[106.383067,17.719184],[106.379649,17.698798],[106.408702,17.682766],[106.39503,17.703192],[106.417491,17.712958],[106.504405,17.682766],[106.634613,17.470404],[106.763927,17.335517],[107.111827,17.088284],[107.121267,17.018541],[107.203868,16.919257],[107.141775,16.867743],[107.190196,16.874579],[107.216482,16.907945],[107.635265,16.587226],[107.473643,16.653144],[107.44337,16.648017],[107.635265,16.559272],[107.608409,16.544989],[107.663097,16.551825],[107.648936,16.52143],[107.663097,16.497219],[107.697113,16.520087],[107.841156,16.379788],[107.79656,16.387356],[107.812266,16.313178],[107.896495,16.278062],[107.937511,16.312079],[107.929942,16.353217],[108.011974,16.319037],[108.042979,16.346381],[108.094493,16.236518],[108.052013,16.262112],[108.053966,16.235989],[108.204356,16.216702],[108.142263,16.148383],[108.142833,16.119371],[108.19752,16.072008],[108.228282,16.089748],[108.233246,16.037095],[108.19752,16.00373],[108.249848,16.023261],[108.258962,16.010565],[108.247325,16.123236],[108.224864,16.127265],[108.245372,16.162014],[108.317393,16.134711],[108.331391,16.155341],[108.348399,16.134711],[108.31422,16.099921],[108.265798,16.107408],[108.279145,15.995673],[108.305919,15.955227],[108.388194,15.898383],[108.396169,15.880845],[108.375173,15.869452],[108.409923,15.880845],[108.455333,15.747016],[108.618663,15.529242],[108.683442,15.517768],[108.667735,15.482652],[108.656261,15.496649],[108.629405,15.486518],[108.628917,15.455715],[108.652517,15.438788],[108.697113,15.490424],[108.703949,15.445136],[108.77296,15.386786],[108.77296,15.325344],[108.78712,15.345852],[108.8213,15.345852],[108.788585,15.374172],[108.814464,15.407904],[108.800141,15.429023],[108.827485,15.429023],[108.839041,15.374335],[108.882823,15.336168],[108.886567,15.2862],[108.951671,15.25023],[108.903331,15.222886],[108.924327,15.201809],[108.910004,15.209296],[108.897716,15.153998],[108.862478,15.152493],[108.892263,15.141343],[108.897716,15.119859],[108.910004,15.146633],[108.942638,14.97956],[109.005626,14.838772],[108.985525,14.836615],[109.086111,14.715318],[109.088227,14.58926],[109.061046,14.563707],[109.067068,14.550727],[109.074474,14.578599],[109.125743,14.465399],[109.136485,14.366848],[109.190603,14.291246],[109.190929,14.220526],[109.239024,14.133002],[109.19752,14.167792],[109.17449,14.172065],[109.172618,14.156562],[109.225434,14.10399],[109.266368,13.920722],[109.307384,13.87637],[109.303966,13.759263],[109.269786,13.755601],[109.273204,13.82453],[109.251475,13.890937],[109.220714,13.806138],[109.258962,13.77733],[109.224783,13.722113],[109.247569,13.622707],[109.303884,13.568793],[109.286794,13.557603],[109.2942,13.530341],[109.218516,13.646959],[109.210134,13.630805],[109.286794,13.509223],[109.31422,13.522895],[109.303722,13.479885],[109.339692,13.465481],[109.307384,13.406806],[109.273204,13.431057],[109.300466,13.461371],[109.245128,13.485175],[109.232188,13.393134],[109.28004,13.352769],[109.307384,13.352769],[109.286794,13.331041],[109.2942,13.297553],[109.273204,13.310614],[109.258962,13.297553],[109.2942,13.2355],[109.303722,13.303168],[109.318126,13.288886],[109.307384,13.133043],[109.465017,12.913316],[109.458181,12.851874],[109.430919,12.84512],[109.450043,12.873236],[109.438243,12.878607],[109.368826,12.824612],[109.420746,12.691311],[109.472423,12.656399],[109.451345,12.638983],[109.451345,12.570746],[109.440278,12.564602],[109.405121,12.617987],[109.424083,12.652655],[109.403494,12.687445],[109.376231,12.673774],[109.376231,12.638983],[109.342052,12.660102],[109.389903,12.711615],[109.358897,12.797309],[109.204926,12.64643],[109.204926,12.550238],[109.218516,12.543402],[109.232188,12.591254],[109.249034,12.585517],[109.237153,12.522284],[109.29835,12.477973],[109.298513,12.430813],[109.345958,12.396308],[109.297374,12.35102],[109.185069,12.45893],[109.156505,12.454657],[109.170177,12.433539],[109.149669,12.440375],[109.176931,12.3994],[109.1963,12.402777],[109.214122,12.332913],[109.242035,12.305406],[109.204926,12.262885],[109.176931,12.276516],[109.211192,12.248603],[109.224783,12.200832],[109.184337,12.193996],[109.204356,12.193793],[109.226817,12.137885],[109.209972,12.109687],[109.220551,12.050605],[109.286794,11.967434],[109.26588,11.909898],[109.2942,11.871243],[109.224783,11.878648],[109.218516,12.015815],[109.176768,12.129462],[109.163341,12.112006],[109.208181,11.97663],[109.125824,11.863593],[109.131602,11.830024],[109.163341,11.824042],[109.204926,11.868109],[109.203624,11.784573],[109.242931,11.735663],[109.135997,11.570217],[109.067068,11.583808],[109.043468,11.638495],[109.020274,11.632799],[109.040375,11.601508],[109.040375,11.542873],[109.012462,11.542873],[109.028331,11.47427],[109.022472,11.367621],[109.005626,11.343655],[108.951671,11.310126],[108.838064,11.330756],[108.775157,11.288479],[108.72934,11.181545],[108.656261,11.192816],[108.531261,11.153266],[108.472341,11.053168],[108.368826,11.022773],[108.344981,10.953803],[108.31544,10.944322],[108.300059,10.912828],[108.28533,10.943345],[108.258637,10.951809],[108.106456,10.918158],[108.065684,10.867987],[107.998302,10.699368],[107.919444,10.721096],[107.823904,10.692369],[107.768321,10.650214],[107.580577,10.570258],[107.511404,10.501654],[107.334158,10.453559],[107.271983,10.378485],[107.190196,10.405178],[107.21697,10.434475],[107.175955,10.477444],[107.141775,10.480862],[107.135509,10.46662],[107.102794,10.489936],[107.059825,10.480862],[107.059825,10.508205],[107.031912,10.474066],[107.025645,10.50137],[106.991466,10.480862],[107.032725,10.525946],[107.031912,10.607489],[107.011404,10.637885],[107.025645,10.631049],[107.023692,10.656317],[106.984141,10.699368],[107.011404,10.65526],[107.002452,10.617092],[107.025076,10.603909],[107.011404,10.562812],[107.026866,10.544176],[106.997813,10.54914],[106.991466,10.624905],[106.984141,10.566881],[107.011404,10.521877],[106.963634,10.46662],[106.937755,10.548733],[106.943126,10.600653],[106.881602,10.652167],[106.828624,10.630276],[106.785818,10.680121],[106.747569,10.673651],[106.736827,10.658149],[106.772472,10.603746],[106.733409,10.522447],[106.688813,10.503648],[106.655772,10.521877],[106.668712,10.494534],[106.594249,10.439276],[106.579926,10.487738],[106.581879,10.452786],[106.615408,10.436591],[106.655772,10.474066],[106.670177,10.432563],[106.689789,10.433051],[106.713634,10.468085],[106.741059,10.468004],[106.788097,10.393134],[106.790782,10.284857],[106.598318,10.28852],[106.422374,10.316962],[106.797618,10.157213],[106.79127,10.110175],[106.737071,10.054145],[106.704112,10.048896],[106.696625,10.083645],[106.668712,10.032416],[106.684093,10.01203],[106.648936,9.974351],[106.591075,9.98078],[106.468923,10.058987],[106.359874,10.220689],[106.292003,10.261705],[106.349376,10.21483],[106.3685,10.155911],[106.461681,10.035712],[106.6963,9.896552],[106.668712,9.842841],[106.662608,9.883734],[106.637869,9.825995],[106.586762,9.822943],[106.504405,9.905463],[106.39503,9.974351],[106.144867,10.228583],[106.113292,10.23428],[106.157888,10.19538],[106.19337,10.120266],[106.475759,9.861802],[106.537852,9.751166],[106.574962,9.739081],[106.575531,9.648627],[106.543712,9.585028],[106.484874,9.547105],[106.38502,9.548285],[106.250336,9.631171],[105.932872,9.95539],[105.819021,10.007961],[106.073497,9.747952],[106.197032,9.541164],[106.210704,9.470038],[106.1692,9.418199],[106.194591,9.398993],[106.19337,9.36933],[105.538748,9.12934],[105.408214,9.000556],[105.315126,8.812237],[105.25882,8.760465],[105.184031,8.740882],[105.101472,8.634275],[104.856212,8.565579],[104.728526,8.599514],[104.720225,8.613756],[104.759301,8.61562],[104.835134,8.660468],[104.819509,8.690863],[104.832774,8.698879],[104.911632,8.685207],[104.963145,8.719387],[104.907481,8.699612],[104.853282,8.712551],[104.852794,8.729193],[104.928966,8.747301],[104.92156,8.809312],[104.816661,8.771308],[104.774595,8.817867],[104.811717,8.937049],[104.856558,9.738037],[104.892789,9.851095],[104.969981,9.853664],[105.054861,9.933417],[105.086681,9.93594],[105.113292,9.857082],[105.107107,9.952704],[105.003266,10.092108],[104.901052,10.097317],[104.771983,10.22663],[104.707367,10.222317],[104.65089,10.144477],[104.613048,10.144477],[104.588878,10.260891],[104.551524,10.295885],[104.537364,10.282213],[104.499034,10.370592],[104.525076,10.389838],[104.524913,10.41942],[104.469574,10.378485],[104.453624,10.379828],[104.451345,10.419664],[104.494273,10.427737],[104.566826,10.528067],[104.773842,10.515328],[104.854406,10.531322],[104.931352,10.630696],[105.066744,10.713947],[105.011399,10.883833],[105.077906,10.946904],[105.097543,10.914348],[105.253296,10.883523],[105.317891,10.838849],[105.410496,10.963001],[105.473851,10.94091],[105.752904,11.015608],[105.878684,10.828074],[105.908656,10.838383],[105.931342,10.896364],[106.0179,10.819806],[106.177322,10.766863],[106.121822,10.925226],[106.131434,10.96928],[106.187864,10.976308],[106.160321,11.053512],[106.113502,11.086921],[106.08663,11.056329],[105.988755,11.176967],[105.899871,11.218593],[105.886746,11.267944],[105.844423,11.28988],[105.872173,11.443463],[105.853208,11.546867],[105.790421,11.587408],[105.80489,11.624925],[105.85791,11.661563],[105.934081,11.642856],[106.01542,11.770497],[106.223624,11.72497],[106.274112,11.676808],[106.354314,11.69014],[106.425834,11.66208],[106.435033,11.677273],[106.397774,11.762126],[106.438753,11.863721],[106.394002,11.969813],[106.442061,11.974877],[106.473738,11.952088],[106.504537,11.973379],[106.70158,11.970795],[106.771963,12.065828],[106.879295,12.062727],[106.953399,12.081072],[107.152508,12.27703],[107.211884,12.30571],[107.320198,12.329223],[107.39301,12.252845],[107.415851,12.254085],[107.514295,12.343847],[107.55667,12.472676],[107.565093,12.606415],[107.535947,12.799633],[107.487371,12.870559],[107.466081,12.952182],[107.481067,12.988769],[107.460396,13.021609],[107.606951,13.369754],[107.604315,13.498531],[107.514295,13.69255],[107.44324,13.783475],[107.448046,13.909307],[107.430734,13.984471],[107.354563,14.002402],[107.344745,14.081312],[107.31994,14.119837],[107.358594,14.238615],[107.351773,14.341968],[107.386912,14.421912],[107.443136,14.423669],[107.464737,14.449042],[107.505252,14.541026],[107.504011,14.602107],[107.532433,14.677942],[107.520393,14.704582]]],[[[106.210704,9.620917],[106.292003,9.586412],[106.284434,9.543687],[106.244151,9.53498],[106.249197,9.560126],[106.197032,9.610053],[106.226573,9.565172],[106.196625,9.571682],[106.125987,9.672431],[106.093435,9.760891],[106.210704,9.620917]]],[[[106.724132,10.268622],[106.755544,10.257554],[106.752452,10.23607],[106.724132,10.226508],[106.689952,10.251776],[106.511729,10.295885],[106.724132,10.268622]]],[[[107.172048,10.464586],[107.211192,10.425605],[107.190196,10.433051],[107.087169,10.323188],[107.079356,10.391018],[107.149669,10.416571],[107.172048,10.464586]]],[[[106.93629,10.439276],[106.977306,10.405178],[106.88795,10.370998],[106.874278,10.425605],[106.895274,10.480862],[106.88795,10.46662],[106.879405,10.490058],[106.927501,10.521186],[106.94809,10.507025],[106.922048,10.425605],[106.93629,10.439276]]],[[[106.908946,10.532375],[106.889903,10.525458],[106.85377,10.562812],[106.871267,10.607652],[106.85377,10.631049],[106.88795,10.634467],[106.929454,10.597561],[106.922048,10.542955],[106.895274,10.576483],[106.908946,10.532375]]],[[[109.32838,12.221259],[109.348888,12.200832],[109.307384,12.187161],[109.245291,12.228095],[109.32838,12.221259]]],[[[106.662608,8.739814],[106.639171,8.737454],[106.655772,8.698879],[106.602306,8.694729],[106.603038,8.655707],[106.57838,8.655463],[106.559581,8.68183],[106.570974,8.705959],[106.658376,8.766669],[106.662608,8.739814]]],[[[106.498057,9.891181],[106.535655,9.829169],[106.422374,9.939032],[106.498057,9.891181]]],[[[104.082042,10.370998],[104.08546,10.248114],[104.033458,10.096015],[104.05128,10.069322],[104.05128,10.007961],[104.01059,10.030463],[103.957042,10.233791],[103.857432,10.320868],[103.846039,10.371283],[103.933767,10.36636],[104.004731,10.450995],[104.082042,10.370998]]],[[[106.874278,10.460395],[106.819591,10.46662],[106.85963,10.431789],[106.840099,10.405178],[106.770681,10.464301],[106.751964,10.566555],[106.778575,10.576483],[106.785899,10.601386],[106.751964,10.665839],[106.78419,10.662909],[106.84783,10.613837],[106.840099,10.559394],[106.871837,10.515204],[106.840099,10.494534],[106.874278,10.460395]]],[[[107.080333,20.800442],[107.094005,20.787421],[107.066091,20.814114],[107.073497,20.780585],[107.031912,20.787421],[107.073497,20.732164],[107.059825,20.738959],[107.046153,20.70425],[107.046153,20.725979],[107.01824,20.725979],[107.039317,20.732164],[107.031912,20.746405],[106.997813,20.753241],[107.005138,20.732164],[106.985118,20.745266],[106.909923,20.818549],[106.912852,20.8369],[106.957367,20.876776],[106.963634,20.856106],[107.005138,20.842027],[107.035981,20.857367],[107.042979,20.831366],[107.107677,20.800442],[107.080333,20.800442]]],[[[106.840099,20.879869],[106.881602,20.821519],[106.873546,20.789537],[106.847504,20.797309],[106.819591,20.876776],[106.819591,20.842027],[106.770681,20.858588],[106.785411,20.930813],[106.824555,20.915188],[106.840099,20.879869]]],[[[107.525401,20.910305],[107.553233,20.972357],[107.545177,20.919135],[107.463878,20.814114],[107.481944,20.865383],[107.470714,20.883002],[107.525401,20.910305]]],[[[107.745128,21.020168],[107.792817,20.986029],[107.77296,20.992255],[107.770763,20.957221],[107.738292,20.937649],[107.7588,20.982611],[107.737641,21.003241],[107.745128,21.020168]]],[[[107.532725,21.020168],[107.55836,21.034735],[107.511729,20.923977],[107.39503,20.897284],[107.474294,20.946723],[107.504731,21.020168],[107.519786,21.013373],[107.532725,21.040595],[107.532725,21.020168]]],[[[107.621267,21.116034],[107.5796,20.98314],[107.559418,20.986029],[107.594249,21.089057],[107.621267,21.116034]]],[[[107.580577,21.211982],[107.606212,21.217434],[107.54713,21.156724],[107.524181,21.15998],[107.470714,21.095893],[107.388682,21.047512],[107.372895,21.059556],[107.418305,21.196682],[107.450206,21.205146],[107.455333,21.275702],[107.523204,21.230862],[107.532725,21.19892],[107.580577,21.211982]]],[[[107.813487,21.3605],[107.817068,21.348538],[107.711436,21.307563],[107.813487,21.3605]]],[[[107.868663,21.390082],[107.998302,21.403754],[107.944184,21.368109],[107.841156,21.348538],[107.848155,21.370266],[107.854991,21.355943],[107.872813,21.374213],[107.826915,21.37641],[107.868663,21.390082]]],[[[108.942556,10.551947],[108.960785,10.502875],[108.930186,10.514553],[108.942556,10.551947]]],[[[109.393403,12.601874],[109.400238,12.557929],[109.312022,12.614325],[109.368907,12.627753],[109.393403,12.601874]]],[[[107.36964,20.825914],[107.380219,20.797553],[107.350271,20.81094],[107.341075,20.842597],[107.36964,20.825914]]],[[[107.382172,20.887885],[107.389985,20.867418],[107.367686,20.858385],[107.33253,20.883287],[107.382172,20.887885]]],[[[107.825694,21.02497],[107.856293,21.033271],[107.817719,20.988267],[107.825694,21.02497]]]]}}]}
