{"type":"FeatureCollection","features":[{"type":"Feature","properties":{"name":"Wallis and Futuna","ISO3166-1-Alpha-3":"WLF","ISO3166-1-Alpha-2":"WF"},"geometry":{"type":"MultiPolygon","coordinates":[[[[-178.142323,-14.243585],[-178.046742,-14.319431],[-178.156606,-14.305108],[-178.18574,-14.248224],[-178.178049,-14.232599],[-178.142323,-14.243585]]],[[[-176.155466,-13.208917],[-176.1256,-13.264093],[-176.159495,-13.350274],[-176.18281,-13.339288],[-176.199574,-13.290623],[-176.155466,-13.208917]]]]}}]}
