{"type":"FeatureCollection","features":[{"type":"Feature","properties":{"name":"Samoa","ISO3166-1-Alpha-3":"WSM","ISO3166-1-Alpha-2":"WS"},"geometry":{"type":"MultiPolygon","coordinates":[[[[-172.201039,-13.592543],[-172.175649,-13.680271],[-172.211497,-13.744561],[-172.219065,-13.805352],[-172.297556,-13.769789],[-172.523183,-13.805352],[-172.575144,-13.762791],[-172.597117,-13.700616],[-172.725575,-13.581964],[-172.749745,-13.578302],[-172.782582,-13.520278],[-172.661204,-13.52516],[-172.530629,-13.483982],[-172.344431,-13.462986],[-172.280507,-13.493585],[-172.201039,-13.592543]]],[[[-171.56428,-13.949395],[-171.51948,-13.944757],[-171.46935,-13.969415],[-171.437693,-14.006117],[-171.440745,-14.051853],[-171.619496,-14.03753],[-171.753285,-14.051528],[-171.837961,-14.003188],[-171.926625,-14.001153],[-171.972401,-13.946222],[-172.061025,-13.906183],[-172.063669,-13.885024],[-172.044057,-13.846368],[-171.965199,-13.818536],[-171.834543,-13.807387],[-171.585154,-13.883884],[-171.557444,-13.915216],[-171.56428,-13.949395]]]]}}]}
