{"type":"FeatureCollection","features":[{"type":"Feature","properties":{"name":"Yemen","ISO3166-1-Alpha-3":"YEM","ISO3166-1-Alpha-2":"YE"},"geometry":{"type":"MultiPolygon","coordinates":[[[[51.978615,18.995638],[52.721464,17.29817],[52.801562,17.267423],[53.090343,16.642401],[53.021821,16.619452],[52.984874,16.62816],[52.851085,16.556138],[52.532563,16.447252],[52.292735,16.263821],[52.221446,16.160875],[52.224376,16.113593],[52.155528,15.983873],[52.186534,15.919094],[52.175466,15.877916],[52.224376,15.846747],[52.221446,15.716986],[52.244884,15.657701],[52.228363,15.616116],[51.913097,15.515326],[51.874197,15.491523],[51.868663,15.451565],[51.829275,15.468695],[51.679942,15.403469],[51.66212,15.377143],[51.676443,15.340277],[51.530528,15.31684],[51.474294,15.270697],[51.367849,15.229722],[51.342459,15.237698],[51.268809,15.201809],[50.661469,15.058498],[50.554047,15.04857],[50.459483,15.010443],[50.358246,14.933336],[50.179535,14.843329],[50.146251,14.849799],[50.04184,14.818264],[50.029796,14.850287],[49.942149,14.838772],[49.578136,14.737291],[49.46046,14.67357],[49.372406,14.649807],[49.190196,14.54857],[49.181895,14.516588],[49.137055,14.53266],[49.092784,14.519599],[49.009939,14.401109],[49.003673,14.324774],[48.886974,14.250312],[48.85255,14.166978],[48.797618,14.140448],[48.695811,14.043606],[48.564789,14.046047],[48.468761,13.988959],[48.45045,14.010647],[48.338227,14.016303],[48.345714,14.002631],[48.188731,13.969143],[48.193614,13.993394],[48.140391,14.030585],[48.016856,14.057278],[47.931163,14.030585],[47.820974,13.938463],[47.645681,13.873196],[47.398204,13.654853],[46.911876,13.533271],[46.824229,13.476304],[46.700694,13.430325],[46.604747,13.440904],[46.52003,13.413031],[46.312999,13.41356],[46.234548,13.436347],[46.111339,13.406806],[45.81544,13.379543],[45.665782,13.341986],[45.494151,13.194648],[45.403005,13.070136],[45.193533,13.012681],[45.118175,12.961737],[45.058767,12.827135],[45.058604,12.76203],[45.017751,12.759833],[44.97934,12.782294],[44.980968,12.797309],[45.035167,12.803656],[45.042491,12.820868],[45.015147,12.85871],[44.998057,12.831448],[44.944591,12.83397],[44.916759,12.799465],[44.871593,12.803534],[44.871837,12.769965],[44.920909,12.771389],[44.881358,12.729885],[44.785167,12.772284],[44.727794,12.742011],[44.693614,12.803453],[44.610606,12.819566],[44.542817,12.797309],[44.415538,12.670152],[44.406993,12.685248],[44.191173,12.619127],[44.138031,12.638983],[44.189952,12.632148],[44.191173,12.660468],[44.153494,12.655951],[44.062348,12.611721],[43.9463,12.598049],[43.894786,12.652655],[43.600597,12.756293],[43.525564,12.690375],[43.468028,12.683905],[43.473155,12.846625],[43.401378,12.943427],[43.386404,13.00727],[43.308849,13.139309],[43.248871,13.212714],[43.226329,13.283881],[43.248302,13.348944],[43.254242,13.526557],[43.295177,13.585598],[43.280935,13.722113],[43.2435,13.794338],[43.233165,13.87637],[43.161717,13.95399],[43.09552,14.083956],[42.987315,14.489244],[42.959321,14.513495],[42.965994,14.53026],[42.983653,14.520331],[43.021495,14.442084],[43.028656,14.537991],[42.987315,14.633857],[42.999848,14.663316],[42.961681,14.708564],[42.942231,14.788886],[42.883637,14.883694],[42.883311,14.915513],[42.910411,14.841376],[42.945649,14.811428],[42.937266,14.948472],[42.880138,15.024848],[42.882335,15.102484],[42.864024,15.13642],[42.733409,15.209296],[42.691417,15.21426],[42.671397,15.18537],[42.637706,15.190863],[42.610118,15.243598],[42.682628,15.246487],[42.678233,15.308295],[42.712413,15.366278],[42.699392,15.311672],[42.774262,15.260443],[42.794932,15.209296],[42.806895,15.344306],[42.777192,15.421942],[42.774262,15.491034],[42.719249,15.570014],[42.733409,15.592231],[42.708263,15.627834],[42.713634,15.694729],[42.691905,15.702094],[42.74171,15.753241],[42.752452,15.816392],[42.819998,15.874945],[42.834809,15.915351],[42.840099,16.097805],[42.78948,16.370958],[42.898187,16.418896],[42.906766,16.479357],[43.036267,16.536304],[43.084946,16.672575],[43.179979,16.664617],[43.168507,16.737222],[43.211502,16.796857],[43.145821,16.834477],[43.112644,16.910028],[43.135899,17.009609],[43.118432,17.086245],[43.156156,17.2097],[43.248605,17.25192],[43.241836,17.293416],[43.165044,17.32592],[43.303072,17.459039],[43.412885,17.519965],[43.50337,17.513454],[43.619539,17.458832],[43.730643,17.35243],[43.886706,17.353671],[43.894044,17.312174],[43.915128,17.301839],[44.003908,17.36783],[44.08535,17.343439],[44.149015,17.40483],[44.211544,17.390619],[44.404142,17.418731],[44.561962,17.404468],[44.646453,17.431805],[45.165387,17.428395],[45.222128,17.417388],[45.430384,17.312019],[46.322629,17.224066],[46.710099,17.275381],[46.747203,17.254762],[46.970342,16.956847],[47.161338,16.947442],[47.427575,17.091826],[47.457961,17.130893],[47.589012,17.463276],[48.161949,18.148919],[49.035849,18.57972],[49.128815,18.612095],[51.978615,18.995638]]],[[[53.248326,12.121302],[53.286884,12.127337],[53.310267,12.111444],[53.248326,12.121302]]],[[[53.053068,12.17492],[53.082918,12.164794],[53.086378,12.134344],[53.05659,12.128251],[52.985265,12.162727],[53.053068,12.17492]]],[[[52.289199,12.200815],[52.389578,12.197252],[52.371129,12.171565],[52.388464,12.148868],[52.24023,12.156877],[52.224376,12.180325],[52.179861,12.172838],[52.162364,12.197414],[52.112315,12.198635],[52.064118,12.235473],[52.118435,12.241549],[52.200434,12.206443],[52.289199,12.200815]]],[[[43.428966,12.673774],[43.448985,12.652981],[43.435802,12.632148],[43.390147,12.666327],[43.428966,12.673774]]],[[[54.470662,12.543566],[54.540294,12.550238],[54.457423,12.519228],[54.444684,12.484721],[54.40234,12.467224],[54.245942,12.433539],[54.140498,12.351344],[54.047546,12.352962],[54.008244,12.329857],[53.969981,12.341864],[53.731165,12.300414],[53.572147,12.334614],[53.505626,12.416327],[53.306895,12.543402],[53.389415,12.560777],[53.396027,12.656468],[53.470077,12.671424],[53.518946,12.714351],[53.654755,12.704758],[53.762894,12.619703],[53.846104,12.598605],[53.875995,12.647294],[54.008097,12.645744],[54.119395,12.701117],[54.16789,12.664995],[54.195491,12.6754],[54.470662,12.543566]]],[[[42.719249,13.742621],[42.782563,13.779934],[42.794932,13.769924],[42.75408,13.697903],[42.688487,13.663764],[42.719249,13.742621]]],[[[42.760265,14.064683],[42.801768,14.023139],[42.781749,13.919989],[42.75408,13.920722],[42.767589,13.948676],[42.721528,13.969387],[42.691905,14.01317],[42.760265,14.064683]]],[[[42.635997,15.445543],[42.581554,15.391588],[42.628184,15.398668],[42.614106,15.308051],[42.56837,15.268866],[42.545746,15.29442],[42.55893,15.392971],[42.601899,15.446275],[42.635997,15.445543]]]]}}]}
