{"type":"FeatureCollection","features":[{"type":"Feature","properties":{"name":"South Africa","ISO3166-1-Alpha-3":"ZAF","ISO3166-1-Alpha-2":"ZA"},"geometry":{"type":"MultiPolygon","coordinates":[[[[19.981447,-24.752493],[20.107847,-24.880341],[20.235695,-24.936048],[20.364886,-25.0332],[20.444777,-25.168385],[20.434442,-25.199804],[20.481674,-25.2305],[20.485498,-25.26316],[20.516401,-25.283624],[20.51051,-25.312252],[20.542239,-25.382222],[20.612002,-25.431005],[20.606628,-25.462011],[20.656547,-25.467798],[20.620374,-25.500561],[20.618514,-25.528466],[20.67143,-25.591202],[20.637944,-25.620347],[20.67081,-25.642258],[20.662852,-25.685253],[20.716699,-25.732588],[20.737783,-25.798941],[20.726517,-25.827363],[20.755766,-25.818991],[20.79411,-25.893922],[20.803929,-26.071276],[20.841446,-26.131324],[20.753286,-26.276224],[20.622544,-26.427533],[20.605284,-26.493265],[20.605284,-26.547732],[20.632363,-26.595275],[20.608902,-26.686122],[20.61469,-26.753198],[20.690757,-26.891794],[20.851884,-26.806528],[20.907695,-26.800017],[20.990377,-26.838567],[21.122462,-26.865336],[21.42663,-26.822651],[21.664548,-26.863062],[21.76232,-26.804461],[21.780613,-26.678164],[21.998998,-26.650258],[22.057702,-26.617599],[22.146172,-26.519207],[22.197435,-26.404072],[22.248285,-26.346918],[22.342853,-26.317359],[22.450857,-26.210079],[22.545114,-26.207391],[22.665004,-26.051432],[22.661593,-26.020943],[22.719367,-25.984253],[22.726809,-25.921621],[22.708825,-25.891028],[22.765463,-25.826536],[22.740451,-25.77703],[22.810214,-25.677398],[22.810835,-25.625308],[22.833366,-25.606084],[22.814039,-25.566604],[22.844631,-25.481131],[23.030666,-25.299437],[23.071697,-25.325998],[23.216081,-25.26719],[23.381446,-25.292615],[23.45927,-25.282177],[23.68675,-25.454362],[23.742664,-25.469969],[23.924772,-25.629236],[23.988024,-25.61952],[24.008694,-25.633163],[24.005697,-25.65466],[24.183464,-25.625928],[24.338907,-25.751812],[24.456729,-25.743027],[24.664985,-25.823332],[24.828903,-25.826019],[24.908381,-25.804109],[25.013284,-25.743027],[25.177822,-25.763284],[25.386491,-25.743544],[25.458425,-25.711194],[25.587254,-25.61952],[25.663529,-25.439996],[25.695465,-25.309979],[25.835198,-25.016353],[25.876746,-24.886025],[25.868374,-24.748152],[25.966043,-24.73358],[26.013585,-24.704537],[26.278788,-24.62847],[26.404362,-24.632811],[26.469474,-24.571419],[26.531176,-24.458661],[26.62347,-24.39944],[26.692923,-24.326576],[26.839168,-24.265598],[26.96717,-23.718706],[27.013834,-23.638504],[27.037605,-23.665686],[27.070058,-23.656074],[27.061531,-23.604398],[27.075225,-23.611219],[27.113363,-23.564297],[27.13672,-23.570188],[27.127419,-23.525023],[27.157184,-23.536702],[27.171447,-23.515618],[27.205657,-23.523059],[27.191497,-23.503836],[27.202505,-23.492053],[27.295574,-23.451746],[27.349989,-23.391491],[27.361203,-23.422497],[27.410502,-23.389321],[27.425178,-23.412678],[27.45267,-23.38529],[27.548892,-23.360795],[27.608009,-23.216721],[27.647129,-23.227573],[27.698443,-23.193467],[27.725728,-23.221682],[27.753634,-23.220752],[27.78929,-23.163805],[27.774201,-23.125151],[27.82226,-23.12298],[27.815749,-23.104687],[27.930057,-23.057041],[27.946077,-23.029032],[27.937498,-22.963817],[28.037441,-22.911417],[28.047156,-22.8369],[28.154953,-22.771994],[28.159707,-22.718147],[28.196191,-22.671638],[28.250554,-22.655619],[28.301817,-22.603839],[28.376851,-22.575003],[28.522476,-22.584822],[28.559838,-22.563014],[28.623865,-22.562808],[28.816825,-22.492941],[28.84659,-22.449946],[28.912529,-22.453667],[28.967926,-22.38039],[28.960227,-22.310213],[29.038723,-22.223914],[29.168844,-22.213992],[29.248219,-22.179265],[29.378031,-22.192908],[29.456889,-22.158801],[29.53182,-22.172444],[29.551043,-22.145986],[29.661424,-22.126452],[29.779246,-22.136374],[29.837331,-22.172444],[30.005279,-22.22226],[30.13509,-22.293574],[30.2217,-22.290886],[30.334975,-22.344733],[30.488454,-22.310213],[30.632424,-22.330677],[30.693919,-22.302772],[30.83789,-22.282308],[31.087642,-22.336878],[31.152599,-22.316414],[31.213474,-22.36189],[31.255642,-22.357962],[31.288922,-22.39734],[31.279103,-22.415323],[31.536349,-23.156983],[31.527615,-23.45681],[31.642285,-23.587861],[31.755198,-23.857767],[31.850438,-23.930631],[31.869455,-24.163795],[31.986554,-24.423108],[31.988724,-25.37261],[31.9664,-25.479684],[31.995752,-25.636884],[31.954411,-25.684943],[31.905835,-25.812997],[31.949243,-25.958104],[31.891882,-25.983839],[31.834573,-25.982082],[31.401473,-25.735999],[31.309282,-25.757393],[31.119836,-25.910045],[30.969871,-26.209148],[30.804559,-26.397457],[30.782906,-26.472388],[30.80244,-26.808905],[30.880213,-26.772215],[30.902589,-26.831333],[30.955092,-26.891381],[30.953645,-27.000315],[31.141954,-27.196478],[31.52653,-27.31089],[31.96826,-27.316264],[31.947383,-27.255493],[31.942112,-27.10067],[31.990068,-26.808285],[32.073163,-26.811386],[32.143185,-26.845699],[32.352216,-26.860272],[32.893077,-26.846124],[32.865245,-27.017348],[32.839366,-27.12363],[32.803722,-27.168227],[32.676524,-27.520685],[32.591482,-27.880792],[32.598318,-27.922459],[32.550548,-28.171563],[32.43922,-28.366632],[32.399669,-28.387872],[32.420177,-28.394708],[32.428233,-28.429376],[32.3921,-28.535333],[32.083751,-28.799493],[32.056326,-28.779474],[32.016856,-28.784926],[31.993988,-28.806248],[32.016124,-28.833591],[32.070079,-28.805597],[32.012055,-28.866469],[31.888357,-28.924737],[31.769054,-28.922296],[31.782725,-28.94964],[31.488455,-29.209649],[31.427013,-29.292169],[31.365001,-29.332615],[31.18686,-29.560317],[31.055512,-29.789809],[31.055837,-29.868259],[31.015798,-29.868097],[31.001231,-29.902439],[31.063324,-29.874444],[31.058279,-29.895929],[30.890636,-30.050063],[30.609548,-30.529555],[30.562348,-30.573907],[30.392345,-30.847101],[30.095063,-31.178643],[30.062755,-31.238702],[29.864106,-31.411554],[29.742035,-31.457452],[29.619884,-31.586033],[29.526052,-31.643976],[29.411632,-31.677504],[29.391856,-31.735528],[29.276703,-31.844659],[29.213634,-31.94378],[29.147634,-31.969822],[29.096365,-32.053643],[28.870372,-32.287042],[28.617198,-32.478204],[28.548595,-32.562433],[28.336925,-32.709405],[28.155528,-32.788507],[28.11085,-32.836521],[28.094005,-32.887465],[27.939626,-32.989841],[27.897146,-33.039972],[27.732677,-33.108819],[27.609874,-33.211847],[27.539236,-33.234552],[27.492361,-33.277032],[27.465668,-33.27337],[27.434581,-33.320733],[27.143077,-33.479425],[27.100922,-33.525323],[26.919119,-33.581476],[26.863048,-33.622735],[26.794607,-33.632257],[26.476085,-33.764255],[26.286632,-33.766371],[26.09254,-33.717055],[25.955251,-33.71087],[25.785411,-33.743585],[25.679047,-33.79518],[25.634044,-33.855157],[25.614919,-33.934991],[25.677013,-33.986505],[25.69752,-34.034926],[25.666026,-34.026544],[25.598155,-34.048517],[25.410492,-34.032973],[25.192638,-33.962172],[24.952891,-33.985121],[24.913341,-34.011326],[24.927419,-34.052341],[24.916352,-34.072361],[24.841075,-34.132501],[24.838227,-34.159763],[24.861339,-34.178318],[24.834158,-34.205662],[24.793712,-34.184747],[24.478526,-34.15781],[24.400157,-34.112563],[24.259125,-34.094171],[24.163097,-34.054783],[23.635509,-33.979669],[23.386892,-34.031183],[23.361176,-34.066664],[23.408376,-34.11004],[23.062836,-34.082696],[23.049001,-34.041111],[22.998057,-34.02752],[23.038748,-34.072442],[23.032237,-34.086114],[22.936046,-34.082696],[22.800141,-34.035577],[22.790538,-34.004327],[22.812511,-34.000746],[22.774587,-33.983575],[22.730479,-33.979669],[22.785167,-34.02752],[22.766775,-34.032892],[22.583669,-33.994073],[22.455414,-34.057061],[22.275157,-34.057712],[22.1692,-34.083185],[22.111013,-34.141534],[22.147716,-34.178318],[21.946951,-34.223728],[21.921723,-34.246677],[21.923839,-34.295668],[21.894542,-34.336033],[21.788748,-34.38128],[21.702647,-34.390558],[21.537608,-34.348891],[21.305919,-34.424574],[21.05836,-34.363377],[20.913422,-34.360447],[20.805186,-34.398045],[20.868175,-34.437921],[20.841075,-34.46502],[20.664317,-34.438409],[20.482677,-34.470473],[20.374522,-34.569757],[20.243337,-34.641046],[20.222423,-34.675063],[20.146658,-34.692153],[20.072602,-34.736912],[20.044444,-34.768324],[20.057872,-34.801446],[20.015636,-34.818943],[19.967947,-34.815199],[19.858409,-34.749688],[19.69809,-34.753676],[19.653168,-34.774102],[19.398692,-34.601821],[19.296886,-34.617771],[19.360118,-34.53867],[19.360199,-34.500421],[19.290375,-34.409112],[19.207774,-34.418552],[19.119314,-34.400567],[19.085216,-34.356541],[19.111013,-34.352634],[19.139903,-34.294366],[19.08839,-34.342706],[18.999034,-34.339288],[18.817638,-34.376886],[18.810313,-34.301853],[18.839692,-34.254327],[18.82252,-34.184991],[18.858165,-34.150323],[18.800059,-34.089532],[18.555024,-34.073826],[18.478363,-34.106866],[18.440278,-34.15781],[18.474457,-34.22617],[18.467621,-34.311293],[18.48878,-34.342706],[18.470063,-34.347426],[18.406261,-34.301853],[18.378917,-34.250258],[18.3838,-34.218683],[18.35434,-34.175388],[18.316254,-34.157485],[18.358409,-34.054783],[18.330414,-34.062188],[18.314789,-34.029067],[18.372081,-33.925063],[18.404552,-33.903253],[18.475352,-33.899835],[18.484386,-33.843927],[18.400076,-33.633396],[18.320323,-33.567478],[18.307384,-33.479262],[18.254161,-33.419366],[18.146169,-33.35589],[18.150157,-33.319268],[18.075206,-33.202244],[17.99171,-33.150323],[17.954926,-33.101983],[18.00587,-33.091729],[18.099132,-33.200942],[18.127452,-33.197361],[18.091563,-33.135512],[18.040863,-33.101658],[18.037446,-33.033787],[17.970551,-33.002374],[17.940684,-33.006443],[17.954926,-33.02752],[17.912771,-33.047459],[17.901866,-33.036879],[17.862478,-32.907159],[17.881033,-32.867608],[17.843028,-32.823337],[17.897309,-32.792739],[17.905935,-32.725844],[17.967459,-32.703546],[18.037446,-32.766778],[18.118826,-32.773045],[18.273123,-32.647556],[18.296397,-32.608575],[18.337901,-32.451593],[18.31544,-32.343683],[18.349376,-32.260349],[18.27589,-31.957452],[18.276866,-31.892673],[18.235688,-31.828058],[18.196788,-31.697361],[18.009451,-31.456638],[17.893728,-31.344822],[17.871837,-31.272882],[17.818614,-31.23211],[17.745291,-31.128839],[17.561697,-30.838067],[17.535981,-30.75213],[17.450369,-30.639093],[17.454112,-30.601251],[17.281993,-30.347752],[17.259451,-30.24505],[17.206879,-30.165297],[17.166352,-30.012872],[17.085704,-29.833754],[17.007823,-29.539239],[16.93393,-29.35768],[16.843272,-29.211358],[16.824067,-29.101007],[16.744965,-29.028741],[16.667735,-28.908624],[16.600352,-28.857517],[16.562755,-28.712823],[16.534841,-28.70322],[16.469981,-28.62005],[16.487071,-28.572931],[16.597364,-28.526216],[16.673121,-28.45976],[16.692345,-28.461104],[16.703817,-28.494487],[16.740404,-28.480948],[16.769343,-28.442604],[16.778541,-28.382969],[16.803863,-28.366123],[16.768413,-28.303698],[16.768723,-28.265354],[16.824637,-28.264527],[16.810271,-28.222876],[16.856366,-28.206649],[16.837659,-28.168202],[16.885512,-28.162001],[16.892953,-28.082626],[16.919618,-28.058338],[16.947523,-28.072704],[17.076404,-28.026815],[17.136349,-28.084693],[17.180894,-28.099472],[17.191953,-28.20882],[17.21314,-28.232074],[17.345742,-28.22763],[17.400002,-28.346382],[17.399692,-28.395268],[17.324244,-28.470509],[17.373027,-28.559393],[17.420569,-28.593396],[17.403619,-28.704293],[17.582937,-28.680212],[17.607121,-28.75566],[17.628722,-28.764135],[17.673784,-28.771576],[17.746338,-28.748632],[17.913252,-28.781291],[18.044097,-28.858392],[18.166467,-28.901904],[18.30868,-28.879993],[18.397564,-28.898907],[18.745656,-28.839892],[18.954533,-28.866661],[19.006932,-28.926295],[19.060056,-28.9357],[19.081657,-28.959368],[19.120207,-28.957508],[19.288362,-28.883094],[19.244954,-28.792453],[19.265935,-28.742637],[19.290016,-28.719693],[19.339005,-28.73747],[19.45507,-28.705223],[19.568759,-28.531177],[19.82559,-28.47671],[19.896697,-28.427721],[19.981653,-28.422347],[19.981447,-24.752493]],[[28.980846,-28.909035],[28.872842,-28.783565],[28.787679,-28.748735],[28.743857,-28.689514],[28.699519,-28.68848],[28.66655,-28.59722],[28.634303,-28.570761],[28.562473,-28.606522],[28.382949,-28.626469],[28.297063,-28.706877],[28.154953,-28.70233],[28.013566,-28.878443],[27.977496,-28.880717],[27.926233,-28.853431],[27.861327,-28.915443],[27.747432,-28.908622],[27.754771,-28.925468],[27.720147,-28.945932],[27.711672,-28.990994],[27.63917,-29.035333],[27.664957,-29.065718],[27.630747,-29.07254],[27.61297,-29.133828],[27.521503,-29.21651],[27.528893,-29.260952],[27.45329,-29.291648],[27.445849,-29.331955],[27.406265,-29.363995],[27.417634,-29.396551],[27.350247,-29.480267],[27.316038,-29.487191],[27.263121,-29.541141],[27.128142,-29.578555],[27.085871,-29.614419],[27.062203,-29.600156],[27.042359,-29.628061],[27.022412,-29.616176],[27.002155,-29.666508],[27.080135,-29.735135],[27.198835,-29.978531],[27.265911,-30.033308],[27.312782,-30.131596],[27.381357,-30.142655],[27.343685,-30.212935],[27.366164,-30.311017],[27.452102,-30.310087],[27.477475,-30.356286],[27.529668,-30.382227],[27.598604,-30.490334],[27.743608,-30.600302],[27.858227,-30.603712],[27.936568,-30.640816],[28.078782,-30.658799],[28.081572,-30.586866],[28.120846,-30.553379],[28.141207,-30.500773],[28.125394,-30.457261],[28.238462,-30.352255],[28.200635,-30.282492],[28.294376,-30.242494],[28.383879,-30.144205],[28.456226,-30.146996],[28.540562,-30.113303],[28.639678,-30.131493],[28.795637,-30.089428],[29.144246,-29.919723],[29.132981,-29.852027],[29.105799,-29.825569],[29.113757,-29.750121],[29.1613,-29.666922],[29.278605,-29.613592],[29.296279,-29.571631],[29.275143,-29.532253],[29.282739,-29.485641],[29.399528,-29.430347],[29.435908,-29.342394],[29.357463,-29.183334],[29.316846,-29.147367],[29.311781,-29.089799],[29.208429,-29.068922],[29.125953,-28.992441],[29.055776,-28.965363],[29.040532,-28.922988],[28.980846,-28.909035]]],[[[37.662446,-46.828546],[37.821056,-46.844171],[37.895763,-46.889907],[37.86378,-46.940851],[37.806488,-46.965753],[37.602061,-46.948663],[37.575369,-46.903497],[37.662446,-46.828546]]],[[[37.861095,-46.636163],[37.864919,-46.61419],[37.900401,-46.599705],[37.977794,-46.615655],[37.97641,-46.644708],[37.93865,-46.654392],[37.861095,-46.636163]]]]}}]}
