{"type":"FeatureCollection","features":[{"type":"Feature","properties":{"name":"Zambia","ISO3166-1-Alpha-3":"ZMB","ISO3166-1-Alpha-2":"ZM"},"geometry":{"type":"Polygon","coordinates":[[[32.920863,-9.4079],[32.927788,-9.479834],[32.99197,-9.501848],[32.97471,-9.601273],[32.986906,-9.628455],[33.03574,-9.616983],[33.08044,-9.662251],[33.09832,-9.588458],[33.175422,-9.602307],[33.214282,-9.654707],[33.216711,-9.727054],[33.287766,-9.803845],[33.343473,-9.83144],[33.365591,-9.898826],[33.309987,-10.012721],[33.304096,-10.063777],[33.480519,-10.177052],[33.533281,-10.231209],[33.532919,-10.342623],[33.622733,-10.494035],[33.665418,-10.515119],[33.674203,-10.577028],[33.528268,-10.711593],[33.500983,-10.769161],[33.43401,-10.808125],[33.319082,-10.81815],[33.288128,-10.856701],[33.241412,-10.865692],[33.232576,-10.883262],[33.239604,-10.903106],[33.280325,-10.913338],[33.303682,-11.034571],[33.390912,-11.164795],[33.298928,-11.353104],[33.273503,-11.369641],[33.265184,-11.423074],[33.239707,-11.402404],[33.230302,-11.416563],[33.233816,-11.514025],[33.212629,-11.563841],[33.296758,-11.593606],[33.314018,-11.7722],[33.297378,-11.846511],[33.312674,-11.898704],[33.2549,-12.072647],[33.25273,-12.139516],[33.299962,-12.195947],[33.349468,-12.327929],[33.384608,-12.340021],[33.458298,-12.31811],[33.525581,-12.335267],[33.527131,-12.355627],[33.465326,-12.409061],[33.451115,-12.452986],[33.350398,-12.532671],[33.255107,-12.531947],[33.173251,-12.620004],[33.13036,-12.583727],[33.081267,-12.604811],[33.057703,-12.583417],[33.024836,-12.612666],[32.941121,-12.769865],[32.947012,-12.843246],[33.013571,-12.917247],[32.965925,-13.116821],[32.998171,-13.202449],[32.937865,-13.255882],[32.892131,-13.404814],[32.874251,-13.443158],[32.819061,-13.471683],[32.813066,-13.528217],[32.722839,-13.573382],[32.677261,-13.567801],[32.663308,-13.596327],[32.67509,-13.628056],[32.769865,-13.646866],[32.813377,-13.711152],[32.757359,-13.750219],[32.763044,-13.777194],[32.874148,-13.820602],[32.923912,-13.880444],[32.93616,-13.926229],[32.976261,-13.944522],[32.9713,-14.005914],[32.999825,-14.050459],[33.140282,-13.924989],[33.202707,-14.013872],[31.658408,-14.519578],[31.410878,-14.633576],[30.815772,-14.768245],[30.48556,-14.885964],[30.318438,-14.966992],[30.214465,-14.981462],[30.225834,-15.106312],[30.263145,-15.231266],[30.364947,-15.354152],[30.392852,-15.480759],[30.367428,-15.561271],[30.410371,-15.630414],[30.32805,-15.652428],[30.254876,-15.628864],[30.207231,-15.653152],[30.130129,-15.623696],[30.010654,-15.646227],[29.837331,-15.614808],[29.672793,-15.663281],[29.587217,-15.655736],[29.508462,-15.703588],[29.406969,-15.714233],[29.186311,-15.812832],[29.086162,-15.884559],[29.042341,-15.946261],[28.932373,-15.963727],[28.857236,-16.060466],[28.870981,-16.087234],[28.847107,-16.202679],[28.86416,-16.231205],[28.836772,-16.306342],[28.857236,-16.388198],[28.822509,-16.470776],[28.761117,-16.532271],[28.73285,-16.55811],[28.643295,-16.568755],[28.280113,-16.706524],[28.113922,-16.827551],[27.816886,-16.959636],[27.641186,-17.198484],[27.577314,-17.363125],[27.157081,-17.769302],[27.149019,-17.842476],[27.11543,-17.882163],[27.021275,-17.958541],[26.88826,-17.984586],[26.700003,-18.069232],[26.408599,-17.939007],[26.318269,-17.934356],[26.239204,-17.910172],[26.211919,-17.882783],[26.095234,-17.938077],[26.095234,-17.958541],[25.978548,-17.998952],[25.924495,-17.998952],[25.853491,-17.959988],[25.847497,-17.929395],[25.86362,-17.923814],[25.849667,-17.906658],[25.681409,-17.81147],[25.516458,-17.862319],[25.335538,-17.841235],[25.242417,-17.770335],[25.190741,-17.755349],[25.138548,-17.686103],[25.122631,-17.697885],[25.088525,-17.642695],[25.033851,-17.608485],[25.036952,-17.5812],[24.998505,-17.588021],[24.898252,-17.531074],[24.684415,-17.49242],[24.629742,-17.49552],[24.571244,-17.533451],[24.388929,-17.471336],[24.321337,-17.488699],[24.220464,-17.4795],[23.381652,-17.641144],[23.382273,-17.601043],[23.320158,-17.54637],[23.189726,-17.536551],[23.176187,-17.478157],[23.097639,-17.432165],[22.998627,-17.293775],[22.876154,-17.248093],[22.765153,-17.169649],[22.710479,-17.055444],[22.651671,-16.998703],[22.573433,-16.971004],[22.554519,-16.924185],[22.508527,-16.906202],[22.416647,-16.75448],[22.377993,-16.734843],[22.333654,-16.673658],[22.290763,-16.656398],[22.237743,-16.665493],[22.15165,-16.597694],[22.138111,-16.552632],[22.108138,-16.54395],[22.079923,-16.457754],[22.105555,-16.379413],[22.055842,-16.364633],[22.01171,-16.252289],[22.045197,-16.252289],[21.981531,-16.144285],[21.979878,-13.001479],[24.000633,-13.001479],[23.971797,-12.93337],[23.865654,-12.789709],[23.928699,-12.561609],[24.030812,-12.385083],[24.016859,-12.278939],[23.959602,-12.19667],[23.954331,-12.151919],[23.967043,-11.882891],[23.990194,-11.824083],[23.954641,-11.636911],[24.009728,-11.52343],[24.009935,-11.459454],[24.061714,-11.406951],[24.011175,-11.272903],[24.015309,-11.130482],[23.990091,-11.113532],[24.003733,-10.982481],[23.967457,-10.872307],[24.048382,-10.882332],[24.114218,-10.919229],[24.124243,-11.043252],[24.293845,-11.05028],[24.370533,-11.1002],[24.381798,-11.12056],[24.361748,-11.164692],[24.396578,-11.217402],[24.392237,-11.279104],[24.33994,-11.358065],[24.285473,-11.381216],[24.310071,-11.406641],[24.370223,-11.410155],[24.446497,-11.463589],[24.564733,-11.444675],[24.593258,-11.399613],[24.712527,-11.326026],[24.826732,-11.317551],[24.942901,-11.268562],[25.184023,-11.246651],[25.31032,-11.194768],[25.324893,-11.283651],[25.284689,-11.307319],[25.306496,-11.333054],[25.279004,-11.396306],[25.316728,-11.472994],[25.300398,-11.535005],[25.344943,-11.642182],[25.386388,-11.64983],[25.481163,-11.715253],[25.474135,-11.756181],[25.49558,-11.776541],[25.561003,-11.753287],[25.575679,-11.727345],[25.621464,-11.728895],[25.725644,-11.800519],[25.850701,-11.793801],[25.981132,-11.903045],[26.16665,-11.902425],[26.298012,-11.941182],[26.414594,-11.91183],[26.489111,-11.960819],[26.717418,-12.013012],[26.759379,-11.968674],[26.874204,-11.964333],[26.947688,-11.909143],[26.981071,-11.749049],[27.021482,-11.69789],[27.010268,-11.609833],[27.023756,-11.59557],[27.180129,-11.569629],[27.234182,-11.809097],[27.420734,-11.921959],[27.467553,-12.001644],[27.52047,-12.179617],[27.638189,-12.293615],[27.756734,-12.304261],[27.831407,-12.259922],[27.856676,-12.262403],[27.933881,-12.303331],[27.958686,-12.367823],[28.08767,-12.377538],[28.131285,-12.429214],[28.185752,-12.402446],[28.237532,-12.437069],[28.322488,-12.4411],[28.42274,-12.521302],[28.512295,-12.668373],[28.511624,-12.694418],[28.474003,-12.736482],[28.539425,-12.833841],[28.542836,-12.885621],[28.583971,-12.888721],[28.621178,-12.839422],[28.667893,-12.849344],[28.707994,-12.889755],[28.830881,-13.051812],[28.825816,-13.092843],[28.85367,-13.137078],[28.903434,-13.162296],[28.93413,-13.309626],[28.993971,-13.395925],[29.122129,-13.38435],[29.184141,-13.436853],[29.308267,-13.353654],[29.449551,-13.300324],[29.527996,-13.234075],[29.574401,-13.225393],[29.629075,-13.261463],[29.657497,-13.26012],[29.669176,-13.281204],[29.626594,-13.326369],[29.625147,-13.364196],[29.601686,-13.374428],[29.617396,-13.421247],[29.702869,-13.457627],[29.767154,-13.458351],[29.797643,-13.424244],[29.799297,-12.154089],[29.734908,-12.164838],[29.631865,-12.215997],[29.576727,-12.188092],[29.474252,-12.242662],[29.446554,-12.33506],[29.480453,-12.380535],[29.523448,-12.392524],[29.524688,-12.429214],[29.499677,-12.453089],[29.304857,-12.404823],[29.254989,-12.366169],[29.173392,-12.367616],[29.11107,-12.393454],[29.100218,-12.374024],[29.035106,-12.378882],[28.944672,-12.206076],[28.859509,-12.14179],[28.821475,-12.075748],[28.759877,-12.035233],[28.751092,-11.992238],[28.686032,-11.984074],[28.623865,-11.947797],[28.592652,-11.900461],[28.569191,-11.91369],[28.540562,-11.872039],[28.507851,-11.872763],[28.488886,-11.808684],[28.452506,-11.780779],[28.40548,-11.605182],[28.355664,-11.518159],[28.357008,-11.446949],[28.439587,-11.348247],[28.436176,-11.289129],[28.473693,-11.22567],[28.487336,-11.153427],[28.476794,-11.077979],[28.547177,-10.913751],[28.554412,-10.834996],[28.623245,-10.716864],[28.665878,-10.697434],[28.699622,-10.643174],[28.665516,-10.608964],[28.672337,-10.564315],[28.634924,-10.51946],[28.646086,-10.438431],[28.620868,-10.373319],[28.623865,-10.276374],[28.569915,-10.219633],[28.628516,-10.102741],[28.627947,-9.929419],[28.668462,-9.821622],[28.698486,-9.791959],[28.631255,-9.715582],[28.621798,-9.638274],[28.583557,-9.563756],[28.617767,-9.543292],[28.5741,-9.539158],[28.562783,-9.484898],[28.519685,-9.445624],[28.515964,-9.378341],[28.460464,-9.335036],[28.368532,-9.308578],[28.35246,-9.271991],[28.372304,-9.235094],[28.59906,-9.096395],[28.765407,-8.934027],[28.893099,-8.765769],[28.930461,-8.679883],[28.935474,-8.590792],[28.889172,-8.483099],[30.752107,-8.194124],[30.828278,-8.388117],[30.959536,-8.550485],[31.03364,-8.600301],[31.119836,-8.616631],[31.206756,-8.580767],[31.260913,-8.623969],[31.353311,-8.587175],[31.38597,-8.632547],[31.427518,-8.633477],[31.539036,-8.70355],[31.55335,-8.809074],[31.672671,-8.913047],[31.709775,-8.919661],[31.787599,-8.892169],[31.936634,-8.93258],[31.917721,-9.022497],[31.938081,-9.061771],[31.980559,-9.0719],[32.057247,-9.049576],[32.134141,-9.064148],[32.231448,-9.133808],[32.423426,-9.143834],[32.459703,-9.168018],[32.518046,-9.258245],[32.713228,-9.28584],[32.752295,-9.337413],[32.920863,-9.4079]]]}}]}
