{"type":"FeatureCollection","features":[{"type":"Feature","properties":{"name":"Zimbabwe","ISO3166-1-Alpha-3":"ZWE","ISO3166-1-Alpha-2":"ZW"},"geometry":{"type":"Polygon","coordinates":[[[25.259781,-17.794107],[25.335538,-17.841235],[25.516458,-17.862319],[25.681409,-17.81147],[25.849667,-17.906658],[25.86362,-17.923814],[25.847497,-17.929395],[25.853491,-17.959988],[25.924495,-17.998952],[25.978548,-17.998952],[26.095234,-17.958541],[26.095234,-17.938077],[26.211919,-17.882783],[26.239204,-17.910172],[26.318269,-17.934356],[26.408599,-17.939007],[26.700003,-18.069232],[26.88826,-17.984586],[27.021275,-17.958541],[27.149019,-17.842476],[27.157081,-17.769302],[27.577314,-17.363125],[27.641186,-17.198484],[27.816886,-16.959636],[28.113922,-16.827551],[28.280113,-16.706524],[28.643295,-16.568755],[28.73285,-16.55811],[28.808866,-16.486279],[28.857236,-16.388198],[28.836772,-16.306342],[28.86416,-16.231205],[28.847107,-16.202679],[28.870981,-16.087234],[28.857236,-16.060466],[28.932373,-15.963727],[29.042341,-15.946261],[29.086162,-15.884559],[29.186311,-15.812832],[29.406969,-15.714233],[29.508462,-15.703588],[29.587217,-15.655736],[29.672793,-15.663281],[29.837331,-15.614808],[30.010654,-15.646227],[30.130129,-15.623696],[30.207231,-15.653152],[30.254876,-15.628864],[30.32805,-15.652428],[30.396263,-15.635995],[30.402568,-16.001244],[30.857424,-15.998144],[30.989767,-16.06429],[31.1141,-15.996904],[31.259983,-16.023465],[31.404574,-16.162268],[31.465655,-16.167746],[31.519192,-16.196478],[31.710705,-16.217872],[31.871935,-16.35037],[31.88563,-16.406284],[31.910279,-16.428919],[32.290463,-16.45176],[32.671783,-16.599761],[32.698655,-16.686784],[32.731314,-16.708798],[32.769348,-16.695466],[32.893372,-16.712415],[32.968509,-16.681616],[32.916213,-16.847911],[32.828776,-16.935141],[32.954143,-17.167168],[32.973212,-17.297909],[33.021633,-17.345555],[32.936573,-17.498311],[32.951663,-17.551434],[33.006646,-17.580993],[33.024526,-17.619233],[33.004063,-17.675561],[32.999102,-17.794313],[32.946082,-17.834724],[32.952128,-17.940247],[32.927375,-17.972907],[32.975537,-18.183333],[32.95497,-18.256301],[33.042768,-18.352005],[32.985356,-18.412467],[32.996414,-18.46714],[32.870737,-18.535767],[32.92231,-18.693173],[32.902518,-18.774512],[32.787642,-18.791255],[32.69142,-18.83425],[32.696794,-18.897192],[32.71576,-18.919826],[32.681085,-18.954966],[32.698965,-19.022249],[32.814203,-19.023799],[32.855906,-19.083744],[32.828673,-19.284558],[32.768831,-19.363623],[32.763354,-19.463979],[32.825365,-19.479172],[32.832187,-19.500876],[32.819629,-19.674302],[32.872184,-19.690218],[32.943188,-19.64929],[32.960964,-19.658799],[32.962411,-19.735383],[33.032795,-19.784166],[33.001995,-19.927],[33.007266,-20.032006],[32.95373,-20.030249],[32.926548,-20.086473],[32.88531,-20.10301],[32.852961,-20.273852],[32.735862,-20.414205],[32.671783,-20.531821],[32.646462,-20.557969],[32.513136,-20.564583],[32.481614,-20.603031],[32.469108,-20.68685],[32.491019,-20.936344],[32.339814,-21.134058],[32.380638,-21.165477],[32.37175,-21.187905],[32.447197,-21.313685],[32.408543,-21.290327],[31.433822,-22.302048],[31.288922,-22.39734],[31.255642,-22.357962],[31.213474,-22.36189],[31.152599,-22.316414],[31.087642,-22.336878],[30.83789,-22.282308],[30.693919,-22.302772],[30.632424,-22.330677],[30.488454,-22.310213],[30.334975,-22.344733],[30.2217,-22.290886],[30.13509,-22.293574],[30.005279,-22.22226],[29.758886,-22.130896],[29.641064,-22.129242],[29.551043,-22.145986],[29.53182,-22.172444],[29.456889,-22.158801],[29.356947,-22.190944],[29.273644,-22.125108],[29.239331,-22.072605],[29.10797,-22.069194],[29.040532,-22.020929],[29.013815,-21.940417],[29.057637,-21.829209],[29.038723,-21.797893],[28.860853,-21.757379],[28.6157,-21.647101],[28.553998,-21.636559],[28.464598,-21.660331],[28.321919,-21.603486],[28.032893,-21.577855],[27.990415,-21.551913],[27.953208,-21.510469],[27.950211,-21.438329],[27.884995,-21.310171],[27.666611,-21.071219],[27.676016,-20.866684],[27.709605,-20.756716],[27.682475,-20.637344],[27.698133,-20.509083],[27.590853,-20.473323],[27.340739,-20.473013],[27.268392,-20.49575],[27.283998,-20.35147],[27.266015,-20.234164],[27.201781,-20.092984],[27.097343,-20.068903],[27.02665,-20.010095],[26.925054,-20.000897],[26.811882,-19.94643],[26.713904,-19.927413],[26.673803,-19.883385],[26.595565,-19.855583],[26.549263,-19.784063],[26.431854,-19.73652],[26.385242,-19.679056],[26.312171,-19.651358],[26.333462,-19.613014],[26.30349,-19.577254],[26.194452,-19.5602],[26.155488,-19.537153],[26.034359,-19.243734],[25.948576,-19.103277],[25.9678,-19.000958],[25.940721,-18.921273],[25.815251,-18.813993],[25.779491,-18.738752],[25.761921,-18.630335],[25.669523,-18.566049],[25.508499,-18.399134],[25.387525,-18.138995],[25.296368,-18.068612],[25.255026,-18.001122],[25.21937,-17.879786],[25.259781,-17.794107]]]}}]}
